{"type": "FeatureCollection", "features": [{"type": "Feature", "id": "H0501-1.2", "geometry": {"type": "MultiPoint", "coordinates": [[300392.3259, 2770163.828]]}, "geometry_name": "the_geom", "properties": {"項次": 2, "名稱": "104建0261", "面積": 301.63, "體積": false, "圖形": "點"}, "bbox": [300392.3259, 2770163.828, 300392.3259, 2770163.828]}, {"type": "Feature", "id": "H0501-1.5", "geometry": {"type": "MultiPoint", "coordinates": [[301235.541, 2769495.262]]}, "geometry_name": "the_geom", "properties": {"項次": 5, "名稱": "104建0281", "面積": 281.07, "體積": false, "圖形": "點"}, "bbox": [301235.541, 2769495.262, 301235.541, 2769495.262]}, {"type": "Feature", "id": "H0501-1.6", "geometry": {"type": "MultiPoint", "coordinates": [[303997.5535, 2771205.159]]}, "geometry_name": "the_geom", "properties": {"項次": 6, "名稱": "104建0282", "面積": 13.46, "體積": false, "圖形": "點"}, "bbox": [303997.5535, 2771205.159, 303997.5535, 2771205.159]}, {"type": "Feature", "id": "H0501-1.16", "geometry": {"type": "MultiPoint", "coordinates": [[302747.9873, 2772915.377]]}, "geometry_name": "the_geom", "properties": {"項次": 16, "名稱": "105建0061", "面積": 210.03, "體積": false, "圖形": "點"}, "bbox": [302747.9873, 2772915.377, 302747.9873, 2772915.377]}, {"type": "Feature", "id": "H0501-1.18", "geometry": {"type": "MultiPoint", "coordinates": [[306335.391, 2769886.104]]}, "geometry_name": "the_geom", "properties": {"項次": 18, "名稱": "105建0067", "面積": 4.63, "體積": false, "圖形": "點"}, "bbox": [306335.391, 2769886.104, 306335.391, 2769886.104]}, {"type": "Feature", "id": "H0501-1.19", "geometry": {"type": "MultiPoint", "coordinates": [[302709.7433, 2769202.405]]}, "geometry_name": "the_geom", "properties": {"項次": 19, "名稱": "105建0069", "面積": 0, "體積": false, "圖形": "點"}, "bbox": [302709.7433, 2769202.405, 302709.7433, 2769202.405]}, {"type": "Feature", "id": "H0501-1.21", "geometry": {"type": "MultiPoint", "coordinates": [[303978.0625, 2770497.402]]}, "geometry_name": "the_geom", "properties": {"項次": 21, "名稱": "105建0075", "面積": 161.55, "體積": false, "圖形": "點"}, "bbox": [303978.0625, 2770497.402, 303978.0625, 2770497.402]}, {"type": "Feature", "id": "H0501-1.22", "geometry": {"type": "MultiPoint", "coordinates": [[302823.4673, 2772403.089]]}, "geometry_name": "the_geom", "properties": {"項次": 22, "名稱": "105建0078", "面積": 0, "體積": false, "圖形": "點"}, "bbox": [302823.4673, 2772403.089, 302823.4673, 2772403.089]}, {"type": "Feature", "id": "H0501-1.27", "geometry": {"type": "MultiPoint", "coordinates": [[302478.4312, 2771645.451]]}, "geometry_name": "the_geom", "properties": {"項次": 27, "名稱": "105建0090", "面積": 0, "體積": false, "圖形": "點"}, "bbox": [302478.4312, 2771645.451, 302478.4312, 2771645.451]}, {"type": "Feature", "id": "H0501-1.28", "geometry": {"type": "MultiPoint", "coordinates": [[303079.8984, 2770739.99]]}, "geometry_name": "the_geom", "properties": {"項次": 28, "名稱": "105建0095", "面積": 0, "體積": false, "圖形": "點"}, "bbox": [303079.8984, 2770739.99, 303079.8984, 2770739.99]}, {"type": "Feature", "id": "H0501-1.29", "geometry": {"type": "MultiPoint", "coordinates": [[305143.4698, 2769187.227]]}, "geometry_name": "the_geom", "properties": {"項次": 29, "名稱": "105建0096", "面積": 0, "體積": false, "圖形": "點"}, "bbox": [305143.4698, 2769187.227, 305143.4698, 2769187.227]}, {"type": "Feature", "id": "H0501-1.32", "geometry": {"type": "MultiPoint", "coordinates": [[304850.6277, 2772010.953]]}, "geometry_name": "the_geom", "properties": {"項次": 32, "名稱": "105建0109", "面積": 0, "體積": false, "圖形": "點"}, "bbox": [304850.6277, 2772010.953, 304850.6277, 2772010.953]}, {"type": "Feature", "id": "H0501-1.33", "geometry": {"type": "MultiPoint", "coordinates": [[303185.9244, 2770326.108]]}, "geometry_name": "the_geom", "properties": {"項次": 33, "名稱": "105建0110", "面積": 0, "體積": false, "圖形": "點"}, "bbox": [303185.9244, 2770326.108, 303185.9244, 2770326.108]}, {"type": "Feature", "id": "H0501-1.36", "geometry": {"type": "MultiPoint", "coordinates": [[304676.7627, 2771912.268]]}, "geometry_name": "the_geom", "properties": {"項次": 36, "名稱": "105建0125", "面積": 0, "體積": false, "圖形": "點"}, "bbox": [304676.7627, 2771912.268, 304676.7627, 2771912.268]}, {"type": "Feature", "id": "H0501-1.45", "geometry": {"type": "MultiPoint", "coordinates": [[304046.0185, 2771357.643]]}, "geometry_name": "the_geom", "properties": {"項次": 45, "名稱": "105建0137", "面積": 0, "體積": false, "圖形": "點"}, "bbox": [304046.0185, 2771357.643, 304046.0185, 2771357.643]}, {"type": "Feature", "id": "H0501-1.47", "geometry": {"type": "MultiPoint", "coordinates": [[301845.5211, 2772481.41]]}, "geometry_name": "the_geom", "properties": {"項次": 47, "名稱": "105建0147", "面積": 0, "體積": false, "圖形": "點"}, "bbox": [301845.5211, 2772481.41, 301845.5211, 2772481.41]}, {"type": "Feature", "id": "H0501-1.48", "geometry": {"type": "MultiPoint", "coordinates": [[301758.2111, 2769843.419]]}, "geometry_name": "the_geom", "properties": {"項次": 48, "名稱": "105建0153", "面積": 439.79, "體積": false, "圖形": "點"}, "bbox": [301758.2111, 2769843.419, 301758.2111, 2769843.419]}, {"type": "Feature", "id": "H0501-1.50", "geometry": {"type": "MultiPoint", "coordinates": [[302561.7163, 2772123.499]]}, "geometry_name": "the_geom", "properties": {"項次": 50, "名稱": "105建0162", "面積": 0, "體積": false, "圖形": "點"}, "bbox": [302561.7163, 2772123.499, 302561.7163, 2772123.499]}, {"type": "Feature", "id": "H0501-1.54", "geometry": {"type": "MultiPoint", "coordinates": [[302855.2423, 2770940.811]]}, "geometry_name": "the_geom", "properties": {"項次": 54, "名稱": "105建0173", "面積": 174.74, "體積": false, "圖形": "點"}, "bbox": [302855.2423, 2770940.811, 302855.2423, 2770940.811]}, {"type": "Feature", "id": "H0501-1.58", "geometry": {"type": "MultiPoint", "coordinates": [[301163.743, 2770963.262]]}, "geometry_name": "the_geom", "properties": {"項次": 58, "名稱": "105建0180", "面積": 0, "體積": false, "圖形": "點"}, "bbox": [301163.743, 2770963.262, 301163.743, 2770963.262]}, {"type": "Feature", "id": "H0501-1.64", "geometry": {"type": "MultiPoint", "coordinates": [[304091.0726, 2771222.497]]}, "geometry_name": "the_geom", "properties": {"項次": 64, "名稱": "105建0202", "面積": 0, "體積": false, "圖形": "點"}, "bbox": [304091.0726, 2771222.497, 304091.0726, 2771222.497]}, {"type": "Feature", "id": "H0501-1.65", "geometry": {"type": "MultiPoint", "coordinates": [[301520.0831, 2770994.093]]}, "geometry_name": "the_geom", "properties": {"項次": 65, "名稱": "105建0206", "面積": 181.05, "體積": false, "圖形": "點"}, "bbox": [301520.0831, 2770994.093, 301520.0831, 2770994.093]}, {"type": "Feature", "id": "H0501-1.67", "geometry": {"type": "MultiPoint", "coordinates": [[304210.8636, 2771496.328]]}, "geometry_name": "the_geom", "properties": {"項次": 67, "名稱": "105建0209", "面積": 0, "體積": false, "圖形": "點"}, "bbox": [304210.8636, 2771496.328, 304210.8636, 2771496.328]}, {"type": "Feature", "id": "H0501-1.68", "geometry": {"type": "MultiPoint", "coordinates": [[305639.5759, 2770647.329]]}, "geometry_name": "the_geom", "properties": {"項次": 68, "名稱": "105建0210", "面積": 0, "體積": false, "圖形": "點"}, "bbox": [305639.5759, 2770647.329, 305639.5759, 2770647.329]}, {"type": "Feature", "id": "H0501-1.73", "geometry": {"type": "MultiPoint", "coordinates": [[304754.4747, 2771751.275]]}, "geometry_name": "the_geom", "properties": {"項次": 73, "名稱": "105建0228", "面積": 0, "體積": false, "圖形": "點"}, "bbox": [304754.4747, 2771751.275, 304754.4747, 2771751.275]}, {"type": "Feature", "id": "H0501-1.75", "geometry": {"type": "MultiPoint", "coordinates": [[300135.0008, 2770059.123]]}, "geometry_name": "the_geom", "properties": {"項次": 75, "名稱": "106建0001", "面積": 93.01, "體積": false, "圖形": "點"}, "bbox": [300135.0008, 2770059.123, 300135.0008, 2770059.123]}, {"type": "Feature", "id": "H0501-1.76", "geometry": {"type": "MultiPoint", "coordinates": [[305476.9108, 2771765.049]]}, "geometry_name": "the_geom", "properties": {"項次": 76, "名稱": "106建0008", "面積": 276.06, "體積": false, "圖形": "點"}, "bbox": [305476.9108, 2771765.049, 305476.9108, 2771765.049]}, {"type": "Feature", "id": "H0501-1.91", "geometry": {"type": "MultiPoint", "coordinates": [[303742.1535, 2771615.712]]}, "geometry_name": "the_geom", "properties": {"項次": 91, "名稱": "106建0051", "面積": 0, "體積": false, "圖形": "點"}, "bbox": [303742.1535, 2771615.712, 303742.1535, 2771615.712]}, {"type": "Feature", "id": "H0501-1.92", "geometry": {"type": "MultiPoint", "coordinates": [[304049.7175, 2770229.281]]}, "geometry_name": "the_geom", "properties": {"項次": 92, "名稱": "106建0053", "面積": 0, "體積": false, "圖形": "點"}, "bbox": [304049.7175, 2770229.281, 304049.7175, 2770229.281]}, {"type": "Feature", "id": "H0501-1.94", "geometry": {"type": "MultiPoint", "coordinates": [[305199.9918, 2770238.927]]}, "geometry_name": "the_geom", "properties": {"項次": 94, "名稱": "106建0059", "面積": 0, "體積": false, "圖形": "點"}, "bbox": [305199.9918, 2770238.927, 305199.9918, 2770238.927]}, {"type": "Feature", "id": "H0501-1.95", "geometry": {"type": "MultiPoint", "coordinates": [[300541.9039, 2770542.019]]}, "geometry_name": "the_geom", "properties": {"項次": 95, "名稱": "106建0062", "面積": 0, "體積": false, "圖形": "點"}, "bbox": [300541.9039, 2770542.019, 300541.9039, 2770542.019]}, {"type": "Feature", "id": "H0501-1.99", "geometry": {"type": "MultiPoint", "coordinates": [[301658.1671, 2773257.838]]}, "geometry_name": "the_geom", "properties": {"項次": 99, "名稱": "106建0068", "面積": 644.17, "體積": false, "圖形": "點"}, "bbox": [301658.1671, 2773257.838, 301658.1671, 2773257.838]}, {"type": "Feature", "id": "H0501-1.102", "geometry": {"type": "MultiPoint", "coordinates": [[302361.2532, 2772310.907]]}, "geometry_name": "the_geom", "properties": {"項次": 102, "名稱": "106建0077", "面積": 51.94, "體積": false, "圖形": "點"}, "bbox": [302361.2532, 2772310.907, 302361.2532, 2772310.907]}, {"type": "Feature", "id": "H0501-1.103", "geometry": {"type": "MultiPoint", "coordinates": [[302966.7043, 2772852.501]]}, "geometry_name": "the_geom", "properties": {"項次": 103, "名稱": "106建0078", "面積": 0, "體積": false, "圖形": "點"}, "bbox": [302966.7043, 2772852.501, 302966.7043, 2772852.501]}, {"type": "Feature", "id": "H0501-1.113", "geometry": {"type": "MultiPoint", "coordinates": [[301979.9401, 2772882.477]]}, "geometry_name": "the_geom", "properties": {"項次": 113, "名稱": "106建0098", "面積": 0, "體積": false, "圖形": "點"}, "bbox": [301979.9401, 2772882.477, 301979.9401, 2772882.477]}, {"type": "Feature", "id": "H0501-1.119", "geometry": {"type": "MultiPoint", "coordinates": [[302836.4373, 2770744.271]]}, "geometry_name": "the_geom", "properties": {"項次": 119, "名稱": "106建0110", "面積": 428.81, "體積": false, "圖形": "點"}, "bbox": [302836.4373, 2770744.271, 302836.4373, 2770744.271]}, {"type": "Feature", "id": "H0501-1.128", "geometry": {"type": "MultiPoint", "coordinates": [[302724.8793, 2772689.404]]}, "geometry_name": "the_geom", "properties": {"項次": 128, "名稱": "106建0135", "面積": 94.26, "體積": false, "圖形": "點"}, "bbox": [302724.8793, 2772689.404, 302724.8793, 2772689.404]}, {"type": "Feature", "id": "H0501-1.135", "geometry": {"type": "MultiPoint", "coordinates": [[302649.6103, 2771922.85]]}, "geometry_name": "the_geom", "properties": {"項次": 135, "名稱": "106建0159", "面積": 57, "體積": false, "圖形": "點"}, "bbox": [302649.6103, 2771922.85, 302649.6103, 2771922.85]}, {"type": "Feature", "id": "H0501-1.136", "geometry": {"type": "MultiPoint", "coordinates": [[300591.9599, 2769720.63]]}, "geometry_name": "the_geom", "properties": {"項次": 136, "名稱": "106建0160", "面積": 26.67, "體積": false, "圖形": "點"}, "bbox": [300591.9599, 2769720.63, 300591.9599, 2769720.63]}, {"type": "Feature", "id": "H0501-1.137", "geometry": {"type": "MultiPoint", "coordinates": [[301797.0571, 2773152.973]]}, "geometry_name": "the_geom", "properties": {"項次": 137, "名稱": "106建0161", "面積": 0, "體積": false, "圖形": "點"}, "bbox": [301797.0571, 2773152.973, 301797.0571, 2773152.973]}, {"type": "Feature", "id": "H0501-1.150", "geometry": {"type": "MultiPoint", "coordinates": [[301731.3951, 2772820.142]]}, "geometry_name": "the_geom", "properties": {"項次": 150, "名稱": "106建0183", "面積": 51.63, "體積": false, "圖形": "點"}, "bbox": [301731.3951, 2772820.142, 301731.3951, 2772820.142]}, {"type": "Feature", "id": "H0501-1.157", "geometry": {"type": "MultiPoint", "coordinates": [[301850.8521, 2772276.66]]}, "geometry_name": "the_geom", "properties": {"項次": 157, "名稱": "106建0202", "面積": 147.11, "體積": false, "圖形": "點"}, "bbox": [301850.8521, 2772276.66, 301850.8521, 2772276.66]}, {"type": "Feature", "id": "H0501-1.161", "geometry": {"type": "MultiPoint", "coordinates": [[303084.3974, 2770864.449]]}, "geometry_name": "the_geom", "properties": {"項次": 161, "名稱": "106建0208", "面積": 45.71, "體積": false, "圖形": "點"}, "bbox": [303084.3974, 2770864.449, 303084.3974, 2770864.449]}, {"type": "Feature", "id": "H0501-1.163", "geometry": {"type": "MultiPoint", "coordinates": [[300176.2638, 2769244.025]]}, "geometry_name": "the_geom", "properties": {"項次": 163, "名稱": "106建0211", "面積": 0, "體積": false, "圖形": "點"}, "bbox": [300176.2638, 2769244.025, 300176.2638, 2769244.025]}, {"type": "Feature", "id": "H0501-1.169", "geometry": {"type": "MultiPoint", "coordinates": [[305439.6118, 2771142.288]]}, "geometry_name": "the_geom", "properties": {"項次": 169, "名稱": "106建0223", "面積": 221.69, "體積": false, "圖形": "點"}, "bbox": [305439.6118, 2771142.288, 305439.6118, 2771142.288]}, {"type": "Feature", "id": "H0501-1.170", "geometry": {"type": "MultiPoint", "coordinates": [[303790.1665, 2769854.795]]}, "geometry_name": "the_geom", "properties": {"項次": 170, "名稱": "106建0227", "面積": 63.92, "體積": false, "圖形": "點"}, "bbox": [303790.1665, 2769854.795, 303790.1665, 2769854.795]}, {"type": "Feature", "id": "H0501-1.173", "geometry": {"type": "MultiPoint", "coordinates": [[303254.5754, 2769257.051]]}, "geometry_name": "the_geom", "properties": {"項次": 173, "名稱": "107建0003", "面積": 542, "體積": false, "圖形": "點"}, "bbox": [303254.5754, 2769257.051, 303254.5754, 2769257.051]}, {"type": "Feature", "id": "H0501-1.174", "geometry": {"type": "MultiPoint", "coordinates": [[303602.0825, 2771685.382]]}, "geometry_name": "the_geom", "properties": {"項次": 174, "名稱": "107建0007", "面積": 390.62, "體積": false, "圖形": "點"}, "bbox": [303602.0825, 2771685.382, 303602.0825, 2771685.382]}, {"type": "Feature", "id": "H0501-1.175", "geometry": {"type": "MultiPoint", "coordinates": [[305535.2948, 2771775.733]]}, "geometry_name": "the_geom", "properties": {"項次": 175, "名稱": "107建0010", "面積": 0, "體積": false, "圖形": "點"}, "bbox": [305535.2948, 2771775.733, 305535.2948, 2771775.733]}, {"type": "Feature", "id": "H0501-1.178", "geometry": {"type": "MultiPoint", "coordinates": [[305506.3148, 2772399.735]]}, "geometry_name": "the_geom", "properties": {"項次": 178, "名稱": "107建0017", "面積": 0, "體積": false, "圖形": "點"}, "bbox": [305506.3148, 2772399.735, 305506.3148, 2772399.735]}, {"type": "Feature", "id": "H0501-1.179", "geometry": {"type": "MultiPoint", "coordinates": [[305538.6368, 2772460.452]]}, "geometry_name": "the_geom", "properties": {"項次": 179, "名稱": "107建0018", "面積": 0, "體積": false, "圖形": "點"}, "bbox": [305538.6368, 2772460.452, 305538.6368, 2772460.452]}, {"type": "Feature", "id": "H0501-1.180", "geometry": {"type": "MultiPoint", "coordinates": [[301794.3201, 2773106.247]]}, "geometry_name": "the_geom", "properties": {"項次": 180, "名稱": "107建0022", "面積": 109.72, "體積": false, "圖形": "點"}, "bbox": [301794.3201, 2773106.247, 301794.3201, 2773106.247]}, {"type": "Feature", "id": "H0501-1.181", "geometry": {"type": "MultiPoint", "coordinates": [[304997.5057, 2769724.978]]}, "geometry_name": "the_geom", "properties": {"項次": 181, "名稱": "107建0026", "面積": 16.38, "體積": false, "圖形": "點"}, "bbox": [304997.5057, 2769724.978, 304997.5057, 2769724.978]}, {"type": "Feature", "id": "H0501-1.182", "geometry": {"type": "MultiPoint", "coordinates": [[304348.3736, 2769953.213]]}, "geometry_name": "the_geom", "properties": {"項次": 182, "名稱": "107建0027", "面積": 415.27, "體積": false, "圖形": "點"}, "bbox": [304348.3736, 2769953.213, 304348.3736, 2769953.213]}, {"type": "Feature", "id": "H0501-1.188", "geometry": {"type": "MultiPoint", "coordinates": [[303021.6983, 2770306.66]]}, "geometry_name": "the_geom", "properties": {"項次": 188, "名稱": "107建0047", "面積": 54.48, "體積": false, "圖形": "點"}, "bbox": [303021.6983, 2770306.66, 303021.6983, 2770306.66]}, {"type": "Feature", "id": "H0501-1.196", "geometry": {"type": "MultiPoint", "coordinates": [[303465.8844, 2769861.906]]}, "geometry_name": "the_geom", "properties": {"項次": 196, "名稱": "107建0071", "面積": 61.69, "體積": false, "圖形": "點"}, "bbox": [303465.8844, 2769861.906, 303465.8844, 2769861.906]}, {"type": "Feature", "id": "H0501-1.198", "geometry": {"type": "MultiPoint", "coordinates": [[304086.4406, 2770434.832]]}, "geometry_name": "the_geom", "properties": {"項次": 198, "名稱": "107建0076", "面積": 69.1, "體積": false, "圖形": "點"}, "bbox": [304086.4406, 2770434.832, 304086.4406, 2770434.832]}, {"type": "Feature", "id": "H0501-1.199", "geometry": {"type": "MultiPoint", "coordinates": [[305535.4158, 2769419.446]]}, "geometry_name": "the_geom", "properties": {"項次": 199, "名稱": "107建0078", "面積": 68.16, "體積": false, "圖形": "點"}, "bbox": [305535.4158, 2769419.446, 305535.4158, 2769419.446]}, {"type": "Feature", "id": "H0501-1.200", "geometry": {"type": "MultiPoint", "coordinates": [[305029.8237, 2772677.929]]}, "geometry_name": "the_geom", "properties": {"項次": 200, "名稱": "107建0079", "面積": 163.17, "體積": false, "圖形": "點"}, "bbox": [305029.8237, 2772677.929, 305029.8237, 2772677.929]}, {"type": "Feature", "id": "H0501-1.204", "geometry": {"type": "MultiPoint", "coordinates": [[301461.4791, 2769253.706]]}, "geometry_name": "the_geom", "properties": {"項次": 204, "名稱": "107建0088", "面積": 67, "體積": false, "圖形": "點"}, "bbox": [301461.4791, 2769253.706, 301461.4791, 2769253.706]}, {"type": "Feature", "id": "H0501-1.207", "geometry": {"type": "MultiPoint", "coordinates": [[304762.2107, 2771567.09]]}, "geometry_name": "the_geom", "properties": {"項次": 207, "名稱": "107建0096", "面積": 116.71, "體積": false, "圖形": "點"}, "bbox": [304762.2107, 2771567.09, 304762.2107, 2771567.09]}, {"type": "Feature", "id": "H0501-1.211", "geometry": {"type": "MultiPoint", "coordinates": [[303699.7705, 2770814.609]]}, "geometry_name": "the_geom", "properties": {"項次": 211, "名稱": "107建0111", "面積": 841.57, "體積": false, "圖形": "點"}, "bbox": [303699.7705, 2770814.609, 303699.7705, 2770814.609]}, {"type": "Feature", "id": "H0501-1.212", "geometry": {"type": "MultiPoint", "coordinates": [[302000.5042, 2772734.251]]}, "geometry_name": "the_geom", "properties": {"項次": 212, "名稱": "107建0113", "面積": 569.84, "體積": false, "圖形": "點"}, "bbox": [302000.5042, 2772734.251, 302000.5042, 2772734.251]}, {"type": "Feature", "id": "H0501-1.215", "geometry": {"type": "MultiPoint", "coordinates": [[301098.952, 2770454.796]]}, "geometry_name": "the_geom", "properties": {"項次": 215, "名稱": "107建0123", "面積": 312.4, "體積": false, "圖形": "點"}, "bbox": [301098.952, 2770454.796, 301098.952, 2770454.796]}, {"type": "Feature", "id": "H0501-1.217", "geometry": {"type": "MultiPoint", "coordinates": [[302980.8563, 2773090.116]]}, "geometry_name": "the_geom", "properties": {"項次": 217, "名稱": "107建0126", "面積": 57.05, "體積": false, "圖形": "點"}, "bbox": [302980.8563, 2773090.116, 302980.8563, 2773090.116]}, {"type": "Feature", "id": "H0501-1.220", "geometry": {"type": "MultiPoint", "coordinates": [[303089.5634, 2770036.174]]}, "geometry_name": "the_geom", "properties": {"項次": 220, "名稱": "107建0137", "面積": 48.3, "體積": false, "圖形": "點"}, "bbox": [303089.5634, 2770036.174, 303089.5634, 2770036.174]}, {"type": "Feature", "id": "H0501-1.223", "geometry": {"type": "MultiPoint", "coordinates": [[304710.2867, 2771561.765]]}, "geometry_name": "the_geom", "properties": {"項次": 223, "名稱": "107建0142", "面積": 0, "體積": false, "圖形": "點"}, "bbox": [304710.2867, 2771561.765, 304710.2867, 2771561.765]}, {"type": "Feature", "id": "H0501-1.225", "geometry": {"type": "MultiPoint", "coordinates": [[302908.7493, 2769190.598]]}, "geometry_name": "the_geom", "properties": {"項次": 225, "名稱": "107建0155", "面積": 69.37, "體積": false, "圖形": "點"}, "bbox": [302908.7493, 2769190.598, 302908.7493, 2769190.598]}, {"type": "Feature", "id": "H0501-1.229", "geometry": {"type": "MultiPoint", "coordinates": [[302859.1843, 2771298.99]]}, "geometry_name": "the_geom", "properties": {"項次": 229, "名稱": "107建0163", "面積": 45.5, "體積": false, "圖形": "點"}, "bbox": [302859.1843, 2771298.99, 302859.1843, 2771298.99]}, {"type": "Feature", "id": "H0501-1.232", "geometry": {"type": "MultiPoint", "coordinates": [[302460.3302, 2769568.48]]}, "geometry_name": "the_geom", "properties": {"項次": 232, "名稱": "107建0170", "面積": 0, "體積": false, "圖形": "點"}, "bbox": [302460.3302, 2769568.48, 302460.3302, 2769568.48]}, {"type": "Feature", "id": "H0501-1.233", "geometry": {"type": "MultiPoint", "coordinates": [[302154.7342, 2773305.826]]}, "geometry_name": "the_geom", "properties": {"項次": 233, "名稱": "107建0171", "面積": 949.24, "體積": false, "圖形": "點"}, "bbox": [302154.7342, 2773305.826, 302154.7342, 2773305.826]}, {"type": "Feature", "id": "H0501-1.237", "geometry": {"type": "MultiPoint", "coordinates": [[301673.0211, 2772812.173]]}, "geometry_name": "the_geom", "properties": {"項次": 237, "名稱": "107建0185", "面積": 0, "體積": false, "圖形": "點"}, "bbox": [301673.0211, 2772812.173, 301673.0211, 2772812.173]}, {"type": "Feature", "id": "H0501-1.238", "geometry": {"type": "MultiPoint", "coordinates": [[302695.7113, 2772793.18]]}, "geometry_name": "the_geom", "properties": {"項次": 238, "名稱": "107建0188", "面積": 0, "體積": false, "圖形": "點"}, "bbox": [302695.7113, 2772793.18, 302695.7113, 2772793.18]}, {"type": "Feature", "id": "H0501-1.239", "geometry": {"type": "MultiPoint", "coordinates": [[301853.5531, 2773018.269]]}, "geometry_name": "the_geom", "properties": {"項次": 239, "名稱": "107建0189", "面積": 47.25, "體積": false, "圖形": "點"}, "bbox": [301853.5531, 2773018.269, 301853.5531, 2773018.269]}, {"type": "Feature", "id": "H0501-1.242", "geometry": {"type": "MultiPoint", "coordinates": [[302211.1442, 2771834.1]]}, "geometry_name": "the_geom", "properties": {"項次": 242, "名稱": "107建0201", "面積": 411.48, "體積": false, "圖形": "點"}, "bbox": [302211.1442, 2771834.1, 302211.1442, 2771834.1]}, {"type": "Feature", "id": "H0501-1.251", "geometry": {"type": "MultiPoint", "coordinates": [[303721.0045, 2769947.741]]}, "geometry_name": "the_geom", "properties": {"項次": 251, "名稱": "108建0002", "面積": 956.38, "體積": false, "圖形": "點"}, "bbox": [303721.0045, 2769947.741, 303721.0045, 2769947.741]}, {"type": "Feature", "id": "H0501-1.254", "geometry": {"type": "MultiPoint", "coordinates": [[303168.1754, 2771240.275]]}, "geometry_name": "the_geom", "properties": {"項次": 254, "名稱": "108建0008", "面積": 36.35, "體積": false, "圖形": "點"}, "bbox": [303168.1754, 2771240.275, 303168.1754, 2771240.275]}, {"type": "Feature", "id": "H0501-1.255", "geometry": {"type": "MultiPoint", "coordinates": [[302869.9053, 2770785.374]]}, "geometry_name": "the_geom", "properties": {"項次": 255, "名稱": "108建0011", "面積": 53.43, "體積": false, "圖形": "點"}, "bbox": [302869.9053, 2770785.374, 302869.9053, 2770785.374]}, {"type": "Feature", "id": "H0501-1.265", "geometry": {"type": "MultiPoint", "coordinates": [[301301.814, 2770861.13]]}, "geometry_name": "the_geom", "properties": {"項次": 265, "名稱": "108建0040", "面積": 105.41, "體積": false, "圖形": "點"}, "bbox": [301301.814, 2770861.13, 301301.814, 2770861.13]}, {"type": "Feature", "id": "H0501-1.266", "geometry": {"type": "MultiPoint", "coordinates": [[306038.9639, 2771523.892]]}, "geometry_name": "the_geom", "properties": {"項次": 266, "名稱": "108建0049", "面積": 213.44, "體積": false, "圖形": "點"}, "bbox": [306038.9639, 2771523.892, 306038.9639, 2771523.892]}, {"type": "Feature", "id": "H0501-1.275", "geometry": {"type": "MultiPoint", "coordinates": [[304471.4286, 2769856.793]]}, "geometry_name": "the_geom", "properties": {"項次": 275, "名稱": "108建0096", "面積": 1127.97, "體積": false, "圖形": "點"}, "bbox": [304471.4286, 2769856.793, 304471.4286, 2769856.793]}, {"type": "Feature", "id": "H0501-1.301", "geometry": {"type": "MultiPoint", "coordinates": [[301313.975, 2769642.759]]}, "geometry_name": "the_geom", "properties": {"項次": 301, "名稱": "109建0180", "面積": 0, "體積": false, "圖形": "點"}, "bbox": [301313.975, 2769642.759, 301313.975, 2769642.759]}, {"type": "Feature", "id": "H0501-1.312", "geometry": {"type": "MultiPoint", "coordinates": [[305065.8475, 2770443.502]]}, "geometry_name": "the_geom", "properties": {"項次": 312, "名稱": "大安路一段84巷5號 2樓", "面積": 55.19, "體積": false, "圖形": "點"}, "bbox": [305065.8475, 2770443.502, 305065.8475, 2770443.502]}, {"type": "Feature", "id": "H0501-1.313", "geometry": {"type": "MultiPoint", "coordinates": [[300035.8778, 2769613.002]]}, "geometry_name": "the_geom", "properties": {"項次": 313, "名稱": "大理街136號", "面積": 163.47, "體積": false, "圖形": "點"}, "bbox": [300035.8778, 2769613.002, 300035.8778, 2769613.002]}, {"type": "Feature", "id": "H0501-1.317", "geometry": {"type": "MultiPoint", "coordinates": [[302032.1282, 2773026.252]]}, "geometry_name": "the_geom", "properties": {"項次": 317, "名稱": "大龍街46巷3號", "面積": 97.16, "體積": false, "圖形": "點"}, "bbox": [302032.1282, 2773026.252, 302032.1282, 2773026.252]}, {"type": "Feature", "id": "H0501-1.318", "geometry": {"type": "MultiPoint", "coordinates": [[302882.5346, 2772230.502]]}, "geometry_name": "the_geom", "properties": {"項次": 318, "名稱": "中山北路二段77巷12號 7樓之1", "面積": 29.69, "體積": false, "圖形": "點"}, "bbox": [302882.5346, 2772230.502, 302882.5346, 2772230.502]}, {"type": "Feature", "id": "H0501-1.323", "geometry": {"type": "MultiPoint", "coordinates": [[304825.0037, 2770161.002]]}, "geometry_name": "the_geom", "properties": {"項次": 323, "名稱": "仁愛路三段157號 2樓", "面積": 420.5, "體積": false, "圖形": "點"}, "bbox": [304825.0037, 2770161.002, 304825.0037, 2770161.002]}, {"type": "Feature", "id": "H0501-1.332", "geometry": {"type": "MultiPoint", "coordinates": [[303157.0659, 2770916.502]]}, "geometry_name": "the_geom", "properties": {"項次": 332, "名稱": "北平東路36號", "面積": 216.18, "體積": false, "圖形": "點"}, "bbox": [303157.0659, 2770916.502, 303157.0659, 2770916.502]}, {"type": "Feature", "id": "H0501-1.337", "geometry": {"type": "MultiPoint", "coordinates": [[304655.9724, 2772379.002]]}, "geometry_name": "the_geom", "properties": {"項次": 337, "名稱": "民生東路三段65巷2-1號 3樓", "面積": 148.27, "體積": false, "圖形": "點"}, "bbox": [304655.9724, 2772379.002, 304655.9724, 2772379.002]}, {"type": "Feature", "id": "H0501-1.339", "geometry": {"type": "MultiPoint", "coordinates": [[302114.8469, 2772888.502]]}, "geometry_name": "the_geom", "properties": {"項次": 339, "名稱": "民權西路153號 2樓", "面積": 232.3, "體積": false, "圖形": "點"}, "bbox": [302114.8469, 2772888.502, 302114.8469, 2772888.502]}, {"type": "Feature", "id": "H0501-1.340", "geometry": {"type": "MultiPoint", "coordinates": [[302777.1595, 2772798.002]]}, "geometry_name": "the_geom", "properties": {"項次": 340, "名稱": "民權東路一段2號", "面積": 405.85, "體積": false, "圖形": "點"}, "bbox": [302777.1595, 2772798.002, 302777.1595, 2772798.002]}, {"type": "Feature", "id": "H0501-1.341", "geometry": {"type": "MultiPoint", "coordinates": [[303599.0972, 2772884.502]]}, "geometry_name": "the_geom", "properties": {"項次": 341, "名稱": "民權東路二段71巷8號 14樓之8", "面積": 0, "體積": false, "圖形": "點"}, "bbox": [303599.0972, 2772884.502, 303599.0972, 2772884.502]}, {"type": "Feature", "id": "H0501-1.342", "geometry": {"type": "MultiPoint", "coordinates": [[305029.8162, 2772678.002]]}, "geometry_name": "the_geom", "properties": {"項次": 342, "名稱": "民權東路三段140巷6號 B1樓", "面積": 163.17, "體積": false, "圖形": "點"}, "bbox": [305029.8162, 2772678.002, 305029.8162, 2772678.002]}, {"type": "Feature", "id": "H0501-1.347", "geometry": {"type": "MultiPoint", "coordinates": [[303484.9097, 2769569.002]]}, "geometry_name": "the_geom", "properties": {"項次": 347, "名稱": "永康街1號 2樓", "面積": 54.61, "體積": false, "圖形": "點"}, "bbox": [303484.9097, 2769569.002, 303484.9097, 2769569.002]}, {"type": "Feature", "id": "H0501-1.362", "geometry": {"type": "MultiPoint", "coordinates": [[303560.7847, 2768987.252]]}, "geometry_name": "the_geom", "properties": {"項次": 362, "名稱": "和平東路一段141巷15號", "面積": 177.58, "體積": false, "圖形": "點"}, "bbox": [303560.7847, 2768987.252, 303560.7847, 2768987.252]}, {"type": "Feature", "id": "H0501-1.367", "geometry": {"type": "MultiPoint", "coordinates": [[301589.6281, 2772312.502]]}, "geometry_name": "the_geom", "properties": {"項次": 367, "名稱": "延平北路二段170號", "面積": 100.62, "體積": false, "圖形": "點"}, "bbox": [301589.6281, 2772312.502, 301589.6281, 2772312.502]}, {"type": "Feature", "id": "H0501-1.369", "geometry": {"type": "MultiPoint", "coordinates": [[304138.0348, 2770487.252]]}, "geometry_name": "the_geom", "properties": {"項次": 369, "名稱": "忠孝東路三段98號 2樓", "面積": 123.09, "體積": false, "圖形": "點"}, "bbox": [304138.0348, 2770487.252, 304138.0348, 2770487.252]}, {"type": "Feature", "id": "H0501-1.371", "geometry": {"type": "MultiPoint", "coordinates": [[302194.3469, 2771744.002]]}, "geometry_name": "the_geom", "properties": {"項次": 371, "名稱": "承德路一段86號", "面積": 220.51, "體積": false, "圖形": "點"}, "bbox": [302194.3469, 2771744.002, 302194.3469, 2771744.002]}, {"type": "Feature", "id": "H0501-1.374", "geometry": {"type": "MultiPoint", "coordinates": [[302253.3469, 2772380.752]]}, "geometry_name": "the_geom", "properties": {"項次": 374, "名稱": "承德路二段112號 6樓之1", "面積": 41.59, "體積": false, "圖形": "點"}, "bbox": [302253.3469, 2772380.752, 302253.3469, 2772380.752]}, {"type": "Feature", "id": "H0501-1.375", "geometry": {"type": "MultiPoint", "coordinates": [[302316.4095, 2771923.002]]}, "geometry_name": "the_geom", "properties": {"項次": 375, "名稱": "承德路二段33-1號", "面積": 167.8, "體積": false, "圖形": "點"}, "bbox": [302316.4095, 2771923.002, 302316.4095, 2771923.002]}, {"type": "Feature", "id": "H0501-1.379", "geometry": {"type": "MultiPoint", "coordinates": [[302922.9408, 2769181.002]]}, "geometry_name": "the_geom", "properties": {"項次": 379, "名稱": "杭州南路二段61巷38號 7樓之6", "面積": 95.42, "體積": false, "圖形": "點"}, "bbox": [302922.9408, 2769181.002, 302922.9408, 2769181.002]}, {"type": "Feature", "id": "H0501-1.384", "geometry": {"type": "MultiPoint", "coordinates": [[303742.2847, 2771562.252]]}, "geometry_name": "the_geom", "properties": {"項次": 384, "名稱": "松江路106-1號", "面積": 418.27, "體積": false, "圖形": "點"}, "bbox": [303742.2847, 2771562.252, 303742.2847, 2771562.252]}, {"type": "Feature", "id": "H0501-1.385", "geometry": {"type": "MultiPoint", "coordinates": [[303819.566, 2772068.502]]}, "geometry_name": "the_geom", "properties": {"項次": 385, "名稱": "松江路169號", "面積": 164.3, "體積": false, "圖形": "點"}, "bbox": [303819.566, 2772068.502, 303819.566, 2772068.502]}, {"type": "Feature", "id": "H0501-1.387", "geometry": {"type": "MultiPoint", "coordinates": [[303362.0034, 2770184.252]]}, "geometry_name": "the_geom", "properties": {"項次": 387, "名稱": "金山南路一段57號 3樓", "面積": 145.02, "體積": false, "圖形": "點"}, "bbox": [303362.0034, 2770184.252, 303362.0034, 2770184.252]}, {"type": "Feature", "id": "H0501-1.388", "geometry": {"type": "MultiPoint", "coordinates": [[303218.5346, 2769859.502]]}, "geometry_name": "the_geom", "properties": {"項次": 388, "名稱": "金山南路一段96號 6樓", "面積": 96.3, "體積": false, "圖形": "點"}, "bbox": [303218.5346, 2769859.502, 303218.5346, 2769859.502]}, {"type": "Feature", "id": "H0501-1.390", "geometry": {"type": "MultiPoint", "coordinates": [[302061.9094, 2771560.252]]}, "geometry_name": "the_geom", "properties": {"項次": 390, "名稱": "長安西路107號 2樓之2", "面積": 109.59, "體積": false, "圖形": "點"}, "bbox": [302061.9094, 2771560.252, 302061.9094, 2771560.252]}, {"type": "Feature", "id": "H0501-1.391", "geometry": {"type": "MultiPoint", "coordinates": [[304955.0037, 2771957.252]]}, "geometry_name": "the_geom", "properties": {"項次": 391, "名稱": "長春路337號 2樓", "面積": 69.89, "體積": false, "圖形": "點"}, "bbox": [304955.0037, 2771957.252, 304955.0037, 2771957.252]}, {"type": "Feature", "id": "H0501-1.393", "geometry": {"type": "MultiPoint", "coordinates": [[304947.0662, 2769625.252]]}, "geometry_name": "the_geom", "properties": {"項次": 393, "名稱": "信義路四段19巷1號 2樓", "面積": 41.77, "體積": false, "圖形": "點"}, "bbox": [304947.0662, 2769625.252, 304947.0662, 2769625.252]}, {"type": "Feature", "id": "H0501-1.394", "geometry": {"type": "MultiPoint", "coordinates": [[301524.4406, 2771863.252]]}, "geometry_name": "the_geom", "properties": {"項次": 394, "名稱": "南京西路227號 5樓之5", "面積": 306.54, "體積": false, "圖形": "點"}, "bbox": [301524.4406, 2771863.252, 301524.4406, 2771863.252]}, {"type": "Feature", "id": "H0501-1.395", "geometry": {"type": "MultiPoint", "coordinates": [[304944.3475, 2771327.252]]}, "geometry_name": "the_geom", "properties": {"項次": 395, "名稱": "南京東路三段256巷55號", "面積": 102.58, "體積": false, "圖形": "點"}, "bbox": [304944.3475, 2771327.252, 304944.3475, 2771327.252]}, {"type": "Feature", "id": "H0501-1.397", "geometry": {"type": "MultiPoint", "coordinates": [[305877.5664, 2771500.752]]}, "geometry_name": "the_geom", "properties": {"項次": 397, "名稱": "南京東路四段52巷19號 2樓", "面積": 86.43, "體積": false, "圖形": "點"}, "bbox": [305877.5664, 2771500.752, 305877.5664, 2771500.752]}, {"type": "Feature", "id": "H0501-1.398", "geometry": {"type": "MultiPoint", "coordinates": [[305878.0352, 2771548.252]]}, "geometry_name": "the_geom", "properties": {"項次": 398, "名稱": "南京東路四段52巷3號 2樓", "面積": 35.14, "體積": false, "圖形": "點"}, "bbox": [305878.0352, 2771548.252, 305878.0352, 2771548.252]}, {"type": "Feature", "id": "H0501-1.407", "geometry": {"type": "MultiPoint", "coordinates": [[300937.503, 2770009.752]]}, "geometry_name": "the_geom", "properties": {"項次": 407, "名稱": "柳州街80號 2樓", "面積": 272.87, "體積": false, "圖形": "點"}, "bbox": [300937.503, 2770009.752, 300937.503, 2770009.752]}, {"type": "Feature", "id": "H0501-1.417", "geometry": {"type": "MultiPoint", "coordinates": [[300354.8466, 2769342.252]]}, "geometry_name": "the_geom", "properties": {"項次": 417, "名稱": "莒光路270號 2樓", "面積": 77.73, "體積": false, "圖形": "點"}, "bbox": [300354.8466, 2769342.252, 300354.8466, 2769342.252]}, {"type": "Feature", "id": "H0501-1.418", "geometry": {"type": "MultiPoint", "coordinates": [[305911.6914, 2769330.502]]}, "geometry_name": "the_geom", "properties": {"項次": 418, "名稱": "通化街36號 6樓", "面積": 64, "體積": false, "圖形": "點"}, "bbox": [305911.6914, 2769330.502, 305911.6914, 2769330.502]}, {"type": "Feature", "id": "H0501-1.420", "geometry": {"type": "MultiPoint", "coordinates": [[304841.5662, 2770628.502]]}, "geometry_name": "the_geom", "properties": {"項次": 420, "名稱": "復興南路一段132號 2樓之1", "面積": 75.09, "體積": false, "圖形": "點"}, "bbox": [304841.5662, 2770628.502, 304841.5662, 2770628.502]}, {"type": "Feature", "id": "H0501-1.421", "geometry": {"type": "MultiPoint", "coordinates": [[304899.535, 2770438.002]]}, "geometry_name": "the_geom", "properties": {"項次": 421, "名稱": "復興南路一段165號 6樓", "面積": 141.69, "體積": false, "圖形": "點"}, "bbox": [304899.535, 2770438.002, 304899.535, 2770438.002]}, {"type": "Feature", "id": "H0501-1.423", "geometry": {"type": "MultiPoint", "coordinates": [[305325.8475, 2771422.752]]}, "geometry_name": "the_geom", "properties": {"項次": 423, "名稱": "敦化北路2號", "面積": 778.28, "體積": false, "圖形": "點"}, "bbox": [305325.8475, 2771422.752, 305325.8475, 2771422.752]}, {"type": "Feature", "id": "H0501-1.424", "geometry": {"type": "MultiPoint", "coordinates": [[305088.16, 2771380.502]]}, "geometry_name": "the_geom", "properties": {"項次": 424, "名稱": "敦化北路4巷25弄18號 2樓", "面積": 93.84, "體積": false, "圖形": "點"}, "bbox": [305088.16, 2771380.502, 305088.16, 2771380.502]}, {"type": "Feature", "id": "H0501-1.425", "geometry": {"type": "MultiPoint", "coordinates": [[305298.4413, 2770989.252]]}, "geometry_name": "the_geom", "properties": {"項次": 425, "名稱": "敦化南路一段100巷11號 3樓", "面積": 43.48, "體積": false, "圖形": "點"}, "bbox": [305298.4413, 2770989.252, 305298.4413, 2770989.252]}, {"type": "Feature", "id": "H0501-1.426", "geometry": {"type": "MultiPoint", "coordinates": [[305435.5663, 2769471.252]]}, "geometry_name": "the_geom", "properties": {"項次": 426, "名稱": "敦化南路二段19號 3樓", "面積": 298.62, "體積": false, "圖形": "點"}, "bbox": [305435.5663, 2769471.252, 305435.5663, 2769471.252]}, {"type": "Feature", "id": "H0501-1.429", "geometry": {"type": "MultiPoint", "coordinates": [[301044.3155, 2770261.752]]}, "geometry_name": "the_geom", "properties": {"項次": 429, "名稱": "貴陽街二段11號 3樓", "面積": 52.11, "體積": false, "圖形": "點"}, "bbox": [301044.3155, 2770261.752, 301044.3155, 2770261.752]}, {"type": "Feature", "id": "H0501-1.430", "geometry": {"type": "MultiPoint", "coordinates": [[301087.878, 2771091.252]]}, "geometry_name": "the_geom", "properties": {"項次": 430, "名稱": "開封街二段39號 11樓之10", "面積": 453.35, "體積": false, "圖形": "點"}, "bbox": [301087.878, 2771091.252, 301087.878, 2771091.252]}, {"type": "Feature", "id": "H0501-1.433", "geometry": {"type": "MultiPoint", "coordinates": [[304107.5348, 2769697.252]]}, "geometry_name": "the_geom", "properties": {"項次": 433, "名稱": "新生南路一段161巷32號 3樓", "面積": 105.6, "體積": false, "圖形": "點"}, "bbox": [304107.5348, 2769697.252, 304107.5348, 2769697.252]}, {"type": "Feature", "id": "H0501-1.434", "geometry": {"type": "MultiPoint", "coordinates": [[303878.3785, 2770453.252]]}, "geometry_name": "the_geom", "properties": {"項次": 434, "名稱": "新生南路一段97巷1號 3樓", "面積": 0, "體積": false, "圖形": "點"}, "bbox": [303878.3785, 2770453.252, 303878.3785, 2770453.252]}, {"type": "Feature", "id": "H0501-1.435", "geometry": {"type": "MultiPoint", "coordinates": [[304010.191, 2768961.502]]}, "geometry_name": "the_geom", "properties": {"項次": 435, "名稱": "新生南路二段1號", "面積": 0, "體積": false, "圖形": "點"}, "bbox": [304010.191, 2768961.502, 304010.191, 2768961.502]}, {"type": "Feature", "id": "H0501-1.448", "geometry": {"type": "MultiPoint", "coordinates": [[300472.4404, 2769403.752]]}, "geometry_name": "the_geom", "properties": {"項次": 448, "名稱": "萬大路26號", "面積": 335.59, "體積": false, "圖形": "點"}, "bbox": [300472.4404, 2769403.752, 300472.4404, 2769403.752]}, {"type": "Feature", "id": "H0501-1.450", "geometry": {"type": "MultiPoint", "coordinates": [[301687.4406, 2770897.752]]}, "geometry_name": "the_geom", "properties": {"項次": 450, "名稱": "漢口街一段51-1號", "面積": 251.54, "體積": false, "圖形": "點"}, "bbox": [301687.4406, 2770897.752, 301687.4406, 2770897.752]}, {"type": "Feature", "id": "H0501-1.451", "geometry": {"type": "MultiPoint", "coordinates": [[300904.003, 2770970.252]]}, "geometry_name": "the_geom", "properties": {"項次": 451, "名稱": "漢口街二段88號", "面積": 127.84, "體積": false, "圖形": "點"}, "bbox": [300904.003, 2770970.252, 300904.003, 2770970.252]}, {"type": "Feature", "id": "H0501-1.452", "geometry": {"type": "MultiPoint", "coordinates": [[301225.4718, 2770775.252]]}, "geometry_name": "the_geom", "properties": {"項次": 452, "名稱": "漢中街45號", "面積": 29.25, "體積": false, "圖形": "點"}, "bbox": [301225.4718, 2770775.252, 301225.4718, 2770775.252]}, {"type": "Feature", "id": "H0501-1.461", "geometry": {"type": "MultiPoint", "coordinates": [[304625.9412, 2771279.002]]}, "geometry_name": "the_geom", "properties": {"項次": 461, "名稱": "龍江路37巷26號 3樓", "面積": 57.31, "體積": false, "圖形": "點"}, "bbox": [304625.9412, 2771279.002, 304625.9412, 2771279.002]}, {"type": "Feature", "id": "H0501-1.463", "geometry": {"type": "MultiPoint", "coordinates": [[303552.5034, 2770490.252]]}, "geometry_name": "the_geom", "properties": {"項次": 463, "名稱": "臨沂街25巷1號 2樓", "面積": 57.31, "體積": false, "圖形": "點"}, "bbox": [303552.5034, 2770490.252, 303552.5034, 2770490.252]}, {"type": "Feature", "id": "H0501-1.467", "geometry": {"type": "MultiPoint", "coordinates": [[302277.097, 2769466.752]]}, "geometry_name": "the_geom", "properties": {"項次": 467, "名稱": "羅斯福路一段8號 2樓", "面積": 627.86, "體積": false, "圖形": "點"}, "bbox": [302277.097, 2769466.752, 302277.097, 2769466.752]}]}