{"type": "FeatureCollection", "features": [{"type": "Feature", "id": "J0301-3.10", "geometry": {"type": "MultiLineString", "coordinates": [[[303970.0348, 2769773.002], [303970.0348, 2769773.002], [304002.6598, 2769787.252], [304002.6598, 2769787.252]]]}, "geometry_name": "the_geom", "properties": {"項次": 10, "名稱": "民榮公園", "面積": 44.48, "體積": false, "圖形": "線"}, "bbox": [303970.0348, 2769773.002, 304002.6598, 2769787.252]}, {"type": "Feature", "id": "J0301-3.11", "geometry": {"type": "MultiLineString", "coordinates": [[[304998.1912, 2769831.752], [304998.1912, 2769831.752], [305001.5975, 2769870.502], [305001.5975, 2769870.502]]]}, "geometry_name": "the_geom", "properties": {"項次": 11, "名稱": "東豐公園", "面積": 169, "體積": false, "圖形": "線"}, "bbox": [304998.1912, 2769831.752, 305001.5975, 2769870.502]}, {"type": "Feature", "id": "J0301-3.12", "geometry": {"type": "MultiLineString", "coordinates": [[[305016.41, 2769253.752], [305016.41, 2769253.752], [305015.3162, 2769320.252], [305015.3162, 2769320.252]]]}, "geometry_name": "the_geom", "properties": {"項次": 12, "名稱": "四維公園", "面積": 150, "體積": false, "圖形": "線"}, "bbox": [305015.3162, 2769253.752, 305016.41, 2769320.252]}, {"type": "Feature", "id": "J0301-5.2", "geometry": {"type": "MultiPolygon", "coordinates": [[[[301864.4313, 2770319.7117], [301856.7325, 2770319.6825], [301871.4739, 2770492.5582], [301871.4739, 2770492.5582], [301875.3232, 2770492.5728], [301864.4313, 2770319.7117]]]]}, "geometry_name": "the_geom", "properties": {"項次": "20", "名稱": "二二八和平公園", "面積": "789.0", "體積": "false", "圖形": "面"}, "bbox": [301856.7325, 2770319.6825, 301875.3232, 2770492.5728]}, {"type": "Feature", "id": "J0301-5.3", "geometry": {"type": "MultiPolygon", "coordinates": [[[[301876.16, 2770677.6495], [302115.6375, 2770665.2511], [302015.4543, 2770287.1164], [301861.3895, 2770309.7704], [301876.16, 2770677.6495], [301876.16, 2770677.6495]]]]}, "geometry_name": "the_geom", "properties": {"項次": "21", "名稱": "二二八和平公園", "面積": "12466.6", "體積": "false", "圖形": "面"}, "bbox": [301861.3895, 2770287.1164, 302115.6375, 2770677.6495]}, {"type": "Feature", "id": "J0301-5.6", "geometry": {"type": "MultiPolygon", "coordinates": [[[[304789.7849, 2770655.252], [304783.6912, 2770571.252], [304783.6912, 2770571.252], [304744.7224, 2770658.502], [304744.7224, 2770658.502], [304789.7849, 2770655.252], [304789.7849, 2770655.252]]]]}, "geometry_name": "the_geom", "properties": {"項次": "49", "名稱": "大安公園", "面積": "700.0", "體積": "false", "圖形": "面"}, "bbox": [304744.7224, 2770571.252, 304789.7849, 2770658.502]}, {"type": "Feature", "id": "J0301-5.7", "geometry": {"type": "MultiPolygon", "coordinates": [[[[304109.4087, 2768772.4047], [303909.013, 2769213.5927], [304019.2169, 2769577.8374], [304227.6555, 2769243.7976], [304227.6555, 2769243.7976], [304109.4087, 2768772.4047]]]]}, "geometry_name": "the_geom", "properties": {"項次": "45", "名稱": "大安森林公園", "面積": "142.0", "體積": "false", "圖形": "面"}, "bbox": [303909.013, 2768772.4047, 304227.6555, 2769577.8374]}, {"type": "Feature", "id": "J0301-5.11", "geometry": {"type": "MultiPolygon", "coordinates": [[[[301992.5589, 2770234.2114], [301975.1304, 2770160.8341], [301851.118, 2770176.2081], [301861.6037, 2770253.3618], [301861.6037, 2770253.3618], [301992.5589, 2770234.2114]]]]}, "geometry_name": "the_geom", "properties": {"項次": "23", "名稱": "介壽公園", "面積": "860.0", "體積": "false", "圖形": "面"}, "bbox": [301851.118, 2770160.8341, 301992.5589, 2770253.3618]}, {"type": "Feature", "id": "J0301-5.17", "geometry": {"type": "MultiPolygon", "coordinates": [[[[301995.2487, 2771347.6211], [301990.7263, 2771322.2513], [301953.7402, 2771331.1952], [301953.7402, 2771331.1952], [301958.2667, 2771355.5086], [301995.2487, 2771347.6211]]]]}, "geometry_name": "the_geom", "properties": {"項次": "24", "名稱": "太原廣場", "面積": "832.3", "體積": "false", "圖形": "面"}, "bbox": [301953.7402, 2771322.2513, 301995.2487, 2771355.5086]}, {"type": "Feature", "id": "J0301-5.24", "geometry": {"type": "MultiPolygon", "coordinates": [[[[305052.2879, 2769241.6017], [305011.4774, 2769242.2824], [305013.4751, 2769319.8272], [305013.4751, 2769319.8272], [305054.2836, 2769319.569], [305052.2879, 2769241.6017]]]]}, "geometry_name": "the_geom", "properties": {"項次": "51", "名稱": "四維公園", "面積": "19.0", "體積": "false", "圖形": "面"}, "bbox": [305011.4774, 2769241.6017, 305054.2836, 2769319.8272]}, {"type": "Feature", "id": "J0301-5.28", "geometry": {"type": "MultiPolygon", "coordinates": [[[[301730.3122, 2771174.4286], [301722.7395, 2771141.2304], [301678.0179, 2771159.8642], [301684.0806, 2771185.2397], [301684.0806, 2771185.2397], [301730.3122, 2771174.4286]]]]}, "geometry_name": "the_geom", "properties": {"項次": "18", "名稱": "交8廣場", "面積": "3994.0", "體積": "false", "圖形": "面"}, "bbox": [301678.0179, 2771141.2304, 301730.3122, 2771185.2397]}, {"type": "Feature", "id": "J0301-5.30", "geometry": {"type": "MultiPolygon", "coordinates": [[[[304793.3066, 2769694.3727], [304749.4153, 2769695.6757], [304750.9153, 2769705.6115], [304750.9153, 2769705.6115], [304793.1515, 2769733.0348], [304793.3066, 2769694.3727]]]]}, "geometry_name": "the_geom", "properties": {"項次": "48", "名稱": "安祥公園", "面積": "303.0", "體積": "false", "圖形": "面"}, "bbox": [304749.4153, 2769694.3727, 304793.3066, 2769733.0348]}, {"type": "Feature", "id": "J0301-5.31", "geometry": {"type": "MultiPolygon", "coordinates": [[[[300720.1621, 2770169.2156], [300754.0646, 2770161.947], [300741.9434, 2770108.8731], [300741.9434, 2770108.8731], [300710.3449, 2770117.6291], [300720.1621, 2770169.2156]]]]}, "geometry_name": "the_geom", "properties": {"項次": "8", "名稱": "老松公園", "面積": "718.1", "體積": "false", "圖形": "面"}, "bbox": [300710.3449, 2770108.8731, 300754.0646, 2770169.2156]}, {"type": "Feature", "id": "J0301-5.32", "geometry": {"type": "MultiPolygon", "coordinates": [[[[300749.6431, 2770108.6904], [300707.2708, 2770116.1388], [300717.8383, 2770173.0098], [300717.8383, 2770173.0098], [300760.2222, 2770162.3925], [300749.6431, 2770108.6904]]]]}, "geometry_name": "the_geom", "properties": {"項次": "9", "名稱": "老松公園", "面積": "718.1", "體積": "false", "圖形": "面"}, "bbox": [300707.2708, 2770108.6904, 300760.2222, 2770173.0098]}, {"type": "Feature", "id": "J0301-5.36", "geometry": {"type": "MultiPolygon", "coordinates": [[[[306109.0601, 2770646.4246], [306106.984, 2770589.5838], [306060.0219, 2770589.3909], [306012.1106, 2770632.9278], [306012.1106, 2770632.9278], [306109.0601, 2770646.4246]]]]}, "geometry_name": "the_geom", "properties": {"項次": "56", "名稱": "延吉公園", "面積": "475.5", "體積": "false", "圖形": "面"}, "bbox": [306012.1106, 2770589.3909, 306109.0601, 2770646.4246]}, {"type": "Feature", "id": "J0301-5.39", "geometry": {"type": "MultiPolygon", "coordinates": [[[[302951.4518, 2769344.006], [302969.9507, 2769338.7959], [302959.3608, 2769289.9512], [302959.3608, 2769289.9512], [302942.4073, 2769293.6884], [302951.4518, 2769344.006]]]]}, "geometry_name": "the_geom", "properties": {"項次": "32", "名稱": "金山公園", "面積": "430.0", "體積": "false", "圖形": "面"}, "bbox": [302942.4073, 2769289.9512, 302969.9507, 2769344.006]}, {"type": "Feature", "id": "J0301-5.40", "geometry": {"type": "MultiPolygon", "coordinates": [[[[302923.6129, 2769573.9725], [303167.8432, 2769532.6664], [303167.1317, 2769517.6633], [303167.1317, 2769517.6633], [302918.275, 2769560.6417], [302923.6129, 2769573.9725]]]]}, "geometry_name": "the_geom", "properties": {"項次": "31", "名稱": "金杭公園", "面積": "1762.24", "體積": "false", "圖形": "面"}, "bbox": [302918.275, 2769517.6633, 303167.8432, 2769573.9725]}, {"type": "Feature", "id": "J0301-5.47", "geometry": {"type": "MultiPolygon", "coordinates": [[[[302274.3976, 2771835.8567], [302286.8976, 2771888.9653], [302286.8976, 2771888.9653], [302323.2795, 2771897.9482], [302323.2795, 2771897.9482], [302340.4209, 2771955.2856], [302340.4209, 2771955.2856], [302403.1204, 2771947.525], [302403.1204, 2771947.525], [302373.3698, 2771865.7143], [302373.3698, 2771865.7143], [302274.3976, 2771835.8567], [302274.3976, 2771835.8567]]]]}, "geometry_name": "the_geom", "properties": {"項次": "26", "名稱": "建成公園", "面積": "841.0", "體積": "false", "圖形": "面"}, "bbox": [302274.3976, 2771835.8567, 302403.1204, 2771955.2856]}, {"type": "Feature", "id": "J0301-5.53", "geometry": {"type": "MultiPolygon", "coordinates": [[[[301434.0804, 2773175.3174], [301443.9681, 2773206.8342], [301483.2221, 2773207.4048], [301485.6381, 2773179.1035], [301485.6381, 2773179.1035], [301434.0804, 2773175.3174]]]]}, "geometry_name": "the_geom", "properties": {"項次": "16", "名稱": "國順公園", "面積": "165.0", "體積": "false", "圖形": "面"}, "bbox": [301434.0804, 2773175.3174, 301485.6381, 2773207.4048]}, {"type": "Feature", "id": "J0301-5.73", "geometry": {"type": "MultiPolygon", "coordinates": [[[[304543.9411, 2771791.7292], [304682.5111, 2771790.8047], [304681.9359, 2771742.2097], [304545.6723, 2771743.7773], [304545.6723, 2771743.7773], [304543.9411, 2771791.7292]]]]}, "geometry_name": "the_geom", "properties": {"項次": "47", "名稱": "興國公園", "面積": "2261.9", "體積": "false", "圖形": "面"}, "bbox": [304543.9411, 2771742.2097, 304682.5111, 2771791.7292]}, {"type": "Feature", "id": "J0301-5.76", "geometry": {"type": "MultiPolygon", "coordinates": [[[[301762.9526, 2772311.615], [301762.9293, 2772317.7418], [301812.9563, 2772320.0443], [301812.9563, 2772320.0443], [301813.7477, 2772314.343], [301762.9526, 2772311.615]]]]}, "geometry_name": "the_geom", "properties": {"項次": "19", "名稱": "歸綏公園", "面積": "279.0", "體積": "false", "圖形": "面"}, "bbox": [301762.9293, 2772311.615, 301813.7477, 2772320.0443]}, {"type": "Feature", "id": "J0301-5.78", "geometry": {"type": "MultiPolygon", "coordinates": [[[[303233.7221, 2769429.252], [303319.9097, 2769415.752], [303319.9097, 2769415.752], [303318.8159, 2769406.752], [303318.8159, 2769406.752], [303232.8159, 2769422.752], [303232.8159, 2769422.752], [303233.7221, 2769429.252], [303233.7221, 2769429.252]]]]}, "geometry_name": "the_geom", "properties": {"項次": "34", "名稱": "麗水公園", "面積": "614.0", "體積": "false", "圖形": "面"}, "bbox": [303232.8159, 2769406.752, 303319.9097, 2769429.252]}, {"type": "Feature", "id": "J0301-5.79", "geometry": {"type": "MultiPolygon", "coordinates": [[[[302019.0286, 2772994.3107], [301972.7878, 2772949.8276], [301972.7878, 2772949.8276], [302017.5035, 2772944.4597], [302017.5035, 2772944.4597], [302022.2453, 2772944.4777], [302022.2453, 2772944.4777], [301970.7827, 2772946.497], [301970.7827, 2772946.497], [301985.7349, 2772994.1839], [301985.7349, 2772994.1839], [302019.0286, 2772994.3107], [302019.0286, 2772994.3107]]]]}, "geometry_name": "the_geom", "properties": {"項次": "25", "名稱": "蘭州公園", "面積": "404.0", "體積": "false", "圖形": "面"}, "bbox": [301970.7827, 2772944.4597, 302022.2453, 2772994.3107]}]}