{"type": "FeatureCollection", "features": [{"type": "Feature", "id": "J0501-5.5", "geometry": {"type": "MultiPolygon", "coordinates": [[[[303115.1284, 2772979.752], [303168.5034, 2772966.502], [303168.5034, 2772966.502], [303133.0971, 2772961.752], [303133.0971, 2772961.752], [303068.9096, 2772966.252], [303068.9096, 2772966.252], [303115.1284, 2772979.752], [303115.1284, 2772979.752]]]]}, "geometry_name": "the_geom", "properties": {"項次": "28", "名稱": "113明道樓前庭透水舖面工程", "面積": "620.0", "體積": "false", "圖形": "面"}, "bbox": [303068.9096, 2772961.752, 303168.5034, 2772979.752]}, {"type": "Feature", "id": "J0501-5.6", "geometry": {"type": "MultiPolygon", "coordinates": [[[[303771.9722, 2769291.502], [303756.8472, 2769288.002], [303756.8472, 2769288.002], [303733.316, 2769366.752], [303733.316, 2769366.752], [303744.4097, 2769371.252], [303744.4097, 2769371.252], [303771.9722, 2769291.502], [303771.9722, 2769291.502]]]]}, "geometry_name": "the_geom", "properties": {"項次": "37", "名稱": "中庭透水鋪面及排水系統整修工程", "面積": "918.0", "體積": "false", "圖形": "面"}, "bbox": [303733.316, 2769288.002, 303771.9722, 2769371.252]}, {"type": "Feature", "id": "J0501-5.7", "geometry": {"type": "MultiPolygon", "coordinates": [[[[303859.0973, 2769184.002], [303859.0973, 2769184.002], [303859.0973, 2769184.002], [303859.0973, 2769184.002]]]]}, "geometry_name": "the_geom", "properties": {"項次": "38", "名稱": "幼兒STEAM創思中心裝修工程", "面積": "48.0", "體積": "false", "圖形": "面"}, "bbox": [303859.0973, 2769184.002, 303859.0973, 2769184.002]}, {"type": "Feature", "id": "J0501-5.8", "geometry": {"type": "MultiPolygon", "coordinates": [[[[305580.3405, 2772460.8791], [305588.7863, 2772460.5272], [305598.6397, 2772459.8234], [305598.6397, 2772446.8027], [305587.7306, 2772447.5066], [305577.1733, 2772446.4508], [305566.968, 2772447.1547], [305571.8947, 2772460.5272], [305580.3405, 2772460.8791]]]]}, "geometry_name": "the_geom", "properties": {"項次": "57", "名稱": "至真樓A棟及幼兒園廚房汙水管整修工程", "面積": "717.0", "體積": "false", "圖形": "面"}, "bbox": [305566.968, 2772446.4508, 305598.6397, 2772460.8791]}, {"type": "Feature", "id": "J0501-5.18", "geometry": {"type": "MultiPolygon", "coordinates": [[[[300225.1591, 2769155.002], [300206.0341, 2769142.752], [300206.0341, 2769142.752], [300200.0028, 2769141.752], [300200.0028, 2769141.752], [300206.0341, 2769147.252], [300206.0341, 2769147.252], [300225.1591, 2769155.002], [300225.1591, 2769155.002]]]]}, "geometry_name": "the_geom", "properties": {"項次": "7", "名稱": "側門地坪整修工程", "面積": "151.0", "體積": "false", "圖形": "面"}, "bbox": [300200.0028, 2769141.752, 300225.1591, 2769155.002]}, {"type": "Feature", "id": "J0501-5.19", "geometry": {"type": "MultiPolygon", "coordinates": [[[[305210.6913, 2769141.002], [305243.1288, 2769099.002], [305243.1288, 2769099.002], [305236.035, 2769106.752], [305236.035, 2769106.752], [305212.8475, 2769103.502], [305212.8475, 2769103.502], [305164.41, 2769098.752], [305164.41, 2769098.752], [305166.41, 2769105.502], [305166.41, 2769105.502], [305210.6913, 2769141.002], [305210.6913, 2769141.002]]]]}, "geometry_name": "the_geom", "properties": {"項次": "52", "名稱": "楓香大道延續工程", "面積": "213.0", "體積": "false", "圖形": "面"}, "bbox": [305164.41, 2769098.752, 305243.1288, 2769141.002]}, {"type": "Feature", "id": "J0501-5.22", "geometry": {"type": "MultiPolygon", "coordinates": [[[[301787.955, 2773025.5967], [301788.9132, 2772975.9515], [301777.3889, 2772970.2034], [301774.1119, 2773022.3751], [301774.1119, 2773022.3751], [301787.955, 2773025.5967]]]]}, "geometry_name": "the_geom", "properties": {"項次": "19", "名稱": "臺北市大同區大橋國民小學", "面積": "250.0", "體積": "false", "圖形": "面"}, "bbox": [301774.1119, 2772970.2034, 301788.9132, 2773025.5967]}, {"type": "Feature", "id": "J0501-5.23", "geometry": {"type": "MultiPolygon", "coordinates": [[[[302133.0152, 2771961.2563], [302153.0128, 2771965.7694], [302143.0306, 2771959.1818], [302143.0306, 2771959.1818], [302133.0152, 2771961.2563]]]]}, "geometry_name": "the_geom", "properties": {"項次": "22", "名稱": "臺北市大同區日新國民小學", "面積": "104.0", "體積": "false", "圖形": "面"}, "bbox": [302133.0152, 2771959.1818, 302153.0128, 2771965.7694]}, {"type": "Feature", "id": "J0501-5.25", "geometry": {"type": "MultiPolygon", "coordinates": [[[[303299.1106, 2769435.7817], [303280.6191, 2769439.0899], [303285.148, 2769462.3474], [303285.148, 2769462.3474], [303302.1038, 2769457.9769], [303299.1106, 2769435.7817]]]]}, "geometry_name": "the_geom", "properties": {"項次": "31", "名稱": "臺北市大安區金華國民小學", "面積": "605.0", "體積": "false", "圖形": "面"}, "bbox": [303280.6191, 2769435.7817, 303302.1038, 2769462.3474]}, {"type": "Feature", "id": "J0501-5.26", "geometry": {"type": "MultiPolygon", "coordinates": [[[[303368.3302, 2769455.0663], [303320.5731, 2769460.3729], [303320.5648, 2769462.4856], [303368.3302, 2769455.0663]]]]}, "geometry_name": "the_geom", "properties": {"項次": "32", "名稱": "臺北市大安區金華國民小學", "面積": "145.0", "體積": "false", "圖形": "面"}, "bbox": [303320.5648, 2769455.0663, 303368.3302, 2769462.4856]}, {"type": "Feature", "id": "J0501-5.28", "geometry": {"type": "MultiPolygon", "coordinates": [[[[304464.453, 2771455.2777], [304422.1264, 2771451.7285], [304419.7807, 2771460.8039], [304419.7807, 2771460.8039], [304462.8864, 2771462.0321], [304464.453, 2771455.2777]]]]}, "geometry_name": "the_geom", "properties": {"項次": "48", "名稱": "臺北市中山區中正國民小學", "面積": "279.0", "體積": "false", "圖形": "面"}, "bbox": [304419.7807, 2771451.7285, 304464.453, 2771462.0321]}, {"type": "Feature", "id": "J0501-5.39", "geometry": {"type": "MultiPolygon", "coordinates": [[[[305619.604, 2770033.2117], [305631.2653, 2770005.5825], [305558.0481, 2770024.0878], [305553.3831, 2770035.2662], [305553.3831, 2770035.2662], [305619.604, 2770033.2117]]]]}, "geometry_name": "the_geom", "properties": {"項次": "58", "名稱": "臺北市立仁愛國民中學", "面積": "427.0", "體積": "false", "圖形": "面"}, "bbox": [305553.3831, 2770005.5825, 305631.2653, 2770035.2662]}, {"type": "Feature", "id": "J0501-5.40", "geometry": {"type": "MultiPolygon", "coordinates": [[[[306172.622, 2772225.5277], [306174.212, 2772213.2804], [306142.6607, 2772210.8266], [306141.8448, 2772222.0207], [306141.8448, 2772222.0207], [306172.622, 2772225.5277]]]]}, "geometry_name": "the_geom", "properties": {"項次": "63", "名稱": "臺北市立介壽國民中學", "面積": "250.0", "體積": "false", "圖形": "面"}, "bbox": [306141.8448, 2772210.8266, 306174.212, 2772225.5277]}, {"type": "Feature", "id": "J0501-5.46", "geometry": {"type": "MultiPolygon", "coordinates": [[[[303639.7648, 2769349.437], [303634.3421, 2769357.8666], [303710.4687, 2769382.8844], [303710.4687, 2769382.8844], [303715.8906, 2769374.6661], [303639.7648, 2769349.437]]]]}, "geometry_name": "the_geom", "properties": {"項次": "36", "名稱": "臺北市立金華國民中學", "面積": "450.0", "體積": "false", "圖形": "面"}, "bbox": [303634.3421, 2769349.437, 303715.8906, 2769382.8844]}, {"type": "Feature", "id": "J0501-5.47", "geometry": {"type": "MultiPolygon", "coordinates": [[[[302325.2476, 2771616.3515], [302332.269, 2771592.0821], [302327.6501, 2771592.0644], [302325.2476, 2771616.3515]]]]}, "geometry_name": "the_geom", "properties": {"項次": "24", "名稱": "臺北市立建成國民中學", "面積": "102.0", "體積": "false", "圖形": "面"}, "bbox": [302325.2476, 2771592.0644, 302332.269, 2771616.3515]}, {"type": "Feature", "id": "J0501-5.48", "geometry": {"type": "MultiPolygon", "coordinates": [[[[305218.1372, 2771450.6992], [305162.7059, 2771451.5315], [305162.6615, 2771462.5175], [305218.1372, 2771450.6992]]]]}, "geometry_name": "the_geom", "properties": {"項次": "53", "名稱": "臺北市立敦化國民中學", "面積": "150.0", "體積": "false", "圖形": "面"}, "bbox": [305162.6615, 2771450.6992, 305218.1372, 2771462.5175]}, {"type": "Feature", "id": "J0501-5.50", "geometry": {"type": "MultiPolygon", "coordinates": [[[[300957.7038, 2769852.1373], [300963.0671, 2769859.1292], [300990.1116, 2769833.0325], [300985.5111, 2769827.9449], [300957.7038, 2769852.1373], [300957.7038, 2769852.1373]]]]}, "geometry_name": "the_geom", "properties": {"項次": "14", "名稱": "臺北市立龍山國民中學", "面積": "540.0", "體積": "false", "圖形": "面"}, "bbox": [300957.7038, 2769827.9449, 300990.1116, 2769859.1292]}, {"type": "Feature", "id": "J0501-5.54", "geometry": {"type": "MultiPolygon", "coordinates": [[[[299680.3362, 2769661.5148], [299574.1805, 2769635.5655], [299598.7013, 2769667.7676], [299598.7013, 2769667.7676], [299653.373, 2769665.8535], [299680.3362, 2769661.5148]]]]}, "geometry_name": "the_geom", "properties": {"項次": "6", "名稱": "臺北市萬華區華江國民小學", "面積": "439.0", "體積": "false", "圖形": "面"}, "bbox": [299574.1805, 2769635.5655, 299680.3362, 2769667.7676]}, {"type": "Feature", "id": "J0501-5.55", "geometry": {"type": "MultiPolygon", "coordinates": [[[[300228.4179, 2769271.401], [300233.0375, 2769271.4179], [300237.0744, 2769220.5166], [300228.4179, 2769271.401]]]]}, "geometry_name": "the_geom", "properties": {"項次": "8", "名稱": "臺北市萬華區雙園國民小學", "面積": "1180.0", "體積": "false", "圖形": "面"}, "bbox": [300228.4179, 2769220.5166, 300237.0744, 2769271.4179]}, {"type": "Feature", "id": "J0501-5.58", "geometry": {"type": "MultiPolygon", "coordinates": [[[[300806.3963, 2769929.3455], [300802.4909, 2769926.345], [300616.4942, 2769932.3333], [300613.3072, 2769936.3329], [300621.803, 2769995.3332], [300638.3892, 2770109.3321], [300642.2015, 2770112.3327], [300829.9808, 2770075.3449], [300832.794, 2770071.3443], [300830.2942, 2770057.345], [300818.6109, 2769995.3452], [300806.3963, 2769929.3455]]]]}, "geometry_name": "the_geom", "properties": {"項次": "11", "名稱": "學校", "面積": "32453.781", "體積": "false", "圖形": "面"}, "bbox": [300613.3072, 2769926.345, 300832.794, 2770112.3327]}, {"type": "Feature", "id": "J0501-5.59", "geometry": {"type": "MultiPolygon", "coordinates": [[[[300880.9456, 2770644.3391], [300867.2631, 2770552.34], [300852.0779, 2770535.3387], [300845.0779, 2770532.3389], [300844.0783, 2770518.3387], [300848.0794, 2770514.3392], [300831.2669, 2770516.3381], [300832.1708, 2770555.3382], [300705.3593, 2770576.3297], [300717.5728, 2770661.3297], [300720.0722, 2770664.3291], [300721.3533, 2770664.3292], [300722.5728, 2770665.3297], [300723.7596, 2770665.3298], [300724.8532, 2770666.3303], [300726.0728, 2770666.3304], [300727.2596, 2770667.3299], [300728.3533, 2770667.33], [300729.5728, 2770668.3295], [300730.5722, 2770669.33], [300731.76, 2770669.33], [300732.7594, 2770670.3295], [300733.853, 2770671.3301], [300734.9467, 2770671.3301], [300735.9471, 2770672.3296], [300736.9464, 2770673.3301], [300737.9469, 2770674.3306], [300738.9462, 2770675.3301], [300739.9466, 2770676.3306], [300740.8528, 2770677.3301], [300741.7591, 2770677.3302], [300745.5714, 2770679.3303], [300829.2585, 2770657.3357], [300831.2584, 2770657.3358], [300880.9456, 2770644.3391]]]]}, "geometry_name": "the_geom", "properties": {"項次": "13", "名稱": "學校", "面積": "17334.953", "體積": "false", "圖形": "面"}, "bbox": [300705.3593, 2770514.3392, 300880.9456, 2770679.3303]}, {"type": "Feature", "id": "J0501-5.60", "geometry": {"type": "MultiPolygon", "coordinates": [[[[300993.2188, 2769697.3603], [300988.2197, 2769696.3595], [300980.7194, 2769701.3592], [300973.8129, 2769711.3582], [300962.6236, 2769726.3571], [300942.4978, 2769755.3556], [300928.4973, 2769775.3545], [300905.4027, 2769807.3531], [300886.3075, 2769829.3516], [300881.9941, 2769833.3511], [300890.6188, 2769843.352], [300948.7076, 2769905.3546], [300954.488, 2769907.3549], [301093.3012, 2769865.3639], [301095.2072, 2769861.3632], [301089.1154, 2769843.364], [301078.8042, 2769814.3627], [301067.3062, 2769787.3632], [301052.9951, 2769761.3629], [301037.2165, 2769736.362], [301025.9051, 2769720.3613], [301025.1238, 2769719.3608], [301024.3108, 2769718.3613], [301023.4046, 2769718.3613], [301022.4052, 2769717.3608], [301021.4048, 2769716.3613], [301020.3112, 2769715.3608], [301019.2176, 2769715.3607], [301018.124, 2769714.3612], [301016.9054, 2769714.3611], [301015.7186, 2769713.3606], [301014.499, 2769713.3605], [301013.3112, 2769712.361], [301012.1244, 2769712.361], [301010.9058, 2769711.3604], [301009.8112, 2769711.3604], [301008.6244, 2769710.3599], [301007.499, 2769710.3598], [301006.4054, 2769709.3603], [301005.3118, 2769708.3608], [301004.2182, 2769707.3603], [301003.2188, 2769707.3602], [301002.1252, 2769706.3607], [301001.1248, 2769705.3602], [301000.1254, 2769704.3607], [300999.2192, 2769704.3607], [300998.2188, 2769703.3602], [300997.3126, 2769702.3597], [300996.4064, 2769701.3602], [300995.6251, 2769700.3597], [300994.7189, 2769699.3602], [300994.0001, 2769698.3597], [300993.2188, 2769697.3603]]]]}, "geometry_name": "the_geom", "properties": {"項次": "15", "名稱": "學校", "面積": "25889.422", "體積": "false", "圖形": "面"}, "bbox": [300881.9941, 2769696.3595, 301095.2072, 2769907.3549]}, {"type": "Feature", "id": "J0501-5.62", "geometry": {"type": "MultiPolygon", "coordinates": [[[[301419.6251, 2769557.3878], [301416.4067, 2769555.3877], [301295.1275, 2769566.3802], [301292.3143, 2769570.3798], [301292.813, 2769588.3797], [301296.2134, 2769695.3777], [301296.712, 2769713.3776], [301299.3938, 2769800.3769], [301303.3934, 2769803.3775], [301314.112, 2769800.3778], [301390.7989, 2769778.3828], [301443.2993, 2769762.386], [301445.2994, 2769758.3864], [301433.3972, 2769709.3862], [301432.2101, 2769696.3864], [301432.1159, 2769695.386], [301432.116, 2769694.3865], [301427.2142, 2769641.387], [301424.3089, 2769609.3868], [301419.6251, 2769557.3878]]]]}, "geometry_name": "the_geom", "properties": {"項次": "18", "名稱": "學校", "面積": "30286.156", "體積": "false", "圖形": "面"}, "bbox": [301292.3143, 2769555.3877, 301445.2994, 2769803.3775]}, {"type": "Feature", "id": "J0501-5.74", "geometry": {"type": "MultiPolygon", "coordinates": [[[[305719.106, 2769913.6434], [305717.8874, 2769913.6433], [305648.1076, 2769915.639], [305646.109, 2769894.6387], [305631.2034, 2769894.6377], [305630.2029, 2769894.6377], [305629.2035, 2769894.6376], [305533.1117, 2769894.6318], [305532.1112, 2769894.6317], [305532.2043, 2769895.6312], [305533.201, 2769958.6308], [305533.8859, 2769995.6301], [305534.7898, 2770050.6302], [305618.5065, 2770049.6349], [305620.5064, 2770049.635], [305622.5065, 2770046.6348], [305630.1944, 2770035.6354], [305659.2892, 2769995.6377], [305718.1996, 2769914.6428], [305719.106, 2769913.6434]]]]}, "geometry_name": "the_geom", "properties": {"項次": "60", "名稱": "學校", "面積": "20629.266", "體積": "false", "圖形": "面"}, "bbox": [305532.1112, 2769894.6317, 305719.106, 2770050.6302]}]}