{"type": "FeatureCollection", "features": [{"type": "Feature", "geometry": {"type": "Polygon", "coordinates": [[[300861.006, 2771102.394], [300872.758, 2771099.368], [300903.019, 2771129.555], [300919.737, 2771145.959], [300932.025, 2771158.175], [300966.684, 2771191.917], [300981.233, 2771206.279], [300981.9124875591, 2771207.558185085], [301018.618, 2771276.659], [301008.15499999974, 2771282.711], [300995.9586499548, 2771262.42711618], [300983.08380675246, 2771242.5669724303], [300969.54517748975, 2771223.153255245], [300955.358227515, 2771204.208141161], [300940.5391627612, 2771185.7532714223], [300925.10491123487, 2771167.809727262], [300909.07310367725, 2771150.3980058166], [300895.253, 2771136.292], [300861.006, 2771102.394]]]}, "properties": {"編號": "1682", "圖層": "49", "顏色": "7", "街廓編號": "", "分區代碼": "PW1", "分區簡稱": "河川區", "使用分區": "河川區", "分區說明": "", "原屬分區": "", "變更前代碼": "", "變更前簡稱": "", "變更前分區": ""}}, {"type": "Feature", "geometry": {"type": "Polygon", "coordinates": [[[300861.006, 2771102.394], [300809.391, 2771051.302], [300679.048, 2770936.539], [300691.013, 2770933.611], [300701.939, 2770943.873], [300784.025, 2771015.027], [300797.317, 2771027.49], [300824.147, 2771051.898], [300826.832, 2771054.332], [300872.758, 2771099.368], [300861.006, 2771102.394]]]}, "properties": {"編號": "1683", "圖層": "49", "顏色": "7", "街廓編號": "", "分區代碼": "PW1", "分區簡稱": "河川區", "使用分區": "河川區", "分區說明": "", "原屬分區": "", "變更前代碼": "", "變更前簡稱": "", "變更前分區": ""}}, {"type": "Feature", "geometry": {"type": "Polygon", "coordinates": [[[300679.048, 2770936.539], [300674.862, 2770932.852], [300573.152, 2770846.706], [300563.63059613254, 2770838.1163568893], [300554.6631949413, 2770828.949851762], [300546.28468074347, 2770819.242143473], [300538.5276470115, 2770809.030996228], [300531.42226958036, 2770798.356132672], [300524.9961892612, 2770787.2590793646], [300519.27440431307, 2770775.783005237], [300514.2791731982, 2770763.9725536583], [300511.727, 2770757.0], [300511.612, 2770756.664], [300507.8307959845, 2770744.433536344], [300506.602, 2770739.754], [300467.963, 2770585.22], [300464.9677648277, 2770574.898369975], [300461.21331536415, 2770564.828037839], [300456.72043973755, 2770555.0647623274], [300451.51401469135, 2770545.662602025], [300445.62286784267, 2770536.673616047], [300439.0796180663, 2770528.1475757896], [300431.9204948857, 2770520.131689351], [300424.18513787363, 2770512.670340143], [300420.941, 2770509.852], [300374.91, 2770471.074], [300254.383, 2770369.533], [300074.35, 2770214.709], [300026.538, 2770181.153], [300026.5377555251, 2770181.104464926], [300026.802, 2770181.278], [300026.572, 2770171.539], [300026.683, 2770170.158], [300026.8857448275, 2770168.8300694237], [300061.19201593375, 2770192.692043806], [300080.309, 2770205.989], [300249.847765821, 2770351.316192569], [300262.315, 2770362.003], [300267.415, 2770366.396], [300272.688, 2770370.985], [300277.772, 2770375.25], [300285.044, 2770381.395], [300291.83, 2770387.041], [300297.701, 2770392.026], [300305.263, 2770398.353], [300307.658, 2770400.323], [300316.83, 2770408.213], [300328.301, 2770417.99], [300332.817, 2770421.84], [300339.497, 2770427.494], [300348.316, 2770434.846], [300373.399, 2770456.446], [300379.703, 2770461.701], [300385.079, 2770466.475], [300395.136, 2770475.299], [300400.206, 2770479.674], [300403.107, 2770482.091], [300405.432, 2770484.022], [300407.578, 2770485.814], [300409.264, 2770487.205], [300410.352, 2770488.096], [300411.382, 2770488.921], [300416.622, 2770493.148], [300431.723, 2770505.236], [300442.367, 2770516.523], [300442.895, 2770517.075], [300444.295, 2770518.5], [300447.366, 2770522.384], [300450.34, 2770526.127], [300451.998, 2770528.171], [300459.621, 2770539.448], [300466.097, 2770550.931], [300466.435, 2770551.508], [300470.646, 2770561.39], [300472.274, 2770566.395], [300475.633, 2770577.3], [300477.696, 2770583.801], [300479.014, 2770589.067], [300481.94, 2770600.275], [300483.897, 2770607.989], [300489.861, 2770632.069], [300492.395, 2770642.207], [300494.332, 2770650.141], [300498.809, 2770667.89], [300501.136, 2770677.141], [300506.954, 2770700.601], [300508.016, 2770704.85], [300510.054, 2770713.129], [300516.64, 2770739.277], [300520.474, 2770754.493], [300520.353, 2770754.77], [300520.702, 2770755.732], [300526.76, 2770771.842], [300532.622, 2770784.017], [300536.802, 2770791.632], [300541.43, 2770799.008], [300549.285, 2770809.522], [300555.025, 2770816.566], [300557.228, 2770818.741], [300566.047, 2770827.407], [300691.013, 2770933.611], [300679.048, 2770936.539]]]}, "properties": {"編號": "1684", "圖層": "49", "顏色": "7", "街廓編號": "", "分區代碼": "PW1", "分區簡稱": "河川區", "使用分區": "河川區", "分區說明": "", "原屬分區": "", "變更前代碼": "", "變更前簡稱": "", "變更前分區": ""}}, {"type": "Feature", "geometry": {"type": "Polygon", "coordinates": [[[299655.929, 2769975.529], [299613.21449648, 2769942.3843852472], [299613.214, 2769942.384], [299620.5052040613, 2769934.8425394115], [299620.556, 2769934.79], [299662.095, 2769967.023], [299697.6, 2769991.022], [299722.757, 2770006.221], [299733.875, 2770013.121], [299745.724, 2770019.421], [299768.991, 2770031.521], [299779.65, 2770037.021], [299811.925, 2770053.02], [299848.211, 2770071.32], [299920.862, 2770107.819], [299936.99, 2770115.919], [299972.358, 2770132.961], [300026.894, 2770168.776], [300026.8857448275, 2770168.8300694237], [300026.739, 2770168.728], [300026.449, 2770171.475], [300026.502, 2770174.006], [300026.5377555251, 2770181.104464926], [299967.174, 2770142.119], [299932.354, 2770125.34], [299916.149, 2770117.202], [299843.49, 2770080.699], [299807.23, 2770062.412], [299774.91, 2770046.39], [299764.161, 2770040.844], [299740.837, 2770028.715], [299728.637, 2770022.228], [299717.273, 2770015.176], [299691.941, 2769999.871], [299655.929, 2769975.529]]]}, "properties": {"編號": "1685", "圖層": "49", "顏色": "7", "街廓編號": "", "分區代碼": "PW1", "分區簡稱": "河川區", "使用分區": "河川區", "分區說明": "", "原屬分區": "", "變更前代碼": "", "變更前簡稱": "", "變更前分區": ""}}, {"type": "Feature", "geometry": {"type": "Polygon", "coordinates": [[[299620.5052040613, 2769934.8425394115], [299613.214, 2769942.384], [299613.21449648, 2769942.3843852472], [299613.1819713192, 2769942.418029668], [299601.92208493827, 2769933.0407180185], [299599.69187129376, 2769931.143624572], [299576.8465195439, 2769909.276717579], [299554.561584842, 2769886.838950236], [299532.8513273823, 2769863.844680535], [299513.7478462901, 2769842.6098795854], [299497.2915266569, 2769822.8689966365], [299488.72696661757, 2769812.0808154596], [299475.029, 2769793.393], [299470.659, 2769786.751], [299458.436, 2769768.173], [299450.944, 2769756.477], [299444.778, 2769746.742], [299438.966, 2769737.285], [299431.826, 2769726.259], [299425.445, 2769716.558], [299420.083, 2769708.195], [299415.757, 2769701.533], [299414.638, 2769699.811], [299408.98, 2769690.844], [299403.567, 2769682.548], [299398.036, 2769673.748], [299392.15, 2769664.661], [299387.88, 2769657.87], [299385.803, 2769654.554], [299383.628, 2769651.082], [299383.317, 2769650.586], [299377.684, 2769641.606], [299374.896, 2769636.721], [299367.039, 2769623.157], [299364.334, 2769618.217], [299355.345, 2769601.587], [299352.501, 2769596.395], [299343.726, 2769578.586], [299335.676, 2769562.431], [299328.553, 2769546.738], [299325.345, 2769539.413], [299323.094, 2769533.752], [299305.9968168428, 2769489.5031842967], [299298.4361072378, 2769465.408599293], [299291.64234994317, 2769441.0866294284], [299286.2884316905, 2769419.448969709], [299285.319, 2769412.78], [299283.27117465925, 2769405.9502473855], [299278.36827779986, 2769381.1777836685], [299274.25247051095, 2769356.262457329], [299270.9278828397, 2769331.2292698957], [299268.3978508761, 2769306.1033411664], [299266.66491340566, 2769280.9098840007], [299266.49801130797, 2769277.62562443], [299266.55, 2769257.509], [299266.688, 2769204.431], [299267.8413959341, 2769173.7384639634], [299269.6260495162, 2769151.6442390163], [299272.20674913767, 2769129.628795486], [299273.1634928138, 2769122.8545214124], [299273.6499526794, 2769119.6038967944], [299277.38411795284, 2769097.7545083794], [299281.9042255535, 2769076.0540846125], [299287.2043887241, 2769054.530887016], [299293.27770480275, 2769033.212946304], [299300.1162642131, 2769012.128025873], [299307.71116076445, 2768991.303585646], [299316.0525032518, 2768970.76674631], [299319.8054700794, 2768962.1670528613], [299351.085, 2768885.846], [299361.898, 2768865.05], [299365.0006063418, 2768859.9318469497], [299400.2461511581, 2768789.9316630145], [299493.979, 2768564.822], [299498.721, 2768553.339], [299504.659, 2768540.598], [299586.559, 2768359.531], [299586.768, 2768359.081], [299594.907, 2768340.094], [299617.514, 2768263.106], [299636.47519821284, 2768217.7238696287], [299645.50834562874, 2768223.339721554], [299627.425, 2768266.62], [299604.805, 2768343.654], [299597.467, 2768360.775], [299597.342, 2768361.169], [299514.133, 2768545.131], [299506.98397369316, 2768560.932039643], [299493.792, 2768592.756], [299487.837, 2768606.961], [299482.773, 2768619.486], [299477.708, 2768631.83], [299469.554, 2768651.958], [299461.595, 2768670.766], [299455.591, 2768684.626], [299454.421, 2768687.72], [299410.725, 2768792.468], [299374.1950849941, 2768865.018981689], [299371.055, 2768870.199], [299361.301, 2768888.957], [299329.4538364127, 2768966.3118237085], [299320.8724998362, 2768986.5429983395], [299313.0331515911, 2769007.0730831786], [299305.94617879414, 2769027.8748759134], [299299.62097166706, 2769048.9208142194], [299294.0659110935, 2769070.183012281], [299289.2883575151, 2769091.633297738], [299285.2946411784, 2769113.243249016], [299283.9778002522, 2769121.529706397], [299281.07566658594, 2769143.313126344], [299278.9682519569, 2769165.1877364656], [299277.6583486841, 2769187.1245529577], [299277.186972508, 2769204.6075853324], [299276.9979981399, 2769277.3687162236], [299278.6269728272, 2769302.401890167], [299281.05327867315, 2769327.3703982565], [299284.27444848325, 2769352.2488512085], [299288.28720680403, 2769377.011951315], [299293.0874732537, 2769401.634518165], [299298.6703666708, 2769426.0915142465], [299303.2995752277, 2769444.05855067], [299303.4613523698, 2769444.656205184], [299310.410677747, 2769468.760566471], [299312.2004259808, 2769474.536554154], [299328.81, 2769519.048], [299331.773, 2769526.766], [299335.104, 2769535.079], [299338.755, 2769543.533], [299342.806, 2769552.899], [299347.195, 2769562.367], [299354.237, 2769576.643], [299359.584, 2769587.609], [299365.141, 2769598.164], [299371.353, 2769609.514], [299377.403, 2769620.206], [299381.71, 2769627.778], [299387.363, 2769637.276], [299392.214, 2769645.009], [299396.037, 2769651.112], [299396.774, 2769652.289], [299401.001, 2769659.012], [299406.888, 2769668.1], [299412.409, 2769676.885], [299417.817, 2769685.173], [299423.481, 2769694.149], [299424.562, 2769695.813], [299428.906, 2769702.502], [299434.251, 2769710.839], [299440.619, 2769720.52], [299447.847, 2769731.682], [299453.686, 2769741.184], [299459.8, 2769750.836], [299467.243, 2769762.455], [299487.2459954681, 2769792.8585130596], [299500.28548990417, 2769809.7970132283], [299516.43852217984, 2769829.5755992183], [299521.6707850733, 2769835.719289031], [299542.7632145319, 2769859.102640749], [299564.44280242705, 2769881.9426754843], [299586.6955584266, 2769904.224654042], [299606.6856656039, 2769923.3083564104], [299620.5052040613, 2769934.8425394115]]]}, "properties": {"編號": "1686", "圖層": "49", "顏色": "7", "街廓編號": "", "分區代碼": "PW1", "分區簡稱": "河川區", "使用分區": "河川區", "分區說明": "", "原屬分區": "", "變更前代碼": "", "變更前簡稱": "", "變更前分區": ""}}, {"type": "Feature", "geometry": {"type": "Polygon", "coordinates": [[[300334.639, 2767700.47], [300344.463, 2767704.572], [300362.512, 2767712.9], [300369.942, 2767697.228], [300351.301, 2767689.005], [300340.985, 2767684.697], [300321.173, 2767677.024], [300303.552, 2767671.078], [300297.89, 2767668.759], [300279.894, 2767663.657], [300274.758, 2767661.769], [300256.519, 2767657.369], [300240.421, 2767654.269], [300232.003, 2767653.56], [300173.198, 2767649.901], [300126.58, 2767652.645], [300079.048, 2767659.352], [300027.991, 2767670.028], [300016.74800297857, 2767672.3609993705], [300001.06428884744, 2767676.0836170074], [299985.5845501876, 2767680.57966661], [299970.3469031713, 2767685.838077436], [299955.38886786246, 2767691.8459015605], [299940.7472758298, 2767698.5883457577], [299926.4581794548, 2767706.048807928], [299912.55676316045, 2767714.2089179773], [299899.0772567735, 2767723.048583049], [299886.0528512421, 2767732.546037], [299876.5003758886, 2767740.1715106727], [299876.4069921413, 2767740.249006524], [299864.2645040762, 2767750.8494545226], [299852.66284628893, 2767762.039228907], [299841.6305888462, 2767773.7907739067], [299831.1948996184, 2767786.075150347], [299821.381477376, 2767798.8621069067], [299812.21448850393, 2767812.120154621], [299804.2319990895, 2767824.941001541], [299803.3307322476, 2767826.1455918364], [299794.587, 2767837.53], [299757.327, 2767928.679], [299698.747, 2768068.777], [299695.78746119165, 2768075.7646526583], [299636.47519821284, 2768217.7238696287], [299617.514, 2768263.106], [299594.907, 2768340.094], [299586.768, 2768359.081], [299586.559, 2768359.531], [299504.659, 2768540.598], [299498.721, 2768553.339], [299493.979, 2768564.822], [299400.2461511581, 2768789.9316630145], [299365.0006063418, 2768859.9318469497], [299361.898, 2768865.05], [299351.085, 2768885.846], [299319.8054700794, 2768962.1670528613], [299311.15138792945, 2768982.5740768122], [299303.2392713392, 2769003.280070521], [299296.07942464517, 2769024.2580675585], [299289.681172466, 2769045.480747254], [299284.0528475585, 2769066.9204702727], [299279.20177996514, 2769088.5493146153], [299275.1342874689, 2769110.33911198], [299273.6499526794, 2769119.6038967944], [299273.1634928138, 2769122.8545214124], [299270.3377394991, 2769144.8398547643], [299268.3071053548, 2769166.9128312143], [299267.8413959341, 2769173.7384639634], [299266.688, 2769204.431], [299266.55, 2769257.509], [299266.49801130797, 2769277.62562443], [299268.1270086539, 2769302.8260157737], [299270.553372272, 2769327.9621673455], [299273.7746674044, 2769353.008856027], [299277.78766161035, 2769377.9409484733], [299282.588328012, 2769402.7334263315], [299283.27117465925, 2769405.9502473855], [299285.319, 2769412.78], [299286.2884316905, 2769419.448969709], [299292.3995356548, 2769443.95137295], [299299.28364938643, 2769468.2479227954], [299305.9968168428, 2769489.5031842967], [299323.094, 2769533.752], [299325.345, 2769539.413], [299328.553, 2769546.738], [299335.676, 2769562.431], [299343.726, 2769578.586], [299352.501, 2769596.395], [299355.345, 2769601.587], [299364.334, 2769618.217], [299367.039, 2769623.157], [299374.896, 2769636.721], [299377.684, 2769641.606], [299383.317, 2769650.586], [299383.628, 2769651.082], [299385.803, 2769654.554], [299387.88, 2769657.87], [299392.15, 2769664.661], [299398.036, 2769673.748], [299403.567, 2769682.548], [299408.98, 2769690.844], [299414.638, 2769699.811], [299415.757, 2769701.533], [299420.083, 2769708.195], [299425.445, 2769716.558], [299431.826, 2769726.259], [299438.966, 2769737.285], [299444.778, 2769746.742], [299450.944, 2769756.477], [299458.436, 2769768.173], [299470.659, 2769786.751], [299475.029, 2769793.393], [299488.72696661757, 2769812.0808154596], [299504.85168299725, 2769832.0934723835], [299513.74784614705, 2769842.609879711], [299534.9270968187, 2769866.094152299], [299556.6935888989, 2769889.035197187], [299579.0333939462, 2769911.4183343328], [299599.69187129376, 2769931.143624572], [299601.92208493827, 2769933.0407180185], [299613.1819713192, 2769942.418029668], [299613.21449648, 2769942.3843852472], [299655.929, 2769975.529], [299691.941, 2769999.871], [299717.273, 2770015.176], [299728.637, 2770022.228], [299740.837, 2770028.715], [299764.161, 2770040.844], [299774.91, 2770046.39], [299807.23, 2770062.412], [299843.49, 2770080.699], [299916.149, 2770117.202], [299932.354, 2770125.34], [299967.174, 2770142.119], [300026.5377555251, 2770181.104464926], [300026.538, 2770181.153], [300074.35, 2770214.709], [300254.383, 2770369.533], [300374.91, 2770471.074], [300420.941, 2770509.852], [300428.8949073627, 2770517.0799207087], [300436.28933336376, 2770524.879276081], [300443.08333557536, 2770533.2068816223], [300449.2392960744, 2770542.016627955], [300454.7231297314, 2770551.2597361193], [300459.5044729366, 2770560.8850276605], [300463.556851722, 2770570.839208003], [300466.85782834503, 2770581.0671615344], [300467.963, 2770585.22], [300506.602, 2770739.754], [300510.0933824995, 2770752.0703303497], [300511.612, 2770756.664], [300511.727, 2770757.0], [300516.29252252576, 2770768.983117476], [300521.59619877936, 2770780.6583099184], [300527.6173967941, 2770791.9801593632], [300534.33269335364, 2770802.904622393], [300541.71596511075, 2770813.389201476], [300549.73849021125, 2770823.393110281], [300558.36906002497, 2770832.877432348], [300567.57410055137, 2770841.8052724726], [300573.152, 2770846.706], [300674.862, 2770932.852], [300679.048, 2770936.539], [300809.391, 2771051.302], [300861.006, 2771102.394], [300895.253, 2771136.292], [300911.76938935136, 2771153.2447514003], [300927.70345600747, 2771170.745963274], [300943.0369982817, 2771188.775643764], [300957.752500474, 2771207.313197337], [300971.83315287874, 2771226.3374483106], [300985.26287098834, 2771245.8266650406], [300998.0263138647, 2771265.7585847466], [301008.15499999974, 2771282.711], [301018.618, 2771276.659], [301018.8457268796, 2771276.5272656395], [301038.3797195854, 2771310.6068596393], [301033.12493878935, 2771313.469209442], [301025.4536014528, 2771318.325022974], [300942.30393878935, 2771370.9572094423], [300810.7693942816, 2771232.74361613], [300679.1583908868, 2771094.443173183], [300487.74039428163, 2770866.47911613], [300082.08439088677, 2770669.703173183], [300026.4443942816, 2770610.5911161304], [299425.8253908868, 2770542.629173183], [299230.86239088676, 2770502.592173183], [298975.03739428165, 2770203.2581161303], [298807.86239088676, 2769952.518173183], [298774.85239428165, 2769776.7771161306], [298834.03739428165, 2769515.6651161304], [299032.4173908868, 2769069.963173183], [299239.5653908868, 2768744.445173183], [299262.2583942816, 2768620.92511613], [299338.8513942816, 2768476.4441161305], [299340.52789088676, 2768442.4266731828], [299317.8983908868, 2767957.6311731827], [299357.9353908868, 2767536.372173183], [299401.51739428163, 2767407.63011613], [299441.55439428164, 2767203.9641161305], [299514.6653942816, 2767082.1121161305], [299592.99939428165, 2767003.7791161304], [299794.9253942816, 2766881.9271161305], [299965.45439088676, 2766878.373173183], [300017.74039428163, 2766895.8531161305], [300473.7503908868, 2767233.483173183], [300519.0733942816, 2767332.7781161303], [300620.0363942816, 2767374.55611613], [300861.99939428165, 2767614.7781161303], [300938.5273908868, 2767757.446173183], [301314.5913942816, 2768211.85111613], [301526.96139428165, 2768284.96211613], [301761.4961912999, 2768277.2482872563], [301761.4565455091, 2768278.2118605757], [301752.8738391216, 2768462.6435659183], [301748.099, 2768464.343], [301748.0974211025, 2768464.352918564], [301748.087, 2768464.351], [301746.5442485862, 2768474.1098802146], [301745.134, 2768482.969], [301739.843, 2768512.171], [301743.846, 2768518.954], [301749.1, 2768525.153], [301741.067, 2768525.44], [301719.076, 2768526.581], [301711.24094215606, 2768528.875237118], [301705.6161314008, 2768527.2477175845], [301700.2652737634, 2768524.8695589676], [301695.2880146236, 2768521.7850480955], [301690.77704209066, 2768518.051625715], [301687.65460584115, 2768514.754612618], [301686.25833979034, 2768513.129869392], [301677.32242934656, 2768504.5964552355], [301667.853167799, 2768496.6590288035], [301657.8902300465, 2768489.350846816], [301647.4753594222, 2768482.7025295473], [301636.6521927967, 2768476.7419325286], [301625.4660777438, 2768471.4940298386], [301618.63936113694, 2768468.711953001], [301616.2861932652, 2768467.8978334446], [301591.9426932652, 2768460.4078334444], [301591.2344429939, 2768460.1978492117], [301451.59873127367, 2768420.352179044], [301419.832446079, 2768411.0762083484], [301385.28419214394, 2768401.0321044475], [301373.4757407601, 2768397.0375005617], [301361.94775139977, 2768392.2938895333], [301350.74767765356, 2768386.820797869], [301345.92312139773, 2768384.1802548445], [301330.3310108173, 2768375.8174559297], [300903.92620169686, 2768061.764119303], [300894.6819243844, 2768053.9155693753], [300884.9404036546, 2768046.6934386045], [300874.74401225016, 2768040.1291411296], [300864.1371014679, 2768034.2512297095], [300861.288224663, 2768032.824169293], [300845.42720781633, 2768025.2339114877], [300842.9816019907, 2768024.1413988643], [300772.99081002973, 2767990.891789143], [300684.97264906287, 2767950.1200732305], [300661.5301431274, 2767934.3996239323], [300654.7860574813, 2767929.767903927], [300649.5856429436, 2767926.429972958], [300645.33253032423, 2767923.5588952275], [300638.2320557709, 2767918.702098547], [300605.5814607241, 2767896.688306991], [300489.8111474681, 2767799.4937263643], [300452.7172536917, 2767772.2105181254], [300446.5249848366, 2767766.9087574], [300431.3358032062, 2767755.204297133], [300415.67169150995, 2767744.1434999877], [300399.5599075594, 2767733.745613344], [300383.0284881799, 2767724.0287310234], [300366.10620042396, 2767715.0097618015], [300348.82249151036, 2767706.704399984], [300331.9229832113, 2767699.4180653715], [300334.639, 2767700.47]]]}, "properties": {"編號": "1688", "圖層": "49", "顏色": "7", "街廓編號": "", "分區代碼": "PW1", "分區簡稱": "河川區", "使用分區": "河川區", "分區說明": "", "原屬分區": "", "變更前代碼": "", "變更前簡稱": "", "變更前分區": ""}}, {"type": "Feature", "geometry": {"type": "MultiPolygon", "coordinates": [[[[301176.974, 2772060.628], [301193.279, 2772056.593], [301186.897, 2772030.521], [301170.489, 2772034.594], [301176.974, 2772060.628]]], [[[301166.534, 2772072.617], [301200.659, 2772148.144], [301204.286, 2772146.6585], [301207.913, 2772145.173], [301209.815, 2772150.8275], [301211.717, 2772156.482], [301219.607, 2772153.907], [301216.178, 2772140.571], [301197.752, 2772064.82], [301166.534, 2772072.617]]], [[[301298.3709505529, 2774172.68140066], [301292.341, 2774180.696], [301287.704, 2774187.856], [301276.188, 2774206.084], [301275.52, 2774257.719], [301266.557, 2774273.247], [301261.03, 2774291.539], [301254.296, 2774313.675], [301252.018, 2774325.379], [301247.913, 2774346.084], [301245.71, 2774356.806], [301243.607, 2774367.714], [301240.391, 2774382.623], [301237.343, 2774404.703], [301228.472, 2774419.544], [301221.303, 2774440.633], [301210.136, 2774477.701], [301200.837, 2774500.117], [301178.9066910059, 2774553.287173664], [301181.665, 2774553.417], [301178.50594963337, 2774560.3760752706], [300925.55973952817, 2774524.6941890684], [300901.33684858296, 2774521.260647968], [301018.81593878934, 2774256.6872094423], [301149.5829387894, 2773832.797209442], [301159.05893878936, 2773516.004209442], [301140.10693878937, 2773111.035209442], [301123.0509387894, 2772959.2782094423], [301058.62893878936, 2772677.296209442], [301117.41093878937, 2772108.953209442], [301111.7899387894, 2771959.748209442], [301068.2739387894, 2771699.331209442], [300942.30393878935, 2771370.9572094423], [301025.4536014528, 2771318.325022974], [301030.39, 2771326.932], [301057.22, 2771374.417], [301065.76, 2771394.494], [301073.377, 2771412.401], [301087.491, 2771451.405], [301103.682, 2771495.938], [301103.635, 2771496.02], [301115.649, 2771528.681], [301127.003, 2771564.071], [301146.1111281471, 2771689.304640339], [301162.9, 2771799.338], [301163.726, 2771804.755], [301174.164, 2771876.866], [301189.179, 2771940.864], [301209.566, 2772025.326], [301214.616, 2772045.349], [301228.65, 2772100.991], [301244.564, 2772175.646], [301244.559, 2772175.648], [301259.799, 2772247.127], [301262.357, 2772260.529], [301262.302, 2772260.54], [301263.219, 2772265.657], [301263.332, 2772265.635], [301264.736, 2772272.992], [301263.362, 2772314.754], [301263.76383547473, 2772360.597010651], [301264.076, 2772396.21], [301264.213, 2772412.255], [301268.229, 2772461.723], [301264.393, 2772557.731], [301263.521, 2772603.416], [301263.069, 2772627.125], [301265.749, 2772662.406], [301268.52604849386, 2772698.3947822503], [301271.259, 2772718.151], [301280.392, 2772783.151], [301280.7581323588, 2772785.7588336435], [301281.332, 2772789.843], [301286.8283337505, 2772828.994768273], [301289.018, 2772844.591], [301291.334, 2772861.706], [301294.085, 2772880.605], [301294.1580775771, 2772881.231155987], [301297.6387106855, 2772911.0545210447], [301297.639, 2772911.057], [301296.789, 2772935.414], [301295.938, 2772959.772], [301294.698, 2772995.25], [301293.757, 2773022.087], [301292.815, 2773048.924], [301294.457, 2773071.875], [301296.098, 2773093.6], [301298.913, 2773130.747], [301300.015, 2773145.043], [301301.051, 2773158.224], [301302.283, 2773173.475], [301303.0966161077, 2773185.533510636], [301303.3266273384, 2773188.942480331], [301307.3242156744, 2773241.577111423], [301308.838, 2773259.915], [301309.3377903073, 2773267.795675344], [301311.714, 2773297.759], [301311.714, 2773297.766], [301313.686, 2773322.535], [301326.007, 2773444.263], [301331.801, 2773490.386], [301338.453, 2773548.796], [301341.862, 2773596.753], [301341.309, 2773724.208], [301335.814, 2773783.653], [301330.319, 2773843.098], [301327.9692725303, 2773871.425949675], [301326.093, 2773894.046], [301315.25306433294, 2774001.2976756184], [301302.877, 2774123.748], [301302.858, 2774123.943], [301298.3709505529, 2774172.68140066]]]]}, "properties": {"編號": "1707", "圖層": "49", "顏色": "7", "街廓編號": "", "分區代碼": "PW1", "分區簡稱": "河川區", "使用分區": "河川區", "分區說明": "", "原屬分區": "", "變更前代碼": "", "變更前簡稱": "", "變更前分區": ""}}, {"type": "Feature", "geometry": {"type": "Polygon", "coordinates": [[[301298.3709505529, 2774172.68140066], [301302.858, 2774123.943], [301302.877, 2774123.748], [301315.25306433294, 2774001.2976756184], [301326.093, 2773894.046], [301327.9692725303, 2773871.425949675], [301330.319, 2773843.098], [301335.814, 2773783.653], [301341.309, 2773724.208], [301341.862, 2773596.753], [301338.453, 2773548.796], [301331.801, 2773490.386], [301326.007, 2773444.263], [301313.686, 2773322.535], [301311.714, 2773297.766], [301311.714, 2773297.759], [301309.3377903073, 2773267.795675344], [301308.838, 2773259.915], [301307.3242156744, 2773241.577111423], [301303.3266273384, 2773188.942480331], [301303.0966161077, 2773185.533510636], [301302.283, 2773173.475], [301301.051, 2773158.224], [301300.015, 2773145.043], [301298.913, 2773130.747], [301296.098, 2773093.6], [301294.457, 2773071.875], [301292.815, 2773048.924], [301293.757, 2773022.087], [301294.698, 2772995.25], [301295.938, 2772959.772], [301296.789, 2772935.414], [301297.639, 2772911.057], [301297.6387106855, 2772911.0545210447], [301294.1580775771, 2772881.231155987], [301294.085, 2772880.605], [301291.334, 2772861.706], [301289.018, 2772844.591], [301286.8283337505, 2772828.994768273], [301281.332, 2772789.843], [301280.7581323588, 2772785.7588336435], [301280.392, 2772783.151], [301271.259, 2772718.151], [301268.52604849386, 2772698.3947822503], [301265.749, 2772662.406], [301263.069, 2772627.125], [301263.521, 2772603.416], [301264.393, 2772557.731], [301268.229, 2772461.723], [301264.213, 2772412.255], [301264.076, 2772396.21], [301263.76383547473, 2772360.597010651], [301263.362, 2772314.754], [301264.736, 2772272.992], [301263.332, 2772265.635], [301263.219, 2772265.657], [301262.302, 2772260.54], [301262.357, 2772260.529], [301259.799, 2772247.127], [301244.559, 2772175.648], [301244.564, 2772175.646], [301228.65, 2772100.991], [301214.616, 2772045.349], [301209.566, 2772025.326], [301189.179, 2771940.864], [301174.164, 2771876.866], [301163.726, 2771804.755], [301162.9, 2771799.338], [301146.1111281471, 2771689.304640339], [301127.003, 2771564.071], [301115.649, 2771528.681], [301103.635, 2771496.02], [301103.682, 2771495.938], [301087.491, 2771451.405], [301073.377, 2771412.401], [301065.76, 2771394.494], [301057.22, 2771374.417], [301030.39, 2771326.932], [301025.4536014528, 2771318.325022974], [301033.12493878935, 2771313.469209442], [301039.30694218253, 2771311.7927294816], [301043.652, 2771319.26], [301063.817, 2771353.522], [301082.55, 2771391.3], [301094.258, 2771414.91], [301109.559, 2771445.234], [301127.0, 2771495.899], [301127.076, 2771496.02], [301136.456, 2771521.52], [301148.487, 2771559.02], [301168.29166872165, 2771688.8202401195], [301184.648, 2771796.02], [301185.487, 2771801.52], [301195.8, 2771872.77], [301210.581, 2771935.77], [301230.925, 2772020.055], [301250.085, 2772096.02], [301266.081, 2772171.059], [301266.075, 2772171.06], [301281.365, 2772242.77], [301286.805, 2772271.27], [301285.365, 2772315.02], [301285.7824779503, 2772362.647766564], [301286.075, 2772396.02], [301286.205, 2772411.27], [301290.265, 2772461.27], [301286.385, 2772558.38], [301285.085, 2772626.5], [301290.365, 2772696.02], [301313.425, 2772860.14], [301313.425, 2772860.15], [301317.555, 2772876.78], [301322.085, 2772907.15], [301318.945, 2772931.33], [301318.945, 2772931.34], [301317.925, 2772960.54], [301316.685, 2772996.02], [301314.815, 2773049.31], [301314.815, 2773049.32], [301318.035, 2773091.94], [301323.665, 2773166.23], [301325.1166680808, 2773185.3436295358], [301330.745, 2773259.45], [301333.645, 2773296.02], [301335.615, 2773320.77], [301341.045, 2773387.52], [301347.835, 2773441.52], [301353.645, 2773487.77], [301360.365, 2773546.77], [301363.865, 2773596.02], [301363.305, 2773725.27], [301352.235, 2773845.02], [301349.9428676717, 2773872.6556379283], [301348.005, 2773896.02], [301324.765, 2774125.96], [301318.315, 2774196.02], [301303.335, 2774358.72], [301290.765, 2774461.61], [301284.095, 2774496.02], [301282.8276455045, 2774501.9817332276], [301281.914, 2774501.956], [301260.45098889706, 2774501.443713359], [301262.576, 2774491.446], [301269.02, 2774458.184], [301281.46, 2774356.353], [301296.408, 2774194.003], [301298.3709505529, 2774172.68140066]]]}, "properties": {"編號": "1709", "圖層": "49", "顏色": "7", "街廓編號": "", "分區代碼": "PW1", "分區簡稱": "河川區", "使用分區": "河川區", "分區說明": "", "原屬分區": "", "變更前代碼": "", "變更前簡稱": "", "變更前分區": ""}}, {"type": "Feature", "geometry": {"type": "Polygon", "coordinates": [[[301200.659, 2772148.144], [301166.534, 2772072.617], [301197.752, 2772064.82], [301216.178, 2772140.571], [301219.607, 2772153.907], [301211.717, 2772156.482], [301209.815, 2772150.8275], [301207.913, 2772145.173], [301204.286, 2772146.6585], [301200.659, 2772148.144]]]}, "properties": {"編號": "1710", "圖層": "49", "顏色": "7", "街廓編號": "", "分區代碼": "PW1", "分區簡稱": "河川區", "使用分區": "河川區", "分區說明": "", "原屬分區": "", "變更前代碼": "", "變更前簡稱": "", "變更前分區": ""}}, {"type": "Feature", "geometry": {"type": "Polygon", "coordinates": [[[301176.974, 2772060.628], [301170.489, 2772034.594], [301186.897, 2772030.521], [301193.279, 2772056.593], [301176.974, 2772060.628]]]}, "properties": {"編號": "1711", "圖層": "49", "顏色": "7", "街廓編號": "", "分區代碼": "PW1", "分區簡稱": "河川區", "使用分區": "河川區", "分區說明": "", "原屬分區": "", "變更前代碼": "", "變更前簡稱": "", "變更前分區": ""}}, {"type": "Feature", "geometry": {"type": "Polygon", "coordinates": [[[302085.1803492095, 2772502.841998603], [302083.4118913541, 2772499.2541640457], [302099.74092602613, 2772460.497014875], [302102.433820657, 2772459.174774917], [302196.41802191234, 2772484.0949969767], [302198.58654421236, 2772487.456174008], [302191.85350180935, 2772527.725889326], [302188.4956343155, 2772529.8995327866], [302085.1803492095, 2772502.841998603]]]}, "properties": {"編號": "2533", "圖層": "32", "顏色": "19", "街廓編號": "", "分區代碼": "PEA", "分區簡稱": "公", "使用分區": "公園用地", "分區說明": "", "原屬分區": "", "變更前代碼": "", "變更前簡稱": "", "變更前分區": ""}}, {"type": "Feature", "geometry": {"type": "Polygon", "coordinates": [[[301812.9949492855, 2772281.8259672187], [301809.95528139593, 2772312.9276761473], [301806.1766236596, 2772316.2020838363], [301750.9223326588, 2772313.696195535], [301734.8301356337, 2772312.9651173064], [301734.7967412052, 2772312.92881505], [301732.12206969736, 2772310.0212458954], [301733.139, 2772283.269], [301733.52591045, 2772272.94868224], [301736.432, 2772273.317], [301741.934, 2772274.07], [301763.281, 2772278.089], [301779.634, 2772279.179], [301790.483, 2772279.387], [301790.568, 2772280.14], [301790.486, 2772280.823], [301795.713, 2772281.089], [301798.577, 2772281.155], [301810.016, 2772281.695], [301812.9949492855, 2772281.8259672187]]]}, "properties": {"編號": "2540", "圖層": "32", "顏色": "19", "街廓編號": "", "分區代碼": "PEA", "分區簡稱": "公", "使用分區": "公園用地", "分區說明": "", "原屬分區": "", "變更前代碼": "", "變更前簡稱": "", "變更前分區": ""}}, {"type": "Feature", "geometry": {"type": "Polygon", "coordinates": [[[301717.31496801425, 2772077.3218198074], [301715.38327390625, 2772075.0264858725], [301714.27261705184, 2772043.1817491706], [301716.5419463742, 2772041.2195706805], [301744.7223816533, 2772046.3412102405], [301839.0814129486, 2772072.068764312], [301831.949595155, 2772103.166671176], [301767.4662777355, 2772087.827571403], [301717.31496801425, 2772077.3218198074]]]}, "properties": {"編號": "2543", "圖層": "32", "顏色": "19", "街廓編號": "", "分區代碼": "PEA", "分區簡稱": "公", "使用分區": "公園用地", "分區說明": "", "原屬分區": "", "變更前代碼": "", "變更前簡稱": "", "變更前分區": ""}}, {"type": "Feature", "geometry": {"type": "Polygon", "coordinates": [[[301572.8998007507, 2771470.556435103], [301578.55897255277, 2771526.7029642113], [301548.271, 2771532.616], [301518.7764390507, 2771525.3567223507], [301521.13042033074, 2771477.475903767], [301572.8998007507, 2771470.556435103]]]}, "properties": {"編號": "2546", "圖層": "32", "顏色": "19", "街廓編號": "", "分區代碼": "PEA", "分區簡稱": "公", "使用分區": "公園用地", "分區說明": "", "原屬分區": "", "變更前代碼": "", "變更前簡稱": "", "變更前分區": ""}}, {"type": "Feature", "geometry": {"type": "Polygon", "coordinates": [[[301255.3307792952, 2771446.4228041414], [301250.9187749937, 2771453.0962004317], [301149.80116695905, 2771468.424422331], [301142.94988962315, 2771464.294047183], [301094.21889347484, 2771324.4512693244], [301097.97138023045, 2771317.385942499], [301208.6866965368, 2771288.0481136045], [301215.5896877587, 2771292.091467681], [301255.3307792952, 2771446.4228041414]]]}, "properties": {"編號": "2548", "圖層": "32", "顏色": "19", "街廓編號": "", "分區代碼": "PEA", "分區簡稱": "公", "使用分區": "公園用地", "分區說明": "", "原屬分區": "", "變更前代碼": "", "變更前簡稱": "", "變更前分區": ""}}, {"type": "Feature", "geometry": {"type": "Polygon", "coordinates": [[[302294.1542246847, 2771832.451307815], [302301.95248735667, 2771837.255769033], [302354.31700517226, 2771854.5392738045], [302370.5447237668, 2771850.614229758], [302385.4307761774, 2771847.016545548], [302387.99847224355, 2771848.56797615], [302397.9192328486, 2771887.97240949], [302413.6913096616, 2771930.2090995396], [302421.7202461419, 2771951.692776149], [302419.51969369437, 2771955.0330708856], [302336.2718138733, 2771959.0392802935], [302335.93977044726, 2771959.0552625046], [302330.26256910444, 2771925.8803674807], [302326.06721491506, 2771901.3897004514], [302295.7585078282, 2771912.1592151513], [302271.1482084017, 2771828.842691939], [302283.3154924893, 2771825.7736322004], [302294.1542246847, 2771832.451307815]]]}, "properties": {"編號": "2555", "圖層": "32", "顏色": "19", "街廓編號": "", "分區代碼": "PEA", "分區簡稱": "公", "使用分區": "公園用地", "分區說明": "", "原屬分區": "", "變更前代碼": "", "變更前簡稱": "", "變更前分區": ""}}, {"type": "Feature", "geometry": {"type": "Polygon", "coordinates": [[[300498.21417387034, 2769924.459950776], [300497.8765672426, 2769924.8229766125], [300403.5592458537, 2769928.141439679], [300399.9378753481, 2769924.6938788514], [300398.6996390853, 2769836.2304120534], [300397.1814388814, 2769796.522809363], [300400.60130600334, 2769792.875274734], [300495.5177384398, 2769790.3889071173], [300497.94641355064, 2769852.100608347], [300498.77219850325, 2769872.97617238], [300500.60058579134, 2769921.8938602023], [300498.21417387034, 2769924.459950776]]]}, "properties": {"編號": "2617", "圖層": "32", "顏色": "19", "街廓編號": "", "分區代碼": "PEA", "分區簡稱": "公", "使用分區": "公園用地", "分區說明": "", "原屬分區": "", "變更前代碼": "", "變更前簡稱": "", "變更前分區": ""}}, {"type": "Feature", "geometry": {"type": "Polygon", "coordinates": [[[300649.377, 2770324.589], [300653.592, 2770351.586], [300649.68, 2770356.065], [300646.213, 2770355.252], [300642.957, 2770353.692], [300642.694, 2770353.429], [300640.669, 2770351.903], [300638.679, 2770350.177], [300636.992, 2770347.878], [300635.373, 2770345.265], [300634.659, 2770342.902], [300634.042, 2770340.369], [300634.001, 2770337.795], [300634.202, 2770334.779], [300634.701, 2770332.92], [300635.577, 2770330.431], [300637.419, 2770327.319], [300639.348, 2770324.924], [300640.985, 2770323.62], [300641.685, 2770323.152], [300642.858, 2770322.414], [300644.229, 2770321.683], [300644.356, 2770321.522], [300649.377, 2770324.589]]]}, "properties": {"編號": "2620", "圖層": "32", "顏色": "19", "街廓編號": "", "分區代碼": "PEB", "分區簡稱": "綠", "使用分區": "綠地用地", "分區說明": "", "原屬分區": "", "變更前代碼": "", "變更前簡稱": "", "變更前分區": ""}}, {"type": "Feature", "geometry": {"type": "Polygon", "coordinates": [[[300455.9009453633, 2770448.730399317], [300460.3720349755, 2770450.9685587576], [300466.4124587059, 2770477.6583024575], [300468.6513243909, 2770497.5776234996], [300465.4805269802, 2770501.443634852], [300462.5107861805, 2770501.696754593], [300454.18271701335, 2770492.5849492997], [300445.2820813818, 2770484.031563005], [300435.8462421465, 2770476.072500895], [300430.8914804766, 2770472.2906405875], [300425.5745043178, 2770467.880538144], [300426.0192394588, 2770462.074575116], [300455.9009453633, 2770448.730399317]]]}, "properties": {"編號": "2621", "圖層": "32", "顏色": "19", "街廓編號": "", "分區代碼": "PEA", "分區簡稱": "公", "使用分區": "公園用地", "分區說明": "", "原屬分區": "", "變更前代碼": "", "變更前簡稱": "", "變更前分區": ""}}, {"type": "Feature", "geometry": {"type": "Polygon", "coordinates": [[[300804.074133261, 2770905.778897444], [300782.0814688442, 2770911.345319811], [300776.4641566181, 2770908.022891362], [300751.33128450776, 2770806.653932525], [300753.89146453026, 2770802.359112592], [300801.177399842, 2770790.1511767143], [300801.985, 2770793.772], [300810.273, 2770830.247], [300842.662, 2770821.757], [300846.125, 2770820.842], [300852.005, 2770846.124], [300832.23, 2770850.787], [300834.492, 2770860.79], [300807.239, 2770867.293], [300804.401, 2770902.089], [300804.074133261, 2770905.778897444]]]}, "properties": {"編號": "2626", "圖層": "32", "顏色": "19", "街廓編號": "", "分區代碼": "PEA", "分區簡稱": "公", "使用分區": "公園用地", "分區說明": "", "原屬分區": "", "變更前代碼": "", "變更前簡稱": "", "變更前分區": ""}}, {"type": "Feature", "geometry": {"type": "Polygon", "coordinates": [[[301041.6450229535, 2771010.2715949006], [301031.85427178285, 2770972.12697127], [301034.4024365525, 2770967.8250116813], [301060.95900259377, 2770961.043173352], [301061.908, 2770964.57], [301070.313, 2770996.587], [301071.781, 2771002.145], [301071.981, 2771002.849], [301054.333, 2771007.49], [301054.163, 2771006.934], [301041.6450229535, 2771010.2715949006]]]}, "properties": {"編號": "2627", "圖層": "32", "顏色": "19", "街廓編號": "", "分區代碼": "PEA", "分區簡稱": "公", "使用分區": "公園用地", "分區說明": "", "原屬分區": "", "變更前代碼": "", "變更前簡稱": "", "變更前分區": ""}}, {"type": "Feature", "geometry": {"type": "Polygon", "coordinates": [[[301983.8478043115, 2770157.855470451], [301987.9468155892, 2770160.7187040327], [302008.88726799394, 2770240.4490137645], [302006.1293250642, 2770244.619595354], [301856.2162323985, 2770266.5750816823], [301847.1982664592, 2770174.3633739655], [301850.37866773584, 2770170.5052594356], [301983.8478043115, 2770157.855470451]]]}, "properties": {"編號": "2635", "圖層": "32", "顏色": "19", "街廓編號": "", "分區代碼": "PEA", "分區簡稱": "公", "使用分區": "公園用地", "分區說明": "", "原屬分區": "", "變更前代碼": "", "變更前簡稱": "", "變更前分區": ""}}, {"type": "Feature", "geometry": {"type": "Polygon", "coordinates": [[[303250.26541581703, 2771054.260756367], [303185.712381449, 2771075.8857905488], [303149.70247975586, 2771087.942895274], [303067.6788406363, 2771115.4066638593], [303062.79245374654, 2771116.6937686484], [303026.94265899516, 2770979.3895440246], [303032.75458818104, 2770977.8955405923], [303139.4022969515, 2770950.2011042186], [303216.724989398, 2770930.1203775234], [303216.6940611479, 2770930.0022354675], [303217.298, 2770929.845], [303219.512, 2770938.196], [303223.099, 2770951.722], [303237.837, 2771007.312], [303247.493, 2771043.799], [303248.902, 2771049.11], [303250.215, 2771054.07], [303250.26541581703, 2771054.260756367]]]}, "properties": {"編號": "2650", "圖層": "32", "顏色": "19", "街廓編號": "", "分區代碼": "PEA", "分區簡稱": "公", "使用分區": "公園用地", "分區說明": "", "原屬分區": "", "變更前代碼": "", "變更前簡稱": "", "變更前分區": ""}}, {"type": "Feature", "geometry": {"type": "Polygon", "coordinates": [[[301988.63135030435, 2771280.9125039955], [301986.51859478856, 2771281.4616674744], [301976.5717769432, 2771227.986809445], [301976.564, 2771227.945], [301984.7, 2771227.945], [301986.534, 2771227.945], [301990.38, 2771231.141], [301999.35122725513, 2771279.412938298], [301988.63135030435, 2771280.9125039955]]]}, "properties": {"編號": "2654", "圖層": "32", "顏色": "19", "街廓編號": "", "分區代碼": "PEB", "分區簡稱": "綠", "使用分區": "綠地用地", "分區說明": "", "原屬分區": "", "變更前代碼": "", "變更前簡稱": "", "變更前分區": ""}}, {"type": "Feature", "geometry": {"type": "Polygon", "coordinates": [[[302431.2724755969, 2771136.0881321803], [302482.518, 2771126.465], [302489.595, 2771130.26], [302513.02, 2771186.415], [302509.1486969309, 2771193.430859705], [302443.916, 2771204.444], [302436.704, 2771165.452], [302431.2724755969, 2771136.0881321803]]]}, "properties": {"編號": "2656", "圖層": "32", "顏色": "19", "街廓編號": "", "分區代碼": "PEA", "分區簡稱": "公", "使用分區": "公園用地", "分區說明": "", "原屬分區": "", "變更前代碼": "", "變更前簡稱": "", "變更前分區": ""}}, {"type": "Feature", "geometry": {"type": "Polygon", "coordinates": [[[301214.862, 2769998.902], [301212.401, 2769998.993], [301210.5787305732, 2769998.4155982523], [301210.246, 2769998.208], [301208.777, 2769996.748], [301208.014, 2769995.168], [301206.459, 2769991.85], [301205.5096978462, 2769988.60676658], [301205.372, 2769987.547], [301205.0678071423, 2769984.509686183], [301205.16, 2769983.363], [301205.74905956915, 2769980.2722820686], [301206.228, 2769979.033], [301207.6240443156, 2769976.9374123323], [301208.214, 2769976.362], [301208.26084063627, 2769976.3179924414], [301210.061, 2769974.893], [301238.905, 2769961.994], [301239.677, 2769961.668], [301240.589, 2769961.247], [301241.655, 2769961.079], [301242.595, 2769961.127], [301243.664, 2769961.465], [301244.604, 2769962.025], [301245.265, 2769962.924], [301245.797, 2769963.551], [301246.209, 2769964.42], [301247.17, 2769968.599], [301247.758, 2769970.122], [301249.055, 2769972.418], [301249.736, 2769973.633], [301250.649, 2769974.815], [301251.527, 2769976.137], [301251.896, 2769977.614], [301251.632, 2769978.895], [301251.497, 2769979.548], [301251.04, 2769980.511], [301250.523, 2769981.481], [301250.145, 2769982.45], [301249.402, 2769982.974], [301248.731, 2769983.684], [301214.862, 2769998.902]]]}, "properties": {"編號": "2661", "圖層": "32", "顏色": "19", "街廓編號": "", "分區代碼": "PEB", "分區簡稱": "綠", "使用分區": "綠地用地", "分區說明": "", "原屬分區": "", "變更前代碼": "", "變更前簡稱": "", "變更前分區": ""}}, {"type": "Feature", "geometry": {"type": "Polygon", "coordinates": [[[301364.798, 2769931.999], [301299.087, 2769961.266], [301298.085, 2769961.821], [301296.964, 2769961.893], [301296.197, 2769961.743], [301295.0, 2769961.24], [301294.037, 2769960.585], [301293.361, 2769959.845], [301292.744, 2769958.905], [301292.383, 2769957.912], [301291.449, 2769954.007], [301290.87, 2769952.782], [301289.178, 2769949.471], [301287.512, 2769947.35], [301286.807, 2769945.272], [301287.095, 2769943.518], [301287.642, 2769942.13], [301288.444, 2769940.665], [301289.169, 2769939.933], [301290.023, 2769939.174], [301330.505, 2769921.157], [301428.8255, 2769877.2575], [301527.14599999954, 2769833.358], [301530.31966642616, 2769833.2217572955], [301533.4273881104, 2769833.8796224766], [301536.2736124518, 2769835.2901995433], [301538.6792415044, 2769837.3647282906], [301540.4929016693, 2769839.9726695223], [301541.60046883964, 2769842.9499191972], [301541.772, 2769843.816], [301541.9187769675, 2769846.969174653], [301541.27130324196, 2769850.058645748], [301539.87083473156, 2769852.887557522], [301538.4570000002, 2769854.648], [301451.6275, 2769893.3235], [301364.798, 2769931.999]]]}, "properties": {"編號": "2662", "圖層": "32", "顏色": "19", "街廓編號": "", "分區代碼": "PEB", "分區簡稱": "綠", "使用分區": "綠地用地", "分區說明": "", "原屬分區": "", "變更前代碼": "", "變更前簡稱": "", "變更前分區": ""}}, {"type": "Feature", "geometry": {"type": "Polygon", "coordinates": [[[301559.998, 2769846.411], [301558.555, 2769845.885], [301558.018, 2769845.513], [301557.222, 2769844.952], [301556.774, 2769844.3005], [301556.326, 2769843.649], [301556.1235, 2769842.9925], [301555.921, 2769842.336], [301555.847, 2769839.64], [301556.0, 2769837.754], [301556.85, 2769835.665], [301557.096, 2769835.265], [301557.4185, 2769834.6575], [301557.741, 2769834.05], [301559.074, 2769832.436], [301560.407, 2769830.822], [301561.195, 2769830.283], [301562.295, 2769829.734], [301629.4815, 2769812.346], [301696.668, 2769794.958], [301700.52, 2769795.818], [301702.998, 2769797.126], [301704.355, 2769798.639], [301705.383, 2769800.216], [301706.433, 2769802.05], [301707.167, 2769804.861], [301706.417, 2769807.76], [301704.957, 2769809.478], [301703.279, 2769810.133], [301633.4325, 2769828.389], [301563.586, 2769846.645], [301561.694, 2769846.625], [301559.998, 2769846.411]]]}, "properties": {"編號": "2663", "圖層": "32", "顏色": "19", "街廓編號": "", "分區代碼": "PEB", "分區簡稱": "綠", "使用分區": "綠地用地", "分區說明": "", "原屬分區": "", "變更前代碼": "", "變更前簡稱": "", "變更前分區": ""}}, {"type": "Feature", "geometry": {"type": "Polygon", "coordinates": [[[301683.041, 2769770.573], [301684.1611553459, 2769770.761148175], [301684.8991321461, 2769771.624593586], [301684.98999999976, 2769771.986], [301685.0219382565, 2769774.6184503846], [301684.2661956627, 2769777.140288645], [301682.7917598219, 2769779.321309972], [301682.04800000024, 2769780.036], [301566.2049999998, 2769809.937], [301563.0369427478, 2769809.988251501], [301559.95628071285, 2769809.2474850775], [301557.157850446, 2769807.7615505196], [301555.11699999927, 2769805.963000001], [301554.62079956126, 2769804.586481098], [301554.90776095487, 2769803.151673682], [301555.89522234537, 2769802.0718870526], [301556.942, 2769801.687], [301683.041, 2769770.573]]]}, "properties": {"編號": "2664", "圖層": "32", "顏色": "19", "街廓編號": "", "分區代碼": "PEB", "分區簡稱": "綠", "使用分區": "綠地用地", "分區說明": "", "原屬分區": "", "變更前代碼": "", "變更前簡稱": "", "變更前分區": ""}}, {"type": "Feature", "geometry": {"type": "Polygon", "coordinates": [[[301736.912, 2769767.782], [301734.50656896684, 2769767.244347658], [301733.3309999998, 2769766.65], [301732.12478902435, 2769764.8646963635], [301731.6463021131, 2769762.7639097804], [301731.96038314677, 2769760.632335926], [301732.80499999976, 2769759.0350000006], [301767.553, 2769754.815], [301775.444, 2769753.857], [301859.168, 2769743.689], [301868.19, 2769742.594], [301926.169, 2769735.553], [301927.6068288133, 2769736.5283712167], [301928.4645585868, 2769738.03933129], [301928.5650656724, 2769739.773862648], [301928.302, 2769740.651], [301927.071, 2769741.788], [301926.705, 2769741.971], [301926.339, 2769742.154], [301925.552, 2769742.379], [301869.195, 2769749.469], [301859.91, 2769750.637], [301856.079, 2769751.119], [301838.012, 2769756.012], [301776.358, 2769763.19], [301768.479, 2769764.107], [301752.6955, 2769765.9445], [301736.912, 2769767.782]]]}, "properties": {"編號": "2665", "圖層": "32", "顏色": "19", "街廓編號": "", "分區代碼": "PEB", "分區簡稱": "綠", "使用分區": "綠地用地", "分區說明": "", "原屬分區": "", "變更前代碼": "", "變更前簡稱": "", "變更前分區": ""}}, {"type": "Feature", "geometry": {"type": "Polygon", "coordinates": [[[301929.38, 2769763.451], [301931.457, 2769763.58], [301933.359, 2769764.478], [301934.252, 2769765.896], [301934.467, 2769767.023], [301935.618, 2769775.836], [301935.016, 2769777.261], [301934.053, 2769778.535], [301932.374, 2769779.474], [301733.8, 2769804.177], [301732.02, 2769804.531], [301730.048, 2769804.065], [301728.126, 2769803.13], [301726.86, 2769801.597], [301726.05, 2769799.817], [301726.093, 2769797.922], [301726.495, 2769796.016], [301727.019, 2769794.296], [301728.529, 2769792.107], [301729.247, 2769791.142], [301730.428, 2769789.975], [301731.874, 2769788.938], [301734.623, 2769787.806], [301929.38, 2769763.451]]]}, "properties": {"編號": "2666", "圖層": "32", "顏色": "19", "街廓編號": "", "分區代碼": "PEB", "分區簡稱": "綠", "使用分區": "綠地用地", "分區說明": "", "原屬分區": "", "變更前代碼": "", "變更前簡稱": "", "變更前分區": ""}}, {"type": "Feature", "geometry": {"type": "Polygon", "coordinates": [[[301948.61, 2769724.544], [301946.775, 2769724.251], [301945.611, 2769723.145], [301944.927, 2769721.808], [301943.889, 2769712.566], [301944.003, 2769710.327], [301944.549, 2769707.981], [301945.522, 2769706.116], [301947.204, 2769703.345], [301948.95, 2769701.081], [301950.922, 2769699.2], [301953.444, 2769697.573], [301956.235, 2769696.581], [301959.192, 2769695.925], [301962.234, 2769695.646], [301964.569, 2769695.948], [301967.387, 2769696.75], [301969.682, 2769697.802], [301971.742, 2769698.982], [301973.911, 2769701.006], [301975.425, 2769702.723], [301976.84, 2769704.985], [301977.16, 2769705.704], [301977.886, 2769707.519], [301978.665, 2769710.572], [301979.339, 2769717.193], [301978.746, 2769719.11], [301977.503, 2769720.678], [301976.67, 2769720.965], [301948.61, 2769724.544]]]}, "properties": {"編號": "2667", "圖層": "32", "顏色": "19", "街廓編號": "", "分區代碼": "PEB", "分區簡稱": "綠", "使用分區": "綠地用地", "分區說明": "", "原屬分區": "", "變更前代碼": "", "變更前簡稱": "", "變更前分區": ""}}, {"type": "Feature", "geometry": {"type": "Polygon", "coordinates": [[[301947.374, 2769739.743], [301946.874, 2769735.404], [301947.209, 2769733.838], [301948.175, 2769732.855], [301949.665, 2769732.424], [301976.771, 2769729.215], [301977.824, 2769729.092], [301979.103, 2769729.325], [301980.659, 2769730.536], [301981.403, 2769731.725], [301981.938, 2769736.337], [301981.47, 2769738.026], [301980.575, 2769738.897], [301979.385, 2769739.18], [301978.638, 2769739.235], [301951.488, 2769742.639], [301949.574, 2769742.399], [301948.024, 2769741.237], [301947.374, 2769739.743]]]}, "properties": {"編號": "2668", "圖層": "32", "顏色": "19", "街廓編號": "", "分區代碼": "PEB", "分區簡稱": "綠", "使用分區": "綠地用地", "分區說明": "", "原屬分區": "", "變更前代碼": "", "變更前簡稱": "", "變更前分區": ""}}, {"type": "Feature", "geometry": {"type": "Polygon", "coordinates": [[[301955.236, 2769788.713], [301956.351, 2769788.094], [301985.483, 2769784.421], [301987.927, 2769785.828], [301988.32, 2769787.657], [301988.161, 2769789.562], [301987.577, 2769791.639], [301986.743, 2769793.555], [301986.475, 2769794.205], [301986.004, 2769795.026], [301985.121, 2769796.445], [301984.214, 2769797.634], [301983.667, 2769798.406], [301982.129, 2769799.757], [301980.563, 2769800.958], [301978.733, 2769801.868], [301976.786, 2769802.591], [301974.873, 2769803.171], [301972.852, 2769803.363], [301970.859, 2769803.482], [301969.187, 2769803.351], [301967.057, 2769803.066], [301965.007, 2769802.534], [301963.068, 2769801.599], [301961.446, 2769800.742], [301959.965, 2769799.697], [301958.82, 2769798.606], [301957.906, 2769797.644], [301956.661, 2769795.993], [301955.858, 2769794.644], [301955.259, 2769793.662], [301954.465, 2769791.679], [301954.481, 2769790.362], [301955.236, 2769788.713]]]}, "properties": {"編號": "2669", "圖層": "32", "顏色": "19", "街廓編號": "", "分區代碼": "PEB", "分區簡稱": "綠", "使用分區": "綠地用地", "分區說明": "", "原屬分區": "", "變更前代碼": "", "變更前簡稱": "", "變更前分區": ""}}, {"type": "Feature", "geometry": {"type": "Polygon", "coordinates": [[[301999.14, 2769734.559], [301998.2254517555, 2769732.1627369192], [301998.08877248457, 2769729.6015274357], [301998.498, 2769727.748], [301999.3574000392, 2769726.6641023913], [301999.748, 2769726.44], [302083.086, 2769716.912], [302084.4850000002, 2769716.965], [302085.55159331823, 2769717.358354147], [302086.1173270159, 2769718.3444039295], [302085.998, 2769719.308], [302084.36113271187, 2769722.3553567645], [302082.070013386, 2769724.946975949], [302079.79499999975, 2769726.63], [302002.364, 2769735.747], [302000.6949999998, 2769735.365], [301999.14, 2769734.559]]]}, "properties": {"編號": "2670", "圖層": "32", "顏色": "19", "街廓編號": "", "分區代碼": "PEB", "分區簡稱": "綠", "使用分區": "綠地用地", "分區說明": "", "原屬分區": "", "變更前代碼": "", "變更前簡稱": "", "變更前分區": ""}}, {"type": "Feature", "geometry": {"type": "Polygon", "coordinates": [[[302075.227, 2769761.49], [302007.244, 2769769.935], [302005.102, 2769769.578], [302003.122, 2769768.526], [302002.248, 2769767.066], [302001.126, 2769757.321], [302001.578, 2769756.033], [302002.567, 2769754.6], [302003.678, 2769754.035], [302074.283, 2769746.197], [302075.701, 2769746.489], [302076.761, 2769747.314], [302077.576, 2769749.365], [302077.463, 2769750.932], [302077.301, 2769752.587], [302077.465, 2769753.853], [302077.803, 2769755.154], [302078.306, 2769757.396], [302078.394, 2769758.323], [302078.096, 2769759.433], [302077.38, 2769760.428], [302076.694, 2769761.104], [302075.874, 2769761.285], [302075.227, 2769761.49]]]}, "properties": {"編號": "2671", "圖層": "32", "顏色": "19", "街廓編號": "", "分區代碼": "PEB", "分區簡稱": "綠", "使用分區": "綠地用地", "分區說明": "", "原屬分區": "", "變更前代碼": "", "變更前簡稱": "", "變更前分區": ""}}, {"type": "Feature", "geometry": {"type": "Polygon", "coordinates": [[[302131.135, 2769762.114], [302128.832, 2769763.212], [302127.537, 2769763.7935], [302126.242, 2769764.375], [302121.365, 2769765.628], [302119.698, 2769765.6955], [302118.031, 2769765.763], [302114.675, 2769765.011], [302111.322, 2769764.296], [302108.857, 2769762.936], [302106.16, 2769761.409], [302103.976, 2769759.234], [302102.337, 2769756.685], [302099.807, 2769751.439], [302098.997, 2769745.642], [302099.021, 2769743.546], [302099.261, 2769741.756], [302099.935, 2769739.581], [302100.799, 2769737.761], [302101.674, 2769736.246], [302102.918, 2769734.421], [302103.944, 2769733.009], [302105.152, 2769731.665], [302106.915, 2769730.02], [302108.737, 2769728.601], [302110.964, 2769727.419], [302113.33, 2769726.526], [302115.75, 2769725.861], [302117.852, 2769725.627], [302120.007, 2769725.553], [302122.057, 2769725.799], [302124.705, 2769726.476], [302127.229, 2769727.21], [302130.058, 2769728.52], [302131.78, 2769729.761], [302133.31, 2769731.176], [302135.054, 2769732.829], [302135.64, 2769733.76], [302136.864, 2769735.726], [302138.127, 2769739.101], [302138.922, 2769741.993], [302139.063, 2769744.2665], [302139.204, 2769746.54], [302139.0865, 2769747.887], [302138.969, 2769749.234], [302137.997, 2769752.075], [302136.523, 2769755.676], [302134.956, 2769758.246], [302133.039, 2769760.532], [302131.135, 2769762.114]]]}, "properties": {"編號": "2672", "圖層": "32", "顏色": "19", "街廓編號": "", "分區代碼": "PEB", "分區簡稱": "綠", "使用分區": "綠地用地", "分區說明": "", "原屬分區": "", "變更前代碼": "", "變更前簡稱": "", "變更前分區": ""}}, {"type": "Feature", "geometry": {"type": "Polygon", "coordinates": [[[301216.9402921159, 2769445.2701028497], [301196.689, 2769422.425], [301194.634, 2769420.157], [301189.188816076, 2769414.0564646507], [301262.73424726794, 2769346.339482334], [301393.1228872831, 2769271.8390065096], [301736.1738255696, 2769369.8001782424], [301761.45700110676, 2769377.0378627353], [301745.298, 2769426.66], [301740.245, 2769424.133], [301735.048, 2769439.979], [301735.989, 2769444.774], [301748.398, 2769453.063], [301723.801, 2769517.828], [301750.194, 2769520.703], [301749.533, 2769524.731], [301759.03, 2769525.346], [301756.77262851025, 2769549.9891552664], [301696.1663571892, 2769546.747379352], [301624.1813685837, 2769542.191027625], [301547.7377288122, 2769537.8231052165], [301547.69061244704, 2769545.8334619035], [301547.656, 2769551.718], [301547.391, 2769595.05], [301547.38052403356, 2769596.868709751], [301547.378, 2769597.188], [301546.954, 2769597.133], [301545.223, 2769596.908], [301543.445, 2769596.852], [301539.708614367, 2769597.1524030487], [301539.639, 2769597.158], [301539.2398888478, 2769593.0608914774], [301509.4547307084, 2769595.9544952395], [301480.50509733555, 2769598.766928454], [301477.42442640255, 2769596.2155628195], [301473.22160419676, 2769549.93661743], [301472.4980415535, 2769541.969181642], [301277.1311949861, 2769561.014943674], [301274.1022066679, 2769558.4024296035], [301268.2880665121, 2769442.6782132634], [301265.24626308033, 2769440.080631334], [301216.9402921159, 2769445.2701028497]]]}, "properties": {"編號": "2691", "圖層": "32", "顏色": "19", "街廓編號": "", "分區代碼": "PEA", "分區簡稱": "公", "使用分區": "公園用地", "分區說明": "", "原屬分區": "", "變更前代碼": "", "變更前簡稱": "", "變更前分區": ""}}, {"type": "Feature", "geometry": {"type": "Polygon", "coordinates": [[[303677.5528954363, 2770540.5502949506], [303676.48888268374, 2770538.595029827], [303659.8572056057, 2770508.0321084145], [303662.3907143452, 2770503.7215013267], [303699.41753748467, 2770503.361429521], [303701.5758316052, 2770505.4451201144], [303702.3386198547, 2770535.4154669936], [303677.5528954363, 2770540.5502949506]]]}, "properties": {"編號": "2706", "圖層": "32", "顏色": "19", "街廓編號": "", "分區代碼": "PEA", "分區簡稱": "公", "使用分區": "公園用地", "分區說明": "", "原屬分區": "", "變更前代碼": "", "變更前簡稱": "", "變更前分區": ""}}, {"type": "Feature", "geometry": {"type": "Polygon", "coordinates": [[[303334.9629424675, 2770533.867219946], [303332.417, 2770533.454], [303297.902, 2770513.907], [303280.11, 2770506.58], [303280.58500000025, 2770502.468], [303323.10199999955, 2770491.513], [303334.9629424675, 2770533.867219946]]]}, "properties": {"編號": "2708", "圖層": "32", "顏色": "19", "街廓編號": "", "分區代碼": "PEA", "分區簡稱": "公", "使用分區": "公園用地", "分區說明": "", "原屬分區": "", "變更前代碼": "", "變更前簡稱": "", "變更前分區": ""}}, {"type": "Feature", "geometry": {"type": "Polygon", "coordinates": [[[303595.471, 2770213.433], [303589.6564694562, 2770236.0183155625], [303587.0625117619, 2770237.525426534], [303532.0684368317, 2770222.5333783207], [303530.68741822627, 2770218.7793421443], [303549.9990185473, 2770190.529309272], [303592.82049735927, 2770190.1165114427], [303594.9764557514, 2770192.202618681], [303595.471, 2770213.433]]]}, "properties": {"編號": "2709", "圖層": "32", "顏色": "19", "街廓編號": "", "分區代碼": "PEA", "分區簡稱": "公", "使用分區": "公園用地", "分區說明": "", "原屬分區": "", "變更前代碼": "", "變更前簡稱": "", "變更前分區": ""}}, {"type": "Feature", "geometry": {"type": "Polygon", "coordinates": [[[303630.0797829175, 2769770.7253960967], [303699.2435790515, 2769769.6346470444], [303699.245, 2769769.702], [303699.342, 2769774.148], [303699.587, 2769792.591], [303699.8441286998, 2769807.2885916093], [303680.4837315698, 2769807.7093932917], [303644.2567259314, 2769792.132152266], [303628.47072709753, 2769774.3874910395], [303630.0797829175, 2769770.7253960967]]]}, "properties": {"編號": "2710", "圖層": "32", "顏色": "19", "街廓編號": "", "分區代碼": "PEA", "分區簡稱": "公", "使用分區": "公園用地", "分區說明": "", "原屬分區": "", "變更前代碼": "", "變更前簡稱": "", "變更前分區": ""}}, {"type": "Feature", "geometry": {"type": "Polygon", "coordinates": [[[303338.248, 2769746.176], [303335.01045238116, 2769738.739742185], [303368.78470056556, 2769728.952008322], [303372.1440708282, 2769731.1233285284], [303377.4869305725, 2769768.7325551026], [303375.8462754843, 2769771.2441782593], [303360.2173314569, 2769775.610026344], [303348.005, 2769759.6], [303341.1669999998, 2769751.831], [303338.248, 2769746.176]]]}, "properties": {"編號": "2711", "圖層": "32", "顏色": "19", "街廓編號": "", "分區代碼": "PEA", "分區簡稱": "公", "使用分區": "公園用地", "分區說明": "", "原屬分區": "", "變更前代碼": "", "變更前簡稱": "", "變更前分區": ""}}, {"type": "Feature", "geometry": {"type": "Polygon", "coordinates": [[[303620.41285427904, 2771752.3098191274], [303620.6103393986, 2771785.2777280123], [303620.7794522619, 2771817.2768814936], [303617.27323845675, 2771820.841494341], [303590.95347185945, 2771821.137158391], [303588.0942086251, 2771818.339907284], [303587.74670068646, 2771785.8393866043], [303587.3308829267, 2771751.8947440404], [303589.4297164533, 2771749.7511727614], [303617.56353111623, 2771749.5024435716], [303620.41285427904, 2771752.3098191274]]]}, "properties": {"編號": "2967", "圖層": "32", "顏色": "19", "街廓編號": "", "分區代碼": "PEA", "分區簡稱": "公", "使用分區": "公園用地", "分區說明": "", "原屬分區": "", "變更前代碼": "", "變更前簡稱": "", "變更前分區": ""}}, {"type": "Feature", "geometry": {"type": "Polygon", "coordinates": [[[303952.9521991596, 2771750.3980158726], [303953.1265630467, 2771783.404738247], [303953.29989927815, 2771815.6196421455], [303949.77986835263, 2771819.170611349], [303915.24477204535, 2771819.286999343], [303912.40180187294, 2771816.4731904296], [303912.17347213364, 2771783.573103457], [303911.92518202064, 2771749.9100971404], [303914.03302703716, 2771747.7753865304], [303950.1088610413, 2771747.5845787674], [303952.9521991596, 2771750.3980158726]]]}, "properties": {"編號": "2968", "圖層": "32", "顏色": "19", "街廓編號": "", "分區代碼": "PEA", "分區簡稱": "公", "使用分區": "公園用地", "分區說明": "", "原屬分區": "", "變更前代碼": "", "變更前簡稱": "", "變更前分區": ""}}, {"type": "Feature", "geometry": {"type": "Polygon", "coordinates": [[[303931.4352123652, 2771397.320570327], [303933.5221008382, 2771395.165368132], [303979.91955652763, 2771394.2526615257], [303982.0736797595, 2771396.340663705], [303983.10363804555, 2771485.8820914095], [303981.00355920265, 2771488.0244426546], [303934.69433610037, 2771488.4146371344], [303932.5508996489, 2771486.315665915], [303931.4352123652, 2771397.320570327]]]}, "properties": {"編號": "2969", "圖層": "32", "顏色": "19", "街廓編號": "", "分區代碼": "PEA", "分區簡稱": "公", "使用分區": "公園用地", "分區說明": "", "原屬分區": "", "變更前代碼": "", "變更前簡稱": "", "變更前分區": ""}}, {"type": "Feature", "geometry": {"type": "Polygon", "coordinates": [[[303759.19606737135, 2771478.8876375454], [303729.1980160425, 2771479.2295689457], [303696.0304843335, 2771479.607627522], [303693.16957566835, 2771476.8120593135], [303692.92415187095, 2771455.843602036], [303696.4140571785, 2771452.2630209457], [303728.8861879456, 2771451.810206899], [303758.88337074994, 2771451.3919052533], [303758.92362798884, 2771454.9317652606], [303759.19606737135, 2771478.8876375454]]]}, "properties": {"編號": "2970", "圖層": "32", "顏色": "19", "街廓編號": "", "分區代碼": "PEA", "分區簡稱": "公", "使用分區": "公園用地", "分區說明": "", "原屬分區": "", "變更前代碼": "", "變更前簡稱": "", "變更前分區": ""}}, {"type": "Feature", "geometry": {"type": "Polygon", "coordinates": [[[304346.41257063125, 2772060.0425529242], [304345.2664343832, 2772029.90266821], [304344.14119818975, 2772000.3322509364], [304346.19659096695, 2771998.1469911053], [304384.0166685643, 2771997.269594588], [304386.90771728137, 2772000.0339819193], [304387.5630393238, 2772030.3518475154], [304388.18261885666, 2772058.370152721], [304385.41831467464, 2772061.2612809427], [304348.5973293738, 2772062.0984783205], [304346.41257063125, 2772060.0425529242]]]}, "properties": {"編號": "2974", "圖層": "32", "顏色": "19", "街廓編號": "", "分區代碼": "PEA", "分區簡稱": "公", "使用分區": "公園用地", "分區說明": "", "原屬分區": "", "變更前代碼": "", "變更前簡稱": "", "變更前分區": ""}}, {"type": "Feature", "geometry": {"type": "Polygon", "coordinates": [[[304480.32098102284, 2771778.681813059], [304489.27086324146, 2771791.210602027], [304486.58769632387, 2771796.577222499], [304439.1675810964, 2771797.6801694976], [304436.27965298627, 2771794.9125222596], [304435.34154399467, 2771746.2464353107], [304438.11075899174, 2771743.3600104805], [304463.54227591417, 2771742.796130749], [304465.989761195, 2771744.531012819], [304473.89835400676, 2771768.7724581826], [304480.32098102284, 2771778.681813059]]]}, "properties": {"編號": "2975", "圖層": "32", "顏色": "19", "街廓編號": "", "分區代碼": "PEA", "分區簡稱": "公", "使用分區": "公園用地", "分區說明": "", "原屬分區": "", "變更前代碼": "", "變更前簡稱": "", "變更前分區": ""}}, {"type": "Feature", "geometry": {"type": "Polygon", "coordinates": [[[304691.0457392426, 2772089.290801239], [304636.8235470209, 2772090.614529711], [304633.92578334, 2772087.8571821363], [304633.21166748024, 2772059.5718501797], [304632.7185582161, 2772039.6807972793], [304632.44251662825, 2772028.5586102167], [304634.510828887, 2772026.38557446], [304690.6280681384, 2772025.007156908], [304693.5148375485, 2772027.776012696], [304694.5070796857, 2772085.6825991473], [304691.0457392426, 2772089.290801239]]]}, "properties": {"編號": "2976", "圖層": "32", "顏色": "19", "街廓編號": "", "分區代碼": "PEA", "分區簡稱": "公", "使用分區": "公園用地", "分區說明": "", "原屬分區": "", "變更前代碼": "", "變更前簡稱": "", "變更前分區": ""}}, {"type": "Feature", "geometry": {"type": "Polygon", "coordinates": [[[304653.868383178, 2771738.7647669595], [304664.04894649744, 2771738.555921863], [304685.4159827056, 2771738.136789322], [304688.2975143583, 2771740.9110956015], [304689.1639740777, 2771788.2563588633], [304685.69428510714, 2771791.856533644], [304547.19329379394, 2771794.4343656627], [304543.6094482648, 2771790.947812748], [304543.41289036296, 2771768.8859261367], [304543.15858940914, 2771743.717636069], [304545.9451294324, 2771740.847933175], [304653.868383178, 2771738.7647669595]]]}, "properties": {"編號": "2979", "圖層": "32", "顏色": "19", "街廓編號": "", "分區代碼": "PEA", "分區簡稱": "公", "使用分區": "公園用地", "分區說明": "", "原屬分區": "", "變更前代碼": "", "變更前簡稱": "", "變更前分區": ""}}, {"type": "Feature", "geometry": {"type": "Polygon", "coordinates": [[[304686.10322286485, 2771370.9824909163], [304656.9439702861, 2771371.619430903], [304656.93985514186, 2771371.6195222046], [304626.8931570416, 2771372.296470071], [304624.72702860093, 2771370.220924943], [304624.13469300175, 2771340.8702372164], [304626.9213107886, 2771338.0006098347], [304693.80174205184, 2771337.387245785], [304696.66309290694, 2771340.182361397], [304696.87611849, 2771353.6211759956], [304696.9280953908, 2771357.877166929], [304697.02203663613, 2771361.982599231], [304697.092498569, 2771367.9186575594], [304694.3134608834, 2771370.7956263707], [304686.10322286485, 2771370.9824909163]]]}, "properties": {"編號": "2980", "圖層": "32", "顏色": "19", "街廓編號": "", "分區代碼": "PEA", "分區簡稱": "公", "使用分區": "公園用地", "分區說明": "", "原屬分區": "", "變更前代碼": "", "變更前簡稱": "", "變更前分區": ""}}, {"type": "Feature", "geometry": {"type": "Polygon", "coordinates": [[[304315.3122034278, 2771094.070009913], [304317.20498334477, 2771096.3975373963], [304316.4284316058, 2771121.424676018], [304313.58131016395, 2771124.2342844415], [304291.3699026251, 2771124.5955317263], [304288.77512988064, 2771121.5513316006], [304293.80126970174, 2771093.17841273], [304297.0772834971, 2771090.8832583535], [304315.3122034278, 2771094.070009913]]]}, "properties": {"編號": "2982", "圖層": "32", "顏色": "19", "街廓編號": "", "分區代碼": "PEA", "分區簡稱": "公", "使用分區": "公園用地", "分區說明": "", "原屬分區": "", "變更前代碼": "", "變更前簡稱": "", "變更前分區": ""}}, {"type": "Feature", "geometry": {"type": "Polygon", "coordinates": [[[304619.7761287434, 2771143.085780156], [304617.37797901226, 2771150.940021921], [304611.11745383526, 2771171.65924101], [304608.70151138306, 2771173.43778594], [304572.038, 2771173.138], [304572.333, 2771134.208], [304618.16130059457, 2771140.557474389], [304619.7761287434, 2771143.085780156]]]}, "properties": {"編號": "2983", "圖層": "32", "顏色": "19", "街廓編號": "", "分區代碼": "PEA", "分區簡稱": "公", "使用分區": "公園用地", "分區說明": "", "原屬分區": "", "變更前代碼": "", "變更前簡稱": "", "變更前分區": ""}}, {"type": "Feature", "geometry": {"type": "Polygon", "coordinates": [[[303864.4215085342, 2770908.3215453657], [303864.702, 2770932.992], [303846.4288614597, 2770933.2008927106], [303838.3226433747, 2770933.3786991634], [303822.2237872238, 2770933.615285566], [303792.62360651063, 2770933.9054175727], [303792.50843203854, 2770930.0281841485], [303864.4215085342, 2770908.3215453657]]]}, "properties": {"編號": "2985", "圖層": "32", "顏色": "19", "街廓編號": "", "分區代碼": "PEA", "分區簡稱": "公", "使用分區": "公園用地", "分區說明": "", "原屬分區": "", "變更前代碼": "", "變更前簡稱": "", "變更前分區": ""}}, {"type": "Feature", "geometry": {"type": "Polygon", "coordinates": [[[303389.00198676874, 2771532.4259933643], [303354.4165724385, 2771532.83618938], [303353.981, 2771487.078], [303388.61, 2771486.773], [303389.00198676874, 2771532.4259933643]]]}, "properties": {"編號": "2986", "圖層": "32", "顏色": "19", "街廓編號": "", "分區代碼": "PEA", "分區簡稱": "公", "使用分區": "公園用地", "分區說明": "", "原屬分區": "", "變更前代碼": "", "變更前簡稱": "", "變更前分區": ""}}, {"type": "Feature", "geometry": {"type": "Polygon", "coordinates": [[[302866.0703118978, 2772979.4049319504], [302865.8533897271, 2772942.0305055934], [302898.31219993543, 2772941.5229499927], [302901.14360429026, 2772944.34839675], [302900.7160791326, 2772975.9463924826], [302897.8961510327, 2772978.7832931704], [302866.0703118978, 2772979.4049319504]]]}, "properties": {"編號": "2991", "圖層": "32", "顏色": "19", "街廓編號": "", "分區代碼": "PEA", "分區簡稱": "公", "使用分區": "公園用地", "分區說明": "", "原屬分區": "", "變更前代碼": "", "變更前簡稱": "", "變更前分區": ""}}, {"type": "Feature", "geometry": {"type": "Polygon", "coordinates": [[[302902.962, 2772141.325], [302905.8186543221, 2772155.151906025], [302839.41156415915, 2772157.070254294], [302837.24457852053, 2772154.995604145], [302836.7918389144, 2772124.0964775286], [302839.55179640936, 2772121.201199541], [302910.68338379025, 2772118.8390155663], [302901.598, 2772135.042], [302902.962, 2772141.325]]]}, "properties": {"編號": "2992", "圖層": "32", "顏色": "19", "街廓編號": "", "分區代碼": "PEA", "分區簡稱": "公", "使用分區": "公園用地", "分區說明": "", "原屬分區": "", "變更前代碼": "", "變更前簡稱": "", "變更前分區": ""}}, {"type": "Feature", "geometry": {"type": "Polygon", "coordinates": [[[302908.7074664028, 2772976.6370695857], [302909.1470878725, 2772944.1450464334], [302911.9725535479, 2772941.313660957], [302941.56253833603, 2772940.851360441], [302942.4520951202, 2772978.9856260046], [302911.538586705, 2772979.462800966], [302908.7074664028, 2772976.6370695857]]]}, "properties": {"編號": "2993", "圖層": "32", "顏色": "19", "街廓編號": "", "分區代碼": "PEA", "分區簡稱": "公", "使用分區": "公園用地", "分區說明": "", "原屬分區": "", "變更前代碼": "", "變更前簡稱": "", "變更前分區": ""}}, {"type": "Feature", "geometry": {"type": "Polygon", "coordinates": [[[302909.52893091604, 2772710.812749958], [302906.645710912, 2772708.0401983517], [302905.78123285604, 2772685.768065781], [302907.8594967747, 2772683.604545713], [302961.7054300966, 2772683.520820258], [302964.0289047513, 2772685.4185730154], [302968.5468521247, 2772707.705158094], [302966.0160183737, 2772710.802718509], [302909.52893091604, 2772710.812749958]]]}, "properties": {"編號": "2994", "圖層": "32", "顏色": "19", "街廓編號": "", "分區代碼": "PEA", "分區簡稱": "公", "使用分區": "公園用地", "分區說明": "", "原屬分區": "", "變更前代碼": "", "變更前簡稱": "", "變更前分區": ""}}, {"type": "Feature", "geometry": {"type": "Polygon", "coordinates": [[[302923.2198721705, 2771676.9126751767], [302996.8104494288, 2771674.332543578], [303000.4441290119, 2771677.7671283693], [303002.9590769053, 2771795.9680171306], [303003.9687730348, 2771843.4099926385], [303003.96884932497, 2771843.4141420587], [303001.2301275795, 2771846.3295156546], [302930.66568107606, 2771849.4421851793], [302927.7449408908, 2771846.7091874164], [302927.3779461138, 2771830.259709918], [302927.0602429385, 2771816.4607349937], [302925.9490572171, 2771784.4070340265], [302925.31353094697, 2771745.723000345], [302925.0661260455, 2771739.142029968], [302924.6112128181, 2771725.1195292566], [302923.20332997653, 2771676.9132551565], [302923.2198721705, 2771676.9126751767]]]}, "properties": {"編號": "2995", "圖層": "32", "顏色": "19", "街廓編號": "", "分區代碼": "PEA", "分區簡稱": "公", "使用分區": "公園用地", "分區說明": "", "原屬分區": "", "變更前代碼": "", "變更前簡稱": "", "變更前分區": ""}}, {"type": "Feature", "geometry": {"type": "Polygon", "coordinates": [[[302829.7697774966, 2771201.956544237], [302880.59224134637, 2771199.312659926], [302887.0265355482, 2771204.066590734], [302890.1542009039, 2771216.513835324], [302839.68562416127, 2771233.0981894727], [302837.05802249146, 2771231.65053293], [302833.61073648336, 2771217.931018073], [302829.7697774966, 2771201.956544237]]]}, "properties": {"編號": "2997", "圖層": "32", "顏色": "19", "街廓編號": "", "分區代碼": "PEA", "分區簡稱": "公", "使用分區": "公園用地", "分區說明": "", "原屬分區": "", "變更前代碼": "", "變更前簡稱": "", "變更前分區": ""}}, {"type": "Feature", "geometry": {"type": "Polygon", "coordinates": [[[302824.6916095371, 2771202.2241084813], [302828.7347999873, 2771219.0396590456], [302728.0430837319, 2771240.0961604984], [302725.04240244743, 2771228.669085773], [302719.6135378685, 2771207.924281891], [302824.6916095371, 2771202.2241084813]]]}, "properties": {"編號": "2998", "圖層": "32", "顏色": "19", "街廓編號": "", "分區代碼": "PEA", "分區簡稱": "公", "使用分區": "公園用地", "分區說明": "", "原屬分區": "", "變更前代碼": "", "變更前簡稱": "", "變更前分區": ""}}, {"type": "Feature", "geometry": {"type": "Polygon", "coordinates": [[[302626.1745457716, 2771215.8418401154], [302707.4259771311, 2771208.751758441], [302712.28222490766, 2771227.308476197], [302710.1663134866, 2771230.703018708], [302634.4634805052, 2771246.0524897063], [302631.96295345284, 2771244.394972147], [302626.1745457716, 2771215.8418401154]]]}, "properties": {"編號": "2999", "圖層": "32", "顏色": "19", "街廓編號": "", "分區代碼": "PEA", "分區簡稱": "公", "使用分區": "公園用地", "分區說明": "", "原屬分區": "", "變更前代碼": "", "變更前簡稱": "", "變更前分區": ""}}, {"type": "Feature", "geometry": {"type": "Polygon", "coordinates": [[[302941.8325648782, 2772377.27795829], [302994.7386070607, 2772410.779169608], [302988.654, 2772420.388], [302989.112510555, 2772448.5201698295], [302911.5515862808, 2772449.9912111005], [302910.862, 2772427.845], [302941.8325648782, 2772377.27795829]]]}, "properties": {"編號": "3000", "圖層": "32", "顏色": "19", "街廓編號": "", "分區代碼": "PEA", "分區簡稱": "公", "使用分區": "公園用地", "分區說明": "", "原屬分區": "", "變更前代碼": "", "變更前簡稱": "", "變更前分區": ""}}, {"type": "Feature", "geometry": {"type": "Polygon", "coordinates": [[[303216.460297715, 2771671.40854094], [303210.0987158122, 2771747.984208063], [303202.6621214893, 2771837.4991095634], [303026.87217935966, 2771845.2021875125], [303023.9532369356, 2771842.4672697573], [303022.95444436005, 2771795.543585427], [303020.4320033016, 2771676.984483124], [303023.9112682364, 2771673.393561862], [303200.0, 2771671.5782329678], [303216.460297715, 2771671.40854094]]]}, "properties": {"編號": "3004", "圖層": "32", "顏色": "19", "街廓編號": "", "分區代碼": "PEA", "分區簡稱": "公", "使用分區": "公園用地", "分區說明": "", "原屬分區": "", "變更前代碼": "", "變更前簡稱": "", "變更前分區": ""}}, {"type": "Feature", "geometry": {"type": "Polygon", "coordinates": [[[304216.5359118161, 2772899.4517702814], [304216.52732345316, 2772898.9035405624], [304215.30810454226, 2772821.075897911], [304220.91281154205, 2772815.367372756], [304404.41790205, 2772814.874010593], [304406.9287218215, 2772814.8665802707], [304560.65512668656, 2772814.37002935], [304564.2230327854, 2772817.872891904], [304564.83669923566, 2772858.329708907], [304565.5763380358, 2772907.849120133], [304566.85687600565, 2772997.82042], [304563.35447717406, 2773001.3887813077], [304442.53097065614, 2773001.9234891096], [304308.8034032729, 2773002.471908615], [304258.26965737797, 2773002.6759862457], [304218.26442914846, 2773002.838371466], [304215.162347065, 2772999.327180364], [304216.67590054823, 2772983.0270234374], [304217.3914305413, 2772966.6723917746], [304217.30841785815, 2772950.342606205], [304217.2229458527, 2772943.307913767], [304216.5359118161, 2772899.4517702814]]]}, "properties": {"編號": "3010", "圖層": "32", "顏色": "19", "街廓編號": "", "分區代碼": "PEA", "分區簡稱": "公", "使用分區": "公園用地", "分區說明": "", "原屬分區": "", "變更前代碼": "", "變更前簡稱": "", "變更前分區": ""}}, {"type": "Feature", "geometry": {"type": "Polygon", "coordinates": [[[302663.6071392324, 2772681.1535561145], [302666.85683794686, 2772683.4858207363], [302676.0426277349, 2772714.0191281172], [302673.10384957073, 2772718.064320684], [302621.174, 2772719.207], [302620.4516807773, 2772682.602795276], [302663.6071392324, 2772681.1535561145]]]}, "properties": {"編號": "3011", "圖層": "32", "顏色": "19", "街廓編號": "", "分區代碼": "PEA", "分區簡稱": "公", "使用分區": "公園用地", "分區說明": "", "原屬分區": "", "變更前代碼": "", "變更前簡稱": "", "變更前分區": ""}}, {"type": "Feature", "geometry": {"type": "Polygon", "coordinates": [[[302592.7544964857, 2772423.6271374607], [302596.367, 2772423.674], [302596.272, 2772444.449], [302596.13111881615, 2772465.132738882], [302596.13, 2772465.297], [302586.54567740415, 2772465.103231031], [302558.4696979692, 2772464.53561099], [302555.7456343694, 2772461.6065364764], [302557.6119143641, 2772425.943778692], [302560.5311045759, 2772423.2091254215], [302592.7544964857, 2772423.6271374607]]]}, "properties": {"編號": "3012", "圖層": "32", "顏色": "19", "街廓編號": "", "分區代碼": "PEA", "分區簡稱": "公", "使用分區": "公園用地", "分區說明": "", "原屬分區": "", "變更前代碼": "", "變更前簡稱": "", "變更前分區": ""}}, {"type": "Feature", "geometry": {"type": "Polygon", "coordinates": [[[303367.6984446108, 2771204.924767549], [303333.59079837607, 2771213.519634731], [303330.10345351126, 2771209.936559824], [303331.152, 2771206.205], [303339.2476548562, 2771177.4295331948], [303344.0729208343, 2771176.119262901], [303368.98238219187, 2771200.0924281273], [303367.6984446108, 2771204.924767549]]]}, "properties": {"編號": "3054", "圖層": "32", "顏色": "19", "街廓編號": "", "分區代碼": "PEA", "分區簡稱": "公", "使用分區": "公園用地", "分區說明": "", "原屬分區": "", "變更前代碼": "", "變更前簡稱": "", "變更前分區": ""}}, {"type": "Feature", "geometry": {"type": "Polygon", "coordinates": [[[303084.22469199204, 2771157.322127991], [303242.86483822344, 2771104.205047218], [303247.25975377916, 2771106.589311729], [303251.2837744739, 2771122.1178293275], [303253.596453829, 2771131.006027546], [303251.615249537, 2771134.480913091], [303199.24724159716, 2771149.5328331976], [303113.10984741664, 2771174.2909484347], [303092.3943064444, 2771178.0087295193], [303089.026325218, 2771175.8507901183], [303084.22469199204, 2771157.322127991]]]}, "properties": {"編號": "3055", "圖層": "32", "顏色": "19", "街廓編號": "", "分區代碼": "PEA", "分區簡稱": "公", "使用分區": "公園用地", "分區說明": "", "原屬分區": "", "變更前代碼": "", "變更前簡稱": "", "變更前分區": ""}}, {"type": "Feature", "geometry": {"type": "Polygon", "coordinates": [[[302989.47945224855, 2771182.5584509377], [303076.0731844587, 2771159.7503758287], [303081.4678827615, 2771180.5675722766], [303079.4350875151, 2771184.012531418], [302999.1007153625, 2771204.614618337], [302996.4631580374, 2771203.1851809095], [302989.47945224855, 2771182.5584509377]]]}, "properties": {"編號": "3056", "圖層": "32", "顏色": "19", "街廓編號": "", "分區代碼": "PEA", "分區簡稱": "公", "使用分區": "公園用地", "分區說明": "", "原屬分區": "", "變更前代碼": "", "變更前簡稱": "", "變更前分區": ""}}, {"type": "Feature", "geometry": {"type": "Polygon", "coordinates": [[[302912.33306095767, 2771202.1936280904], [302916.69163870905, 2771195.4852154627], [302984.12956206227, 2771183.7517228755], [302989.675431186, 2771200.131729183], [302988.2914811723, 2771202.793435846], [302917.6886331787, 2771223.507326896], [302912.33306095767, 2771202.1936280904]]]}, "properties": {"編號": "3057", "圖層": "32", "顏色": "19", "街廓編號": "", "分區代碼": "PEA", "分區簡稱": "公", "使用分區": "公園用地", "分區說明": "", "原屬分區": "", "變更前代碼": "", "變更前簡稱": "", "變更前分區": ""}}, {"type": "Feature", "geometry": {"type": "Polygon", "coordinates": [[[303172.6378668878, 2769523.0912251193], [303169.72754617286, 2769527.156939489], [303150.5399837651, 2769530.466093461], [302981.66633269214, 2769560.2055990663], [302915.0357321136, 2769571.8243817836], [302911.76852319407, 2769569.5167106898], [302909.445151725, 2769555.8387044515], [303044.4, 2769532.932], [303095.143, 2769523.912], [303095.298, 2769524.278], [303100.201, 2769523.428], [303170.77574443986, 2769511.3648712127], [303172.6378668878, 2769523.0912251193]]]}, "properties": {"編號": "3355", "圖層": "32", "顏色": "19", "街廓編號": "", "分區代碼": "PEA", "分區簡稱": "公", "使用分區": "公園用地", "分區說明": "", "原屬分區": "", "變更前代碼": "", "變更前簡稱": "", "變更前分區": ""}}, {"type": "Feature", "geometry": {"type": "Polygon", "coordinates": [[[304080.3112314508, 2769790.6789925154], [304080.9136065705, 2769802.3122573104], [304082.2201130009, 2769817.858987293], [304083.0303266203, 2769827.1629570085], [304083.5877423699, 2769833.981023099], [304079.261953244, 2769836.488521541], [304036.092, 2769806.846], [304029.419, 2769802.892], [304025.927, 2769801.087], [304011.532, 2769793.854], [303955.53159104445, 2769765.7500112127], [303956.4475258789, 2769761.8562901933], [304032.634, 2769761.623], [304033.089, 2769794.21], [304077.52886194584, 2769793.552739188], [304080.3112314508, 2769790.6789925154]]]}, "properties": {"編號": "3374", "圖層": "32", "顏色": "19", "街廓編號": "", "分區代碼": "PEA", "分區簡稱": "公", "使用分區": "公園用地", "分區說明": "", "原屬分區": "", "變更前代碼": "", "變更前簡稱": "", "變更前分區": ""}}, {"type": "Feature", "geometry": {"type": "Polygon", "coordinates": [[[304220.8672840178, 2768753.310894712], [304226.9512129259, 2768758.50568143], [304228.71194005583, 2768893.2959367447], [304229.48804104305, 2768957.0868182145], [304230.12826201797, 2769009.732978796], [304231.0289235306, 2769073.445313299], [304232.3990509849, 2769202.467061977], [304232.95941937325, 2769253.5029862802], [304233.51971710136, 2769306.3357041255], [304233.839024467, 2769339.638465512], [304234.66749887774, 2769391.5083592613], [304234.8527898302, 2769436.9900669996], [304235.40835725237, 2769482.496631837], [304236.508337327, 2769570.474446492], [304230.95076484396, 2769576.2288698424], [304030.7976581659, 2769580.6926492034], [304000.0, 2769581.2048705164], [303790.2175706458, 2769584.7324106307], [303785.1281855416, 2769578.5600399952], [303786.526260921, 2769571.9538475983], [303789.14573115995, 2769562.250703987], [303793.15776020335, 2769550.024355686], [303797.00173521996, 2769538.2197161918], [303803.6111756008, 2769518.1155037023], [303804.7709498112, 2769514.265548396], [303812.265305382, 2769491.5584710557], [303816.45851892827, 2769478.852462301], [303819.1845330031, 2769470.5460062088], [303820.888306273, 2769465.3113934044], [303822.0599740689, 2769461.8242868697], [303829.3244583294, 2769439.5749242464], [303832.2432859921, 2769430.3680257564], [303869.9302411313, 2769314.542254], [303877.6018312347, 2769290.9646568974], [303882.30549512553, 2769276.7327582194], [303923.527154912, 2769150.1504232064], [303946.82281633304, 2769079.3915831293], [303949.21147595503, 2769071.556284713], [303962.6110416193, 2769030.4858995993], [303964.9436780799, 2769023.266643507], [303969.67961020186, 2769008.711245343], [303972.28761020186, 2769000.6922453432], [303981.8979395652, 2768971.1573523944], [303986.12399433757, 2768958.7999154474], [303993.38378129934, 2768935.6829467556], [303998.41394398117, 2768917.853859332], [304005.07225543377, 2768885.1765087526], [304007.08985813806, 2768864.74604158], [304007.55816864583, 2768855.3473098627], [304007.62997032667, 2768843.048707677], [304007.3405026228, 2768822.8932991205], [304006.94629899, 2768816.410228924], [304006.3736772561, 2768810.030268438], [304004.3179583299, 2768790.489831263], [304009.22809861234, 2768784.173936837], [304066.67120545387, 2768775.8250782425], [304077.82204516913, 2768774.2003730843], [304087.09104516055, 2768772.850373025], [304101.7105834508, 2768770.698637993], [304107.1963246436, 2768769.9028351963], [304118.6392927155, 2768768.2452716785], [304125.90327595663, 2768767.0593152307], [304132.40324384806, 2768766.208085227], [304169.4102438479, 2768760.751085227], [304181.43436804746, 2768759.027668461], [304186.2433680477, 2768758.3156684614], [304202.30469807336, 2768756.009425377], [304213.0931937118, 2768754.440387969], [304220.8672840178, 2768753.310894712]]]}, "properties": {"編號": "3376", "圖層": "32", "顏色": "19", "街廓編號": "", "分區代碼": "PEA", "分區簡稱": "公", "使用分區": "公園用地", "分區說明": "", "原屬分區": "", "變更前代碼": "", "變更前簡稱": "", "變更前分區": ""}}, {"type": "Feature", "geometry": {"type": "Polygon", "coordinates": [[[305052.571, 2771397.025], [305105.1, 2771395.921], [305108.096, 2771398.248], [305108.663, 2771435.876], [305106.159, 2771439.507], [305083.646, 2771439.987], [305053.533, 2771440.623], [305053.493, 2771438.623], [305052.571, 2771397.025]]]}, "properties": {"編號": "3542", "圖層": "32", "顏色": "19", "街廓編號": "", "分區代碼": "PEA", "分區簡稱": "公", "使用分區": "公園用地", "分區說明": "", "原屬分區": "", "變更前代碼": "", "變更前簡稱": "", "變更前分區": ""}}, {"type": "Feature", "geometry": {"type": "Polygon", "coordinates": [[[304993.243, 2771300.615], [304995.049, 2771297.954], [304996.637, 2771298.184], [304994.489, 2771301.342], [304989.817, 2771302.919], [304990.7609889572, 2771341.193552264], [304990.761, 2771341.194], [304990.77741038945, 2771341.85886941], [304979.3991082573, 2771342.15291678], [304960.2565823035, 2771342.6476135585], [304960.165, 2771339.036], [304960.081, 2771334.594], [304959.839, 2771324.499], [304959.548, 2771310.902], [304959.522, 2771309.688], [304959.444, 2771306.387], [304967.499, 2771306.24], [304970.86, 2771304.747], [304977.314, 2771302.292], [304981.674, 2771301.194], [304989.147, 2771301.703], [304993.243, 2771300.615]]]}, "properties": {"編號": "3543", "圖層": "32", "顏色": "19", "街廓編號": "", "分區代碼": "PEA", "分區簡稱": "公", "使用分區": "公園用地", "分區說明": "", "原屬分區": "", "變更前代碼": "", "變更前簡稱": "", "變更前分區": ""}}, {"type": "Feature", "geometry": {"type": "Polygon", "coordinates": [[[301869.18713888, 2770414.5788290366], [301873.18702895474, 2770526.365230602], [301874.94099999976, 2770577.787], [301878.289294796, 2770672.572513114], [301881.9257103703, 2770676.0042010034], [302117.0555673039, 2770670.6885271883], [302120.0682015741, 2770666.6980341417], [302020.94904113625, 2770286.2483425704], [302016.7811841745, 2770283.486283855], [301859.7802777329, 2770306.4798142635], [301869.18713888, 2770414.5788290366]], [[301987.77941894176, 2770625.868653174], [301987.76786753343, 2770632.7917972472], [301951.82401570084, 2770633.3783968603], [301951.6881679211, 2770626.5186105357], [301951.5967945831, 2770621.904611125], [301937.3250670483, 2770622.276059128], [301937.3535, 2770624.35655], [301924.90382681513, 2770624.6123505416], [301924.7515, 2770618.7445500097], [301924.5995, 2770613.706550001], [301924.7872643049, 2770603.333530133], [301937.0625, 2770603.06355], [301937.098432229, 2770605.6927766344], [301957.37476380396, 2770605.37903806], [301957.35925, 2770599.8944600048], [301957.4455, 2770596.2425499996], [301957.3925, 2770591.9745500004], [301962.9325, 2770591.8835500004], [301975.2018687394, 2770591.6820134385], [301980.7418687396, 2770591.5910134385], [301980.88925, 2770599.3164600004], [301980.991544606, 2770604.6785495174], [302001.3282067144, 2770604.372746652], [302001.2915, 2770601.67455], [302014.43379526236, 2770601.447863839], [302014.2385, 2770608.71055], [302014.1535, 2770611.8715500007], [302014.2605, 2770616.8125500004], [302014.15644686983, 2770622.595247363], [302001.5815, 2770622.9915500013], [302001.5533153739, 2770620.9197856113], [301987.7299162743, 2770621.237104718], [301987.77941894176, 2770625.868653174]]]}, "properties": {"編號": "3635", "圖層": "32", "顏色": "19", "街廓編號": "", "分區代碼": "PEA", "分區簡稱": "公", "使用分區": "公園用地", "分區說明": "", "原屬分區": "", "變更前代碼": "", "變更前簡稱": "", "變更前分區": ""}}, {"type": "Feature", "geometry": {"type": "Polygon", "coordinates": [[[306342.253, 2771350.272], [306334.56, 2771347.195], [306324.274, 2771343.088], [306325.972, 2771308.02], [306345.608, 2771311.306], [306345.60870944144, 2771311.346792887], [306345.664, 2771314.526], [306346.239, 2771347.443], [306342.253, 2771350.272]]]}, "properties": {"編號": "3722", "圖層": "32", "顏色": "19", "街廓編號": "", "分區代碼": "PEA", "分區簡稱": "公", "使用分區": "公園用地", "分區說明": "", "原屬分區": "", "變更前代碼": "", "變更前簡稱": "", "變更前分區": ""}}, {"type": "Feature", "geometry": {"type": "Polygon", "coordinates": [[[305080.202, 2772016.162], [305086.038, 2772017.522], [305092.005, 2772018.935], [305109.649, 2772043.5], [305123.8839149835, 2772063.1155861034], [305042.50689021347, 2772044.6078416086], [305002.07748589513, 2772045.153397091], [305001.911, 2772045.093], [304999.222, 2772044.388], [304991.926, 2772029.012], [304989.43, 2772029.022], [304997.669, 2772013.973], [304994.3, 2772010.936], [304992.295, 2772009.112], [304991.168, 2772008.058], [304986.016, 2772003.331], [304984.685, 2772002.115], [304984.694, 2771994.783], [304976.883, 2771994.988], [304970.394, 2771989.179], [304969.306, 2771988.206], [304969.29, 2771987.145], [304968.693, 2771943.202], [304970.066, 2771941.839], [304985.14, 2771953.695], [304987.0305, 2771955.7035], [304988.921, 2771957.712], [304989.113, 2771957.837], [304994.763, 2771963.694], [305005.89, 2771975.231], [305014.41, 2771984.12], [305021.204, 2771987.761], [305026.671, 2771990.77], [305028.566, 2771991.8045], [305030.461, 2771992.839], [305032.389, 2771993.533], [305039.419, 2771996.0365], [305046.449, 2771998.54], [305053.225, 2772003.6295], [305060.001, 2772008.719], [305072.348, 2772014.385], [305073.13725760987, 2772014.5635728003], [305080.202, 2772016.162]]]}, "properties": {"編號": "3728", "圖層": "32", "顏色": "19", "街廓編號": "", "分區代碼": "PEA", "分區簡稱": "公", "使用分區": "公園用地", "分區說明": "", "原屬分區": "", "變更前代碼": "", "變更前簡稱": "", "變更前分區": ""}}, {"type": "Feature", "geometry": {"type": "Polygon", "coordinates": [[[305072.348, 2772014.385], [305060.001, 2772008.719], [305053.225, 2772003.6295], [305046.449, 2771998.54], [305039.419, 2771996.0365], [305032.389, 2771993.533], [305057.4952223501, 2771992.83271642], [305073.13725760987, 2772014.5635728], [305072.348, 2772014.385]]]}, "properties": {"編號": "3729", "圖層": "32", "顏色": "19", "街廓編號": "", "分區代碼": "PEA", "分區簡稱": "公", "使用分區": "公園用地", "分區說明": "", "原屬分區": "", "變更前代碼": "", "變更前簡稱": "", "變更前分區": ""}}, {"type": "Feature", "geometry": {"type": "Polygon", "coordinates": [[[306399.99999999977, 2770282.722968212], [306284.0177181256, 2770285.119175135], [306283.44307550334, 2770250.0961862095], [306281.51911974384, 2770140.3845813265], [306281.2936478977, 2770127.5736916745], [306280.83676428534, 2770102.7618368855], [306286.3610782697, 2770096.9754774943], [306400.83736584283, 2770093.778947625], [306433.1303089426, 2770092.8772293786], [306549.06972605444, 2770089.5929888245], [306648.31592512154, 2770086.7532598693], [306651.92929712223, 2770090.20920298], [306654.2575815461, 2770236.3896284876], [306655.4556551101, 2770307.3685587994], [306656.22596582887, 2770351.7569193086], [306656.9776887078, 2770397.635475177], [306657.69630876253, 2770439.5680554383], [306654.23423435213, 2770443.1755532944], [306413.14778020524, 2770448.9625049494], [306411.05699999974, 2770292.182], [306410.64699999976, 2770282.503], [306399.99999999977, 2770282.722968212]]]}, "properties": {"編號": "3769", "圖層": "32", "顏色": "19", "街廓編號": "", "分區代碼": "PEA", "分區簡稱": "公", "使用分區": "公園用地", "分區說明": "", "原屬分區": "", "變更前代碼": "", "變更前簡稱": "", "變更前分區": ""}}]}