{"type": "FeatureCollection", "features": [{"type": "Feature", "id": "L0201-5.16", "geometry": {"type": "MultiPolygon", "coordinates": [[[[304216.7842, 2772952.5834], [304216.8037, 2772953.6734], [304216.8137, 2772954.7934], [304216.8237, 2772955.9134], [304216.8337, 2772957.0234], [304216.8337, 2772958.1434], [304216.8237, 2772959.2634], [304216.8237, 2772960.3834], [304216.8137, 2772961.5034], [304216.8037, 2772962.6234], [304216.7837, 2772963.7334], [304216.7637, 2772964.8534], [304216.7337, 2772965.9734], [304216.7137, 2772967.0934], [304216.6737, 2772968.2034], [304216.6437, 2772969.3234], [304216.6037, 2772970.4434], [304216.5637, 2772971.5634], [304216.5137, 2772972.6734], [304216.4637, 2772973.7934], [304216.4037, 2772974.9134], [304216.3437, 2772976.0234], [304216.2837, 2772977.1434], [304216.2237, 2772978.2634], [304216.1537, 2772979.3734], [304216.0837, 2772980.4934], [304216.0037, 2772981.6034], [304215.9237, 2772982.7234], [304215.8337, 2772983.8434], [304215.7537, 2772984.9534], [304215.6537, 2772986.0634], [304215.5637, 2772987.1834], [304215.4637, 2772988.2934], [304215.3637, 2772989.4034], [304215.2537, 2772990.5234], [304215.1437, 2772991.6334], [304215.0337, 2772992.7434], [304214.9237, 2772993.7234], [304214.9137, 2772993.8534], [304214.7937, 2772994.9734], [304214.6637, 2772996.0834], [304214.5337, 2772997.1934], [304214.4037, 2772998.3034], [304214.3137, 2772999.0434], [304215.8737, 2773000.5734], [304292.2507, 2773000.2564], [304430.1837, 2772999.6834], [304562.7037, 2772999.1234], [304566.2037, 2772995.5534], [304566.1737, 2772993.7234], [304564.9437, 2772905.5934], [304564.2137, 2772856.0734], [304563.6137, 2772815.6034], [304560.0437, 2772812.1034], [304430.1837, 2772812.4834], [304220.3037, 2772813.1034], [304214.7037, 2772818.8134], [304216.7842, 2772952.5834]]]]}, "geometry_name": "the_geom", "properties": {"項次": "17", "名稱": "公園用地", "面積": "65344.9", "體積": "0", "圖形": "面"}, "bbox": [304214.3137, 2772812.1034, 304566.2037, 2773000.5734]}, {"type": "Feature", "id": "L0201-5.23", "geometry": {"type": "MultiPolygon", "coordinates": [[[[303872.4656, 2769301.7194], [303834.4876, 2769418.8774], [303812.6766, 2769485.7834], [303803.5596, 2769513.8414], [303794.8756, 2769541.6084], [303786.8106, 2769567.4694], [303784.6136, 2769574.5154], [303790.6066, 2769582.5204], [304030.1836, 2769578.4914], [304230.3467, 2769574.0274], [304235.9037, 2769568.2734], [304234.0387, 2769389.3414], [304231.3017, 2769156.8324], [304230.6037, 2769093.7234], [304230.2827, 2769073.9514], [304229.1437, 2768981.2334], [304227.5687, 2768855.8784], [304226.3837, 2768756.1634], [304220.3037, 2768750.9734], [304008.4936, 2768782.3074], [304003.3606, 2768788.4434], [304004.9086, 2768869.6464], [304005.0806, 2768878.6624], [304003.0976, 2768889.3284], [304000.8146, 2768898.1924], [303997.2716, 2768912.3554], [303990.9176, 2768936.7714], [303982.9886, 2768963.9084], [303972.2696, 2768996.7674], [303961.9666, 2769028.3184], [303948.1046, 2769069.9414], [303923.4966, 2769145.6364], [303872.4656, 2769301.7194]]]]}, "geometry_name": "the_geom", "properties": {"項次": "24", "名稱": "公園用地", "面積": "259975", "體積": "0", "圖形": "面"}, "bbox": [303784.6136, 2768750.9734, 304235.9037, 2769582.5204]}, {"type": "Feature", "id": "L0201-5.24", "geometry": {"type": "MultiPolygon", "coordinates": [[[[304109.4087, 2768772.4047], [303909.013, 2769213.5927], [304019.2169, 2769577.8374], [304227.6555, 2769243.7976], [304227.6555, 2769243.7976], [304109.4087, 2768772.4047]]]]}, "geometry_name": "the_geom", "properties": {"項次": "25", "名稱": "大安森林公園", "面積": "259354", "體積": "0", "圖形": "面"}, "bbox": [303909.013, 2768772.4047, 304227.6555, 2769577.8374]}, {"type": "Feature", "id": "L0201-5.26", "geometry": {"type": "MultiPolygon", "coordinates": [[[[304398.222, 2773006.8095], [304564.8711, 2772910.712], [304564.8711, 2772910.712], [304388.9726, 2772816.8385], [304225.4102, 2772911.0489], [304398.222, 2773006.8095]]]]}, "geometry_name": "the_geom", "properties": {"項次": "27", "名稱": "榮星花園公園", "面積": "65192", "體積": "0", "圖形": "面"}, "bbox": [304225.4102, 2772816.8385, 304564.8711, 2773006.8095]}]}