{"type": "FeatureCollection", "features": [{"type": "Feature", "id": 15, "geometry": {"type": "Point", "coordinates": [302398.22494387603, 2772842.5294255526]}, "properties": {"FID CODE": 15, "NAME": "民權西路站", "LOC": "原台鐵淡水線與民權西路交叉口"}}, {"type": "Feature", "id": 16, "geometry": {"type": "Point", "coordinates": [302536.3809421242, 2772263.769237945]}, "properties": {"FID CODE": 16, "NAME": "雙連站", "LOC": "原台鐵淡水線與民生西路交叉口"}}, {"type": "Feature", "id": 17, "geometry": {"type": "Point", "coordinates": [302506.90928645316, 2771713.0103202793]}, "properties": {"FID CODE": 17, "NAME": "中山站", "LOC": "原台鐵淡水線與南京西路交叉口"}}, {"type": "Feature", "id": 18, "geometry": {"type": "Point", "coordinates": [302090.0533510828, 2770509.7422518255]}, "properties": {"FID CODE": 18, "NAME": "臺大醫院站", "LOC": "公園路與常德街口"}}, {"type": "Feature", "id": 27, "geometry": {"type": "Point", "coordinates": [304859.56312391814, 2769522.963766314]}, "properties": {"FID CODE": 27, "NAME": "大安站", "LOC": "復興南路與信義路交叉口"}}, {"type": "Feature", "id": 28, "geometry": {"type": "Point", "coordinates": [304906.67145243095, 2772623.041927055]}, "properties": {"FID CODE": 28, "NAME": "中山國中站", "LOC": "復興北路介於錦州街與民權東路之間"}}, {"type": "Feature", "id": 34, "geometry": {"type": "Point", "coordinates": [306274.8405535604, 2770473.22312597]}, "properties": {"FID CODE": 34, "NAME": "國父紀念館", "LOC": "忠孝東路與光復南路交叉口"}}, {"type": "Feature", "id": 35, "geometry": {"type": "Point", "coordinates": [305464.1711209178, 2770486.2269506166]}, "properties": {"FID CODE": 35, "NAME": "忠孝敦化站", "LOC": "忠孝東路統領商圈附近"}}, {"type": "Feature", "id": 36, "geometry": {"type": "Point", "coordinates": [304872.59889900737, 2770495.7297050767]}, "properties": {"FID CODE": 36, "NAME": "忠孝復興站", "LOC": "忠孝東路與復興南路交叉口"}}, {"type": "Feature", "id": 41, "geometry": {"type": "Point", "coordinates": [300579.2128492637, 2769773.2367869937]}, "properties": {"FID CODE": 41, "NAME": "龍山寺站", "LOC": "和平西路三段與康定路交叉口"}}, {"type": "Feature", "id": 50, "geometry": {"type": "Point", "coordinates": [302807.2541111209, 2770843.2446207674]}, "properties": {"FID CODE": 50, "NAME": "善導寺站", "LOC": "忠孝東路與林森路交叉口"}}, {"type": "Feature", "id": 51, "geometry": {"type": "Point", "coordinates": [301543.85385524586, 2769825.9834293663]}, "properties": {"FID CODE": 51, "NAME": "小南門站", "LOC": "愛國西路與博愛路交叉口附近"}}, {"type": "Feature", "id": 52, "geometry": {"type": "Point", "coordinates": [302176.92608777934, 2769673.4780921093]}, "properties": {"FID CODE": 52, "NAME": "中正紀念堂", "LOC": "羅斯福路與愛國東路交叉口 (中央銀行前)"}}, {"type": "Feature", "id": 54, "geometry": {"type": "Point", "coordinates": [303774.86252284807, 2770574.7358777355]}, "properties": {"FID CODE": 54, "NAME": "忠孝新生站", "LOC": "忠孝東路與新生南路交叉口"}}, {"type": "Feature", "id": 55, "geometry": {"type": "Point", "coordinates": [302211.0887274421, 2770998.2498106468]}, "properties": {"FID CODE": 55, "NAME": "台北車站", "LOC": "台鐵火車站對面之忠孝西路地面下"}}, {"type": "Feature", "id": 56, "geometry": {"type": "Point", "coordinates": [301309.63445417845, 2770549.4963619723]}, "properties": {"FID CODE": 56, "NAME": "西門站", "LOC": "中華路與成都路交叉口"}}, {"type": "Feature", "id": 68, "geometry": {"type": "Point", "coordinates": [304892.5954283817, 2771679.9278445314]}, "properties": {"FID CODE": 68, "NAME": "南京復興站", "LOC": "復興北路與南京東路交叉口(木柵線)"}}, {"type": "Feature", "id": 77, "geometry": {"type": "Point", "coordinates": [303792.026701876, 2772304.014399239]}, "properties": {"FID CODE": 77, "NAME": "行天宮站", "LOC": "民生東路與錦州街間之松江路下方"}}, {"type": "Feature", "id": 78, "geometry": {"type": "Point", "coordinates": [303235.8948656651, 2772820.7753501446]}, "properties": {"FID CODE": 78, "NAME": "中山國小站", "LOC": "林森北路與新生北路間之民權東路下方"}}, {"type": "Feature", "id": 79, "geometry": {"type": "Point", "coordinates": [300431.3489200102, 2772842.5380818252]}, "properties": {"FID CODE": 79, "NAME": "台北橋站", "LOC": "三重市重新路一、二段與文化南、北路交叉口兩側"}}, {"type": "Feature", "id": 80, "geometry": {"type": "Point", "coordinates": [299551.9304259, 2772474.3046863903]}, "properties": {"FID CODE": 80, "NAME": "菜寮站", "LOC": "三重市重新路三段，中正南路高架橋與光明路之間"}}, {"type": "Feature", "id": 91, "geometry": {"type": "Point", "coordinates": [303785.7738841963, 2771688.5042292466]}, "properties": {"FID CODE": 91, "NAME": "松江南京站", "LOC": "松江路與南京東路交叉口"}}, {"type": "Feature", "id": 94, "geometry": {"type": "Point", "coordinates": [301741.0043659901, 2772845.085709091]}, "properties": {"FID CODE": 94, "NAME": "大橋頭站", "LOC": "民權西路大橋國小旁"}}, {"type": "Feature", "id": 95, "geometry": {"type": "Point", "coordinates": [303314.6320754422, 2769639.4725048207]}, "properties": {"FID CODE": 95, "NAME": "東門站", "LOC": "金山南路與永康街間之信義路下方(交會站)"}}, {"type": "Feature", "id": 100, "geometry": {"type": "Point", "coordinates": [304019.8223351264, 2769598.7809667997]}, "properties": {"FID CODE": 100, "NAME": "大安森林公園站", "LOC": "信義路三段大安森林公園內(建國南路與新生南路間,經濟"}}, {"type": "Feature", "id": 101, "geometry": {"type": "Point", "coordinates": [305828.8572101542, 2769563.384249532]}, "properties": {"FID CODE": 101, "NAME": "信義安和站", "LOC": "信義安和路口"}}, {"type": "Feature", "id": 103, "geometry": {"type": "Point", "coordinates": [304846.1196396248, 2771632.944698089]}, "properties": {"FID CODE": 103, "NAME": "南京復興站", "LOC": "復興北路與南京東路交叉口(松山線)"}}, {"type": "Feature", "id": 104, "geometry": {"type": "Point", "coordinates": [303783.8123583883, 2771645.8549764245]}, "properties": {"FID CODE": 104, "NAME": "松江南京站", "LOC": "松江路與南京東路交叉口(松山線)"}}, {"type": "Feature", "id": 107, "geometry": {"type": "Point", "coordinates": [305696.4379800666, 2771611.734321021]}, "properties": {"FID CODE": 107, "NAME": "台北小巨蛋站", "LOC": "台北小巨蛋西北側\r\n臺北小巨蛋北側"}}, {"type": "Feature", "id": 108, "geometry": {"type": "Point", "coordinates": [301487.3944331625, 2771334.576695076]}, "properties": {"FID CODE": 108, "NAME": "北門站", "LOC": "塔城街\r\n塔城街"}}, {"type": "Feature", "id": 109, "geometry": {"type": "Point", "coordinates": [302506.90928645316, 2771713.0103202793]}, "properties": {"FID CODE": 109, "NAME": "中山站", "LOC": "原台鐵淡水線與南京西路交叉口(松山線)"}}]}