{"type": "FeatureCollection", "features": [{"type": "Feature", "geometry": {"type": "Point", "coordinates": [121.5139985, 25.0539051]}, "properties": {"osm_type": "node", "osm_id": 3992053164, "name": "星巴克", "categories": ["餐飲"], "amenity": "cafe", "shop": null, "leisure": null, "office": null, "address": "103005臺北市大同區南京西路288號", "opening_hours": "Mo-Su 07:30-22:00"}}, {"type": "Feature", "geometry": {"type": "Point", "coordinates": [121.5135597, 25.0530794]}, "properties": {"osm_type": "node", "osm_id": 4018206191, "name": "南施咖啡", "categories": ["餐飲"], "amenity": "cafe", "shop": null, "leisure": null, "office": null, "address": null, "opening_hours": null}}, {"type": "Feature", "geometry": {"type": "Point", "coordinates": [121.5118929, 25.0540819]}, "properties": {"osm_type": "node", "osm_id": 4273737290, "name": "森高砂咖啡館", "categories": ["餐飲"], "amenity": "cafe", "shop": null, "leisure": null, "office": null, "address": "103009臺北市大同區延平北路二段1號", "opening_hours": null}}, {"type": "Feature", "geometry": {"type": "Point", "coordinates": [121.5138982, 25.0535048]}, "properties": {"osm_type": "node", "osm_id": 4317096441, "name": "Goee Coffee", "categories": ["餐飲"], "amenity": "cafe", "shop": null, "leisure": null, "office": null, "address": "103007臺北市大同區天水路13號", "opening_hours": null}}, {"type": "Feature", "geometry": {"type": "Point", "coordinates": [121.5167192, 25.0505958]}, "properties": {"osm_type": "node", "osm_id": 4317096442, "name": "卡馬咖啡", "categories": ["餐飲"], "amenity": "cafe", "shop": null, "leisure": null, "office": null, "address": "10349臺北市大同區承德路一段30號", "opening_hours": "Mo-Fr 07:30-20:00, Sa-Su 09:00-19:00"}}, {"type": "Feature", "geometry": {"type": "Point", "coordinates": [121.5138966, 25.0524972]}, "properties": {"osm_type": "node", "osm_id": 4352781092, "name": "50嵐", "categories": ["餐飲", "零售/商店"], "amenity": "cafe", "shop": "beverages", "leisure": null, "office": null, "address": "103007臺北市大同區重慶北路一段84號", "opening_hours": null}}, {"type": "Feature", "geometry": {"type": "Point", "coordinates": [121.5166862, 25.0504197]}, "properties": {"osm_type": "node", "osm_id": 4449757844, "name": "50嵐", "categories": ["餐飲", "零售/商店"], "amenity": "cafe", "shop": "beverages", "leisure": null, "office": null, "address": "103022臺北市大同區承德路一段20號", "opening_hours": null}}, {"type": "Feature", "geometry": {"type": "Point", "coordinates": [121.5147098, 25.0526887]}, "properties": {"osm_type": "node", "osm_id": 4718793089, "name": "倫爸咖啡", "categories": ["餐飲"], "amenity": "cafe", "shop": null, "leisure": null, "office": null, "address": null, "opening_hours": null}}, {"type": "Feature", "geometry": {"type": "Point", "coordinates": [121.5132641, 25.05144]}, "properties": {"osm_type": "node", "osm_id": 6340973588, "name": "朔望咖啡", "categories": ["餐飲"], "amenity": "cafe", "shop": null, "leisure": null, "office": null, "address": "103007臺北市大同區延平北路一段69巷40號1樓", "opening_hours": null}}, {"type": "Feature", "geometry": {"type": "Point", "coordinates": [121.5103599, 25.0505326]}, "properties": {"osm_type": "node", "osm_id": 6422218523, "name": "無限家", "categories": ["餐飲"], "amenity": "cafe", "shop": null, "leisure": null, "office": null, "address": null, "opening_hours": null}}, {"type": "Feature", "geometry": {"type": "Point", "coordinates": [121.5119675, 25.0540253]}, "properties": {"osm_type": "node", "osm_id": 6433456339, "name": "黑美人小茶棧", "categories": ["餐飲"], "amenity": "cafe", "shop": null, "leisure": null, "office": null, "address": "103008臺北市大同區南京西路195之1號", "opening_hours": null}}, {"type": "Feature", "geometry": {"type": "Point", "coordinates": [121.5101056, 25.0540309]}, "properties": {"osm_type": "node", "osm_id": 6579661156, "name": "迪茶", "categories": ["餐飲"], "amenity": "cafe", "shop": null, "leisure": null, "office": null, "address": "103012臺北市大同區迪化街一段10號1樓", "opening_hours": "Mo-Su 11:00-19:00"}}, {"type": "Feature", "geometry": {"type": "Point", "coordinates": [121.5156892, 25.0511105]}, "properties": {"osm_type": "node", "osm_id": 6682287300, "name": "Pandaland Sweet Café", "categories": ["餐飲"], "amenity": "cafe", "shop": null, "leisure": null, "office": null, "address": null, "opening_hours": "Mo-Su 09:00-19:00"}}, {"type": "Feature", "geometry": {"type": "Point", "coordinates": [121.5158585, 25.0510559]}, "properties": {"osm_type": "node", "osm_id": 6682287325, "name": "La bambina caffè", "categories": ["餐飲"], "amenity": "cafe", "shop": null, "leisure": null, "office": null, "address": null, "opening_hours": null}}, {"type": "Feature", "geometry": {"type": "Point", "coordinates": [121.5172485, 25.0522826]}, "properties": {"osm_type": "node", "osm_id": 6682287327, "name": "(無名稱)", "categories": ["餐飲"], "amenity": "cafe", "shop": null, "leisure": null, "office": null, "address": null, "opening_hours": null}}, {"type": "Feature", "geometry": {"type": "Point", "coordinates": [121.5157678, 25.0495941]}, "properties": {"osm_type": "node", "osm_id": 6885204885, "name": "壹玖木巷", "categories": ["餐飲"], "amenity": "cafe", "shop": null, "leisure": null, "office": null, "address": null, "opening_hours": null}}, {"type": "Feature", "geometry": {"type": "Point", "coordinates": [121.5156492, 25.0501191]}, "properties": {"osm_type": "node", "osm_id": 6924533514, "name": "Star Cafe", "categories": ["餐飲"], "amenity": "cafe", "shop": null, "leisure": null, "office": null, "address": null, "opening_hours": null}}, {"type": "Feature", "geometry": {"type": "Point", "coordinates": [121.5161159, 25.0530796]}, "properties": {"osm_type": "node", "osm_id": 8024462016, "name": "三角巷", "categories": ["餐飲"], "amenity": "cafe", "shop": null, "leisure": null, "office": null, "address": null, "opening_hours": null}}, {"type": "Feature", "geometry": {"type": "Point", "coordinates": [121.5179101, 25.0497184]}, "properties": {"osm_type": "node", "osm_id": 10976174517, "name": "Twin Brothers Coffee", "categories": ["餐飲"], "amenity": "cafe", "shop": null, "leisure": null, "office": null, "address": null, "opening_hours": null}}, {"type": "Feature", "geometry": {"type": "Point", "coordinates": [121.5177458, 25.0497566]}, "properties": {"osm_type": "node", "osm_id": 10976424993, "name": "路易莎咖啡", "categories": ["餐飲"], "amenity": "cafe", "shop": null, "leisure": null, "office": null, "address": null, "opening_hours": null}}, {"type": "Feature", "geometry": {"type": "Point", "coordinates": [121.5119336, 25.0534033]}, "properties": {"osm_type": "node", "osm_id": 11233541692, "name": "143 POLARIS", "categories": ["餐飲"], "amenity": "cafe", "shop": null, "leisure": null, "office": null, "address": "103007臺北市大同區延平北路一段143號", "opening_hours": null}}, {"type": "Feature", "geometry": {"type": "Point", "coordinates": [121.5152035, 25.0508454]}, "properties": {"osm_type": "node", "osm_id": 11462747551, "name": "町咖啡", "categories": ["餐飲"], "amenity": "cafe", "shop": null, "leisure": null, "office": null, "address": "103015臺北市大同區太原路50號2樓", "opening_hours": "Mo-Su 08:00-03:00"}}, {"type": "Feature", "geometry": {"type": "Point", "coordinates": [121.5153232, 25.051414]}, "properties": {"osm_type": "node", "osm_id": 11462987117, "name": "茶聚", "categories": ["餐飲"], "amenity": "cafe", "shop": null, "leisure": null, "office": null, "address": "103016臺北市大同區長安西路129號", "opening_hours": "Mo-Su 10:30-21:00"}}, {"type": "Feature", "geometry": {"type": "Point", "coordinates": [121.5102688, 25.0521533]}, "properties": {"osm_type": "node", "osm_id": 11555970197, "name": "街咖啡", "categories": ["餐飲"], "amenity": "cafe", "shop": null, "leisure": null, "office": null, "address": "103002臺北市大同區長安西路277號", "opening_hours": null}}, {"type": "Feature", "geometry": {"type": "Point", "coordinates": [121.5118679, 25.0536661]}, "properties": {"osm_type": "node", "osm_id": 12116593902, "name": "潮洋行 Cafe", "categories": ["餐飲"], "amenity": "cafe", "shop": null, "leisure": null, "office": null, "address": "103臺北市大同區延平北路一段151號", "opening_hours": "Mo-Su 11:00-19:00"}}, {"type": "Feature", "geometry": {"type": "Point", "coordinates": [121.5150309, 25.0532162]}, "properties": {"osm_type": "node", "osm_id": 12135717098, "name": "街上The Street", "categories": ["餐飲"], "amenity": "cafe", "shop": null, "leisure": null, "office": null, "address": "臺北市大同區重慶北路一段89巷29號", "opening_hours": "We-Mo 14:00-23:00"}}, {"type": "Feature", "geometry": {"type": "Point", "coordinates": [121.5104727, 25.0524258]}, "properties": {"osm_type": "node", "osm_id": 12306530701, "name": "be.coffee", "categories": ["餐飲"], "amenity": "cafe", "shop": null, "leisure": null, "office": null, "address": "臺北市大同區塔城街43號", "opening_hours": null}}, {"type": "Feature", "geometry": {"type": "Point", "coordinates": [121.5110597, 25.0491736]}, "properties": {"osm_type": "node", "osm_id": 12854394419, "name": "鐵道餐廳", "categories": ["餐飲"], "amenity": "cafe", "shop": null, "leisure": null, "office": null, "address": null, "opening_hours": null}}, {"type": "Feature", "geometry": {"type": "Point", "coordinates": [121.5114787, 25.0528976]}, "properties": {"osm_type": "node", "osm_id": 13057713696, "name": "来蘇遅珊", "categories": ["餐飲"], "amenity": "cafe", "shop": null, "leisure": null, "office": null, "address": null, "opening_hours": null}}, {"type": "Feature", "geometry": {"type": "Point", "coordinates": [121.5113649, 25.0520904]}, "properties": {"osm_type": "node", "osm_id": 13722484101, "name": "(無名稱)", "categories": ["餐飲"], "amenity": "cafe", "shop": null, "leisure": null, "office": null, "address": null, "opening_hours": null}}, {"type": "Feature", "geometry": {"type": "Point", "coordinates": [121.5134771, 25.0505808]}, "properties": {"osm_type": "node", "osm_id": 4308924329, "name": "萊爾富", "categories": ["零售/商店"], "amenity": null, "shop": "convenience", "leisure": null, "office": null, "address": null, "opening_hours": null}}, {"type": "Feature", "geometry": {"type": "Point", "coordinates": [121.5145875, 25.0513456]}, "properties": {"osm_type": "node", "osm_id": 4801328121, "name": "7-Eleven", "categories": ["零售/商店"], "amenity": null, "shop": "convenience", "leisure": null, "office": null, "address": "103015臺北市大同區長安西路228號1樓", "opening_hours": "24/7"}}, {"type": "Feature", "geometry": {"type": "Point", "coordinates": [121.5151142, 25.0504268]}, "properties": {"osm_type": "node", "osm_id": 4841674016, "name": "7-Eleven", "categories": ["零售/商店"], "amenity": null, "shop": "convenience", "leisure": null, "office": null, "address": "103015臺北市大同區太原路40、42、44號", "opening_hours": "24/7"}}, {"type": "Feature", "geometry": {"type": "Point", "coordinates": [121.5119582, 25.0518806]}, "properties": {"osm_type": "node", "osm_id": 6499848178, "name": "7-Eleven", "categories": ["零售/商店"], "amenity": null, "shop": "convenience", "leisure": null, "office": null, "address": "103007臺北市大同區延平北路一段89、91、93號1樓", "opening_hours": "24/7"}}, {"type": "Feature", "geometry": {"type": "Point", "coordinates": [121.5138917, 25.0524539]}, "properties": {"osm_type": "node", "osm_id": 9377991064, "name": "蝦皮店到店", "categories": ["辦公室", "零售/商店"], "amenity": null, "shop": "convenience", "leisure": null, "office": "courier", "address": "103007臺北市大同區重慶北路一段82號1樓", "opening_hours": "Mo-Su 11:30-22:30"}}, {"type": "Feature", "geometry": {"type": "Point", "coordinates": [121.5134016, 25.0516294]}, "properties": {"osm_type": "node", "osm_id": 11333009836, "name": "全家便利商店", "categories": ["零售/商店"], "amenity": null, "shop": "convenience", "leisure": null, "office": null, "address": "103012臺北市大同區長安西路258號1樓", "opening_hours": "24/7"}}, {"type": "Feature", "geometry": {"type": "Point", "coordinates": [121.5134457, 25.0507069]}, "properties": {"osm_type": "node", "osm_id": 13063612410, "name": "7-Eleven", "categories": ["零售/商店"], "amenity": null, "shop": "convenience", "leisure": null, "office": null, "address": null, "opening_hours": null}}, {"type": "Feature", "geometry": {"type": "Point", "coordinates": [121.515086, 25.0535686]}, "properties": {"osm_type": "node", "osm_id": 3992167374, "name": "聯準行銷顧問公司", "categories": ["辦公室"], "amenity": null, "shop": null, "leisure": null, "office": "company", "address": "104台北市大同區南京西路264號", "opening_hours": null}}, {"type": "Feature", "geometry": {"type": "Point", "coordinates": [121.5176306, 25.0521101]}, "properties": {"osm_type": "node", "osm_id": 4449312466, "name": "21世紀不動產", "categories": ["辦公室"], "amenity": null, "shop": null, "leisure": null, "office": "estate_agent", "address": null, "opening_hours": null}}, {"type": "Feature", "geometry": {"type": "Point", "coordinates": [121.5166512, 25.0503452]}, "properties": {"osm_type": "node", "osm_id": 4449757818, "name": "台湾大哥大", "categories": ["辦公室"], "amenity": null, "shop": null, "leisure": null, "office": "telecommunication", "address": null, "opening_hours": null}}, {"type": "Feature", "geometry": {"type": "Point", "coordinates": [121.517179, 25.0521859]}, "properties": {"osm_type": "node", "osm_id": 4782358323, "name": "財團法人加惠心理諮商文教基金會", "categories": ["辦公室"], "amenity": null, "shop": null, "leisure": null, "office": "ngo", "address": "10355臺北市承德路1段68號7樓", "opening_hours": null}}, {"type": "Feature", "geometry": {"type": "Point", "coordinates": [121.5140594, 25.0486746]}, "properties": {"osm_type": "node", "osm_id": 5021873863, "name": "機場通關自動代辦", "categories": ["辦公室"], "amenity": null, "shop": null, "leisure": null, "office": "government", "address": null, "opening_hours": null}}, {"type": "Feature", "geometry": {"type": "Point", "coordinates": [121.5138416, 25.048761]}, "properties": {"osm_type": "node", "osm_id": 5021905667, "name": "免稅服務中心", "categories": ["辦公室"], "amenity": null, "shop": null, "leisure": null, "office": "tax_advisor", "address": null, "opening_hours": null}}, {"type": "Feature", "geometry": {"type": "Point", "coordinates": [121.5156889, 25.0523276]}, "properties": {"osm_type": "node", "osm_id": 5066611802, "name": "臺灣童心創意行動協會", "categories": ["辦公室"], "amenity": null, "shop": null, "leisure": null, "office": "ngo", "address": "104台北市大同區太原路98號二樓", "opening_hours": null}}, {"type": "Feature", "geometry": {"type": "Point", "coordinates": [121.5123909, 25.0525145]}, "properties": {"osm_type": "node", "osm_id": 6433456327, "name": "大地儀器", "categories": ["辦公室"], "amenity": null, "shop": null, "leisure": null, "office": "company", "address": "103臺北市大同區天水路46號", "opening_hours": null}}, {"type": "Feature", "geometry": {"type": "Point", "coordinates": [121.5125965, 25.0526422]}, "properties": {"osm_type": "node", "osm_id": 6697490072, "name": "展望亞洲股份有限公司台北分公司", "categories": ["辦公室"], "amenity": null, "shop": null, "leisure": null, "office": "company", "address": null, "opening_hours": null}}, {"type": "Feature", "geometry": {"type": "Point", "coordinates": [121.5124972, 25.0523932]}, "properties": {"osm_type": "node", "osm_id": 6697490073, "name": "晉宇鋼鋁工程有限公司", "categories": ["辦公室"], "amenity": null, "shop": null, "leisure": null, "office": "it", "address": null, "opening_hours": null}}, {"type": "Feature", "geometry": {"type": "Point", "coordinates": [121.5119126, 25.053466]}, "properties": {"osm_type": "node", "osm_id": 11233541698, "name": "昱信資產", "categories": ["辦公室"], "amenity": null, "shop": null, "leisure": null, "office": "company", "address": "103007臺北市大同區延平北路一段145號1樓", "opening_hours": null}}, {"type": "Feature", "geometry": {"type": "Point", "coordinates": [121.5142878, 25.052491]}, "properties": {"osm_type": "node", "osm_id": 11360281029, "name": "中信房屋", "categories": ["辦公室"], "amenity": null, "shop": null, "leisure": null, "office": "estate_agent", "address": "103016臺北市大同區重慶北路一段75號", "opening_hours": null}}, {"type": "Feature", "geometry": {"type": "Point", "coordinates": [121.5139506, 25.0527946]}, "properties": {"osm_type": "node", "osm_id": 11360281039, "name": "永慶房屋", "categories": ["辦公室"], "amenity": null, "shop": null, "leisure": null, "office": "estate_agent", "address": "103007臺北市大同區重慶北路一段98號", "opening_hours": null}}, {"type": "Feature", "geometry": {"type": "Point", "coordinates": [121.5139175, 25.0525683]}, "properties": {"osm_type": "node", "osm_id": 11360281040, "name": "台灣房屋", "categories": ["辦公室"], "amenity": null, "shop": null, "leisure": null, "office": "estate_agent", "address": "103007臺北市大同區重慶北路一段88號", "opening_hours": null}}, {"type": "Feature", "geometry": {"type": "Point", "coordinates": [121.5116982, 25.0535107]}, "properties": {"osm_type": "node", "osm_id": 12096328118, "name": "永慶房屋", "categories": ["辦公室"], "amenity": null, "shop": null, "leisure": null, "office": "estate_agent", "address": null, "opening_hours": null}}, {"type": "Feature", "geometry": {"type": "Point", "coordinates": [121.5173166, 25.0531071]}, "properties": {"osm_type": "node", "osm_id": 12438027153, "name": "浪漫銀髮協會", "categories": ["辦公室"], "amenity": null, "shop": null, "leisure": null, "office": "ngo", "address": null, "opening_hours": null}}]}