{"type": "FeatureCollection", "features": [{"type": "Feature", "geometry": {"type": "Polygon", "coordinates": [[[121.52677887727388, 25.028216091759745], [121.52483679807001, 25.02830990742644], [121.52291415568794, 25.028576683213217], [121.52102945845525, 25.029013851141368], [121.519200849918, 25.029617202913695], [121.51805735420807, 25.030114847978112], [121.51759461008173, 25.030183436529327], [121.5172908521515, 25.030233328776813], [121.51684584228796, 25.03031121668352], [121.51658437796867, 25.03035980924894], [121.51653686807074, 25.03036869398966], [121.51630905570833, 25.030411561288215], [121.51551280135045, 25.030530303859877], [121.51514108010352, 25.030575394489404], [121.51469698022537, 25.03027768754181], [121.51302505794686, 25.02937250153481], [121.51126382763435, 25.028620962024586], [121.50943024554817, 25.02803030401522], [121.50754196363089, 25.027606213663468], [121.50561715975728, 25.02735277360239], [121.50367436295203, 25.027272423684202], [121.5017322752479, 25.027365937518173], [121.49980959188801, 25.027632415028204], [121.49792482159219, 25.028069291101325], [121.49609610860603, 25.028672360244734], [121.49434105823528, 25.02943581701563], [121.49267656753523, 25.030352311837163], [121.49111866277609, 25.031413021666562], [121.48968234524327, 25.03260773483926], [121.48838144685082, 25.03392494927656], [121.48722849695633, 25.035351983116474], [121.48623460165861, 25.03687509670749], [121.4854093367418, 25.038479624795965], [121.48476065530114, 25.040150117638877], [121.48429481094543, 25.04187048968807], [121.4840162973237, 25.043624174417637], [121.48392780456847, 25.04539428380713], [121.48403019308483, 25.047163770946636], [121.48412249327713, 25.04771696907657], [121.48394857145037, 25.04936468106952], [121.48395307250136, 25.05113661915367], [121.4841482154682, 25.05289962236705], [121.48453212902321, 25.05463671117145], [121.48510112337715, 25.056331154917466], [121.48584972552528, 25.057966633028602], [121.48677073169652, 25.059527392260044], [121.48785527651123, 25.060998398514535], [121.48909291818944, 25.06236548174929], [121.49047173899591, 25.063615472573847], [121.49197845995913, 25.064736329218235], [121.4935985687613, 25.065717253643164], [121.49531645956769, 25.066548795668812], [121.49623387340924, 25.066892562841115], [121.4962765148551, 25.066911090176077], [121.49633266712414, 25.066929581704272], [121.49711558344626, 25.06722294411391], [121.49775705684466, 25.067398639080658], [121.49810604145817, 25.067513558497], [121.49856060856088, 25.06761872149179], [121.49896208999796, 25.06772868012377], [121.49980307900954, 25.06803398972617], [121.4999148930239, 25.06806779413438], [121.50146006781571, 25.06847236577476], [121.50303616323356, 25.06876154554335], [121.50314627885011, 25.068777547578065], [121.50540910801367, 25.068986030841863], [121.50551022281135, 25.068990031186384], [121.50824591700578, 25.068926036304003], [121.50836953481759, 25.068915334487812], [121.51026498866507, 25.068666602305132], [121.51142545217174, 25.068408236337223], [121.51161801648925, 25.068380049883544], [121.51249793919528, 25.0682439285919], [121.51280221769343, 25.068194630745403], [121.51395027630473, 25.068000200667544], [121.51409707958155, 25.067968479491494], [121.51424626400414, 25.067947947984894], [121.51455490622294, 25.0678912392988], [121.51496229426192, 25.06781631003516], [121.51547061978347, 25.06772421296161], [121.51662279581842, 25.06748271722689], [121.51703054913199, 25.067385502816084], [121.51824693612276, 25.06705727097468], [121.51866538725842, 25.066930952868184], [121.51911109846989, 25.066786278400524], [121.51933879864848, 25.066740862702492], [121.51999482963963, 25.066601022797805], [121.52003932622605, 25.066592665286958], [121.52086132045683, 25.066468553925485], [121.5210409500074, 25.066433104957664], [121.52122310655481, 25.066410785363143], [121.52197136279433, 25.066284785036025], [121.52317635280171, 25.066091616470462], [121.52338827685413, 25.06605656026536], [121.52377182979069, 25.06599115013924], [121.52389796264114, 25.06596863008831], [121.52501062902336, 25.06590481172785], [121.52533797042223, 25.065883555998354], [121.52564001413346, 25.06586165213957], [121.52639050706811, 25.065794117419763], [121.52665654507685, 25.06576551270513], [121.52729862838639, 25.06568676319643], [121.52762877486101, 25.065641255951352], [121.52843674759521, 25.06551426212737], [121.52873568867905, 25.065461453981868], [121.5291623112523, 25.065381650802742], [121.52938714168235, 25.065337244048177], [121.52971779799725, 25.065269233491122], [121.52994832879011, 25.065219926066458], [121.53022787539201, 25.065158181710053], [121.53038499612656, 25.065122376362552], [121.53085144696534, 25.065010569004997], [121.53102516938517, 25.064966862563477], [121.53111647268005, 25.064943677544754], [121.5313115977441, 25.064893670193303], [121.53145468972531, 25.064856469407964], [121.53161741046924, 25.064813563125497], [121.53234381847521, 25.06460818466687], [121.53289718605481, 25.064441060685297], [121.53294118712017, 25.064425550139127], [121.53298658482679, 25.064413845845817], [121.5330473400564, 25.06439520427774], [121.53333926861102, 25.064313984069816], [121.5338584086307, 25.064162408245146], [121.53443331791216, 25.06398657037642], [121.53516227413931, 25.063767895280474], [121.53545074469378, 25.063684866936867], [121.53574729840602, 25.063601373668334], [121.53644093615196, 25.063410815954825], [121.5368601376183, 25.06329101812085], [121.53744437094274, 25.063117555109617], [121.53850477974302, 25.062823075549826], [121.53945739404695, 25.062801282450287], [121.53973803374245, 25.06279304915638], [121.54021300306435, 25.06277604554798], [121.54059468714615, 25.06275902278023], [121.54075545862477, 25.06275043660632], [121.54079981003851, 25.06274810748642], [121.54246472102372, 25.062813006222964], [121.54440708113096, 25.062714858375028], [121.54632951890105, 25.06244374572436], [121.54821351243352, 25.0620022804778], [121.55004091072934, 25.061394716082887], [121.55179410876862, 25.0606269061917], [121.55345621729404, 25.05970624819173], [121.55501122565614, 25.05864161185094], [121.55644415614415, 25.057443253768923], [121.55774120831124, 25.05612271846274], [121.55888989190107, 25.054692727045545], [121.55987914709422, 25.053167054575404], [121.56069945091885, 25.051560397260886], [121.56134290880418, 25.049888230807625], [121.56157488478928, 25.049020851793564], [121.56158494314377, 25.048990402548586], [121.5615929482714, 25.048953310303467], [121.56180333040129, 25.048166661274347], [121.56190824554994, 25.04749234385847], [121.56196016648386, 25.04725175895511], [121.56199082000504, 25.04696161106437], [121.56207628894941, 25.04641226987914], [121.5620981173858, 25.04594598843884], [121.56214650370791, 25.0454879830408], [121.56214516528863, 25.044940979701202], [121.56215916362514, 25.04464195325335], [121.56214381862793, 25.04439058219521], [121.56214216836118, 25.043716061491978], [121.56205393885111, 25.042918209946397], [121.56205116447795, 25.042872760684173], [121.56204472870863, 25.04283492279359], [121.56194721038825, 25.04195305872268], [121.56156351533717, 25.040215952541516], [121.56099478589341, 25.03852147067981], [121.56024650593343, 25.036885929754263], [121.55932588745478, 25.03532507821258], [121.55824180090383, 25.03385394477138], [121.55700468958052, 25.03248669380203], [121.55562646895055, 25.03123648905245], [121.55412041183932, 25.030115367012204], [121.55250102061515, 25.029134121135254], [121.55078388759232, 25.028302198029753], [121.54898554499583, 25.02762760660961], [121.54712330592778, 25.027116841077742], [121.54521509786002, 25.026774818478426], [121.54473016698627, 25.02671022652173], [121.54431401156855, 25.02665889129559], [121.54401195497104, 25.026624595468167], [121.54351278808696, 25.026573762455694], [121.54325772501866, 25.02655076513174], [121.54197020091313, 25.026473132714738], [121.54159715550246, 25.026461733439454], [121.5403279263127, 25.026459995723716], [121.53963062814005, 25.02647939122409], [121.53910014541816, 25.02650062917841], [121.53812268751234, 25.026551719453078], [121.53769118195547, 25.02657857892258], [121.53693549122923, 25.02663316925802], [121.53674435844718, 25.026647824278598], [121.5364732462609, 25.02666981564538], [121.5363733357493, 25.026676980441707], [121.53495085710786, 25.02675274813977], [121.53455536858696, 25.02677742985353], [121.5341516269817, 25.026806324733922], [121.53367276441728, 25.026845925581938], [121.53331481579724, 25.02687951991533], [121.53218206728957, 25.027015996152098], [121.53196759729335, 25.027047591161626], [121.53154495573175, 25.027114136147972], [121.5312490966048, 25.027163728444716], [121.53064617119817, 25.02727362647704], [121.53033051390075, 25.02733581701365], [121.5297340816563, 25.027462142193023], [121.52901337678682, 25.02762551778111], [121.52792774709359, 25.02790170596045], [121.52681050391806, 25.02821739503407], [121.52677887727388, 25.028216091759745]]]}, "properties": {"name": "市民大道西段 2000m 緩衝範圍", "area_km2": 30.1}}]}