{"type": "FeatureCollection", "features": [{"type": "Feature", "geometry": {"type": "MultiLineString", "coordinates": [[[121.5423394, 25.0447574], [121.541796, 25.044711799999995], [121.5412892, 25.044679999999996], [121.540993, 25.044673799999998], [121.5407125, 25.044675099999996], [121.5403241, 25.04469140000001], [121.5399173, 25.044708500000002], [121.53960499999998, 25.0447249], [121.5394346, 25.044733999999995], [121.5389597, 25.044750999999998], [121.5379411, 25.044774299999997], [121.5375361, 25.044782], [121.5366679, 25.044824499999997], [121.53581709999999, 25.044872700000003], [121.53551590000001, 25.044899799999996], [121.5352304, 25.0449359], [121.53503379999998, 25.044965400000002], [121.53464430000001, 25.0450306], [121.5342338, 25.045131900000005], [121.53382700000002, 25.045245699999995], [121.5314824, 25.045896800000005], [121.5307175, 25.046123899999998], [121.5299589, 25.0463323], [121.529538, 25.046450799999995], [121.52907589999998, 25.0465838], [121.52817850000001, 25.046853], [121.5275491, 25.047045499999996], [121.52698730000002, 25.0472018], [121.52665910000002, 25.047302499999997]], [[121.5266128, 25.047199199999998], [121.5269455, 25.047100899999997], [121.5274438, 25.04691], [121.5280713, 25.0467108], [121.5291343, 25.0463864], [121.53012950000002, 25.0461268], [121.5305701, 25.0460273], [121.53100689999998, 25.045905199999996], [121.53131829999998, 25.0458402], [121.5315752, 25.045779099999994], [121.5326688, 25.045466599999997], [121.53379880000001, 25.045147299999996], [121.5345196, 25.0449839], [121.5348353, 25.044921699999996], [121.5351312, 25.04487209999999], [121.5353457, 25.044840499999992], [121.53570370000001, 25.044806900000005], [121.53610750000001, 25.044778], [121.53772949999998, 25.0446916], [121.53812970000001, 25.04466289999999], [121.53850200000001, 25.044632699999998], [121.53925779999999, 25.0445781], [121.5402354, 25.044526999999995], [121.54093280000001, 25.0445076], [121.5413059, 25.044518999999998], [121.54156100000002, 25.044541999999996], [121.54186310000001, 25.0445763], [121.5423481, 25.0446409]], [[121.52665910000002, 25.047302499999997], [121.5261058, 25.047469600000003], [121.5259431, 25.047512499999996], [121.52574800000001, 25.0475625], [121.5255743, 25.0476062], [121.52541720000002, 25.047641999999996], [121.5251867, 25.0476913], [121.52496190000001, 25.047735699999997], [121.52466300000002, 25.047788500000003], [121.5243329, 25.047834], [121.5240669, 25.0478626], [121.5237649, 25.047884500000002], [121.52173180000001, 25.0480011], [121.52147460000002, 25.048023599999997], [121.52122720000001, 25.048045899999998], [121.5210333, 25.048072799999996], [121.52081610000002, 25.0481098], [121.52043390000001, 25.0481857], [121.5201241, 25.048243500000005], [121.5197406, 25.048308899999995], [121.5184518, 25.048515499999997]], [[121.51036810000001, 25.0501216], [121.51079890000001, 25.050063699999995], [121.51146410000001, 25.049947099999997], [121.51195760000002, 25.0498402], [121.51227950000002, 25.049743], [121.5130412, 25.0494805], [121.5145218, 25.049081999999995], [121.5153265, 25.048887599999997], [121.51770829999998, 25.048479399999994]], [[121.5043359, 25.048563599999998], [121.5043831, 25.0484065], [121.50441440000002, 25.0483577], [121.5044435, 25.0483196], [121.5045252, 25.0482309], [121.5046477, 25.048154199999992], [121.504782, 25.0480992], [121.50488180000002, 25.048072199999996], [121.50501140000001, 25.048065099999995], [121.50512720000002, 25.0480874], [121.50522669999998, 25.048106499999996], [121.5053111, 25.0481489], [121.50543359999999, 25.048266], [121.5055397, 25.04841319999999], [121.5059553, 25.0489822], [121.50621750000002, 25.049465700000002], [121.50629950000001, 25.049637300000004], [121.506461, 25.0499771]], [[121.50374810000001, 25.050207599999997], [121.5038082, 25.050133399999996], [121.50458600000002, 25.049696], [121.5046316, 25.0496437], [121.50466199999998, 25.0495923], [121.5046839, 25.049542899999995], [121.5046983, 25.049489], [121.5046946, 25.0494433], [121.50468530000002, 25.049407999999993], [121.5046513, 25.049334800000004], [121.5044776, 25.0489946]], [[121.51641570000001, 25.0488374], [121.5157342, 25.048965399999997], [121.5148222, 25.049159800000005], [121.5139854, 25.0493153], [121.51335240000002, 25.049470800000005], [121.5124297, 25.0497916], [121.51201130000001, 25.049917899999997], [121.51160360000002, 25.050015099999992], [121.51106710000002, 25.0501123], [121.51063540000001, 25.050191700000003], [121.5103268, 25.050248400000005]], [[121.51842220000002, 25.0483928], [121.51956350000002, 25.0482226], [121.51995920000002, 25.048161899999997], [121.5205459, 25.048051499999993], [121.5208074, 25.048002899999993], [121.5211112, 25.047952999999996], [121.521372, 25.047918499999998], [121.5216984, 25.047892300000008], [121.52396279999999, 25.047759300000003], [121.5243144, 25.047729499999996], [121.5246944, 25.0476749], [121.52492839999998, 25.0476366], [121.5251975, 25.047580700000005], [121.52550709999998, 25.047510299999995], [121.52584720000002, 25.0474228], [121.52615480000001, 25.047338299999996], [121.5266128, 25.047199199999998]], [[121.5176198, 25.0486556], [121.51641570000001, 25.0488374]], [[121.50766610000001, 25.0506663], [121.5071618, 25.050724699999996], [121.50695800000001, 25.050783], [121.50675409999998, 25.050851], [121.5066185, 25.0509067], [121.506494, 25.050940300000004], [121.5063704, 25.050950999999994], [121.5062693, 25.050946999999997], [121.5061592, 25.050930999999995], [121.50604740000001, 25.0508972], [121.50594990000002, 25.0508556], [121.5058536, 25.050800599999995], [121.5056764, 25.050646099999998], [121.50559679999999, 25.0505346]], [[121.5044776, 25.0489946], [121.50440360000002, 25.0488832], [121.5043581, 25.048760499999997], [121.50434130000001, 25.048691199999997], [121.5043359, 25.0486347], [121.5043359, 25.048563599999998]], [[121.5184518, 25.048515499999997], [121.5176198, 25.0486556]], [[121.5103268, 25.050248400000005], [121.50917889999998, 25.0504428], [121.50829910000002, 25.0505789], [121.50766610000001, 25.0506663]], [[121.51770829999998, 25.048479399999994], [121.51842220000002, 25.0483928]], [[121.506461, 25.0499771], [121.50664689999999, 25.050287299999997], [121.50670360000001, 25.050389700000004], [121.5067809, 25.0504768], [121.5068648, 25.050532699999994], [121.50695869999998, 25.050564899999998], [121.50708919999998, 25.0505762], [121.5071987, 25.050566099999998], [121.5076237, 25.050523100000003]], [[121.50470900000002, 25.0498559], [121.50409789999999, 25.0502044], [121.5039225, 25.0502523]], [[121.50559679999999, 25.0505346], [121.50545910000001, 25.050360600000005], [121.505371, 25.0502678]], [[121.5051656, 25.049996300000004], [121.5051049, 25.0499232], [121.50505620000001, 25.0498797], [121.5050009, 25.049852199999997], [121.504935, 25.049831600000005], [121.5048583, 25.049826], [121.5047839, 25.049835700000003], [121.50470900000002, 25.0498559]], [[121.5076237, 25.050523100000003], [121.5099299, 25.0501804], [121.51036810000001, 25.0501216]], [[121.505371, 25.0502678], [121.5051656, 25.049996300000004]]]}, "properties": {"name": "市民大道西段路廊(延平河濱公園端—華山大草皮,OSM 橋樑路段近似,非完整平面道路)", "length_m": 8369.2}}]}